RENTAL_ZONE_HAL_ID,RENTAL_ZONE_HAL_SRC,NAME,CODE,TYPE,CITY,COUNTRY,LATITUDE,LONGITUDE,POI_AIRPORT_X,POI_LONG_DISTANCE_TRAINS_X,POI_SUBURBAN_TRAINS_X,POI_UNDERGROUND_X,ACTIVE_X,COMPANY,COMPANY_GROUP
354,Standort,Münchner Freiheit,88001308,normal,München,Deutschland,11.586111110000000,48.161944440000000,Nein,Nein,Nein,Nein,Ja,Call a Bike,Call a Bike
388,Standort,Ostbahnhof,88001662,normal,München,Deutschland,11.604444440000000,48.128611110000000,Nein,Nein,Nein,Nein,Ja,Call a Bike,Call a Bike
499,Standort,DB_MobilityCenter,88002897,normal,München,Deutschland,,,Nein,Nein,Nein,Nein,Ja,Call a Bike,Call a Bike
1532,Standort,Stiglmaierplatz,88006552,normal,München,Deutschland,11.558888890000000,48.146944440000000,Nein,Nein,Nein,Nein,Ja,Call a Bike,Call a Bike
1559,Standort,DB_MobilityCenter,88006834,normal,München,Deutschland,11.575277780000000,48.160277780000000,Nein,Nein,Nein,Nein,Ja,Call a Bike,Call a Bike
1589,Standort,LMU Projektstandort 5,88007143,normal,München,Deutschland,11.595277780000000,48.150555560000000,Nein,Nein,Nein,Nein,Ja,Call a Bike,Call a Bike
1610,Standort,Kurfürstenplatz,88007319,normal,München,Deutschland,11.575277780000000,48.159722220000000,Nein,Nein,Nein,Nein,Ja,Call a Bike,Call a Bike
1735,Standort,Zülpicher Platz/Friedrichstr.,40027904,normal,Köln,Deutschland,6.939332934200000,50.930237905400000,Nein,Nein,Nein,Nein,Ja,Call a Bike,Call a Bike
1784,Standort,Mediapark,40028331,normal,Köln,Deutschland,6.942899402100000,50.946266014500000,Nein,Nein,Nein,Nein,Ja,Call a Bike,Call a Bike
1797,Standort,The Coffee Store,40028454,normal,Köln,Deutschland,6.952250420600000,50.939732973000000,Nein,Nein,Nein,Nein,Ja,Call a Bike,Call a Bike
1922,Standort,Chlodwigplatz,40029458,normal,Köln,Deutschland,6.959477162300000,50.921020722100000,Nein,Nein,Nein,Nein,Ja,Call a Bike,Call a Bike
1955,Standort,WDR,40018687,normal,Köln,Deutschland,6.956113486400000,50.940594393900000,Nein,Nein,Nein,Nein,Ja,Call a Bike,Call a Bike
2089,Standort,Zülpicher Platz/Friedrichstr.,40019580,normal,Köln,Deutschland,6.940756614800000,50.931067207000000,Nein,Nein,Nein,Nein,Ja,Call a Bike,Call a Bike
2216,Standort,Hansaring/Krefelder Str.,40020512,normal,Köln,Deutschland,6.951829878600000,50.948777870300000,Nein,Nein,Nein,Nein,Ja,Call a Bike,Call a Bike
2414,Standort,Eigelstein/Ebertplatz,40022212,normal,Köln,Deutschland,6.956884699500000,50.949074010600000,Nein,Nein,Nein,Nein,Ja,Call a Bike,Call a Bike
2415,Standort,Eigelstein/Ebertplatz,40022213,normal,Köln,Deutschland,6.956884699500000,50.949074010600000,Nein,Nein,Nein,Nein,Ja,Call a Bike,Call a Bike
3531,Standort,Stachus,88005015,normal,München,Deutschland,11.565555560000000,48.138888890000000,Nein,Nein,Nein,Nein,Ja,Call a Bike,Call a Bike
3710,Standort,Hausener Weg / Ludwig-Landmann-Straße,6048900001,normal,Frankfurt am Main,Deutschland,8.619363000000000,50.131464000000000,Nein,Nein,Nein,Nein,Ja,Call a Bike,Call a Bike
3717,Standort,Praunheimer Landstraße / Im Vogelsgesang,6048800001,normal,Frankfurt am Main,Deutschland,8.624699000000000,50.138729000000000,Nein,Nein,Nein,Nein,Ja,Call a Bike,Call a Bike
3916,Standort,Lokalbahnhof,6059400011,normal,Frankfurt am Main,Deutschland,8.690737000000000,50.101568000000000,Nein,Nein,Nein,Nein,Ja,Call a Bike,Call a Bike
3954,Standort,Kleinmarkthalle,6031100001,normal,Frankfurt am Main,Deutschland,8.682078425400000,50.112254674500000,Nein,Nein,Nein,Nein,Ja,Call a Bike,Call a Bike
3961,Standort,Fressgass,6031300005,normal,Frankfurt am Main,Deutschland,8.676285000000000,50.114175000000000,Nein,Nein,Nein,Nein,Ja,Call a Bike,Call a Bike
4014,Standort,Campus Westend / Hansaallee / Bremer Straße,6032300004,normal,Frankfurt am Main,Deutschland,8.671474747000000,50.127174005500000,Nein,Nein,Nein,Nein,Ja,Call a Bike,Call a Bike
4612,Standort,Zülpicher Platz/Friedrichstr.,40027905,normal,Köln,Deutschland,6.939332934200000,50.930237905400000,Nein,Nein,Nein,Nein,Ja,Call a Bike,Call a Bike
4613,Standort,Zülpicher Platz/Friedrichstr.,40027906,normal,Köln,Deutschland,6.939332934200000,50.930237905400000,Nein,Nein,Nein,Nein,Ja,Call a Bike,Call a Bike
4664,Standort,Mediapark,40028333,normal,Köln,Deutschland,6.942899402100000,50.946266014500000,Nein,Nein,Nein,Nein,Ja,Call a Bike,Call a Bike
4682,Standort,The Coffee Store,40028456,normal,Köln,Deutschland,6.952250420600000,50.939732973000000,Nein,Nein,Nein,Nein,Ja,Call a Bike,Call a Bike
4793,Standort,Eigelstein/Ebertplatz,40029392,normal,Köln,Deutschland,6.956334021100000,50.950296114100000,Nein,Nein,Nein,Nein,Ja,Call a Bike,Call a Bike
4831,Standort,Friesenplatz,40018591,normal,Köln,Deutschland,6.937831691600000,50.940359371200000,Nein,Nein,Nein,Nein,Ja,Call a Bike,Call a Bike
4870,Standort,Friesenplatz,40018923,normal,Köln,Deutschland,6.940042141000000,50.940523807000000,Nein,Nein,Nein,Nein,Ja,Call a Bike,Call a Bike
4908,Standort,Rudolfplatz,40019189,normal,Köln,Deutschland,6.938954316000000,50.936378631400000,Nein,Nein,Nein,Nein,Ja,Call a Bike,Call a Bike
6188,Standort,Zülpicher Platz/Friedrichstr.,40023112,normal,Köln,Deutschland,6.941011210000000,50.930558251000000,Nein,Nein,Nein,Nein,Ja,Call a Bike,Call a Bike
6280,Standort,Bahnhof Haupt- Breslauer Platz,40023820,normal,Köln,Deutschland,6.960443189700000,50.943532231100000,Nein,Nein,Nein,Nein,Ja,Call a Bike,Call a Bike
6498,Standort,Chlodwigplatz,40025634,normal,Köln,Deutschland,6.959266187700000,50.921024433600000,Nein,Nein,Nein,Nein,Ja,Call a Bike,Call a Bike
6572,Standort,Bahnhof Süd,40026126,normal,Köln,Deutschland,6.938814998800000,50.926435570300000,Nein,Nein,Nein,Nein,Ja,Call a Bike,Call a Bike
6630,Standort,Subbelrather/Innere Kanalstr.,40026393,normal,Köln,Deutschland,6.933908902500000,50.949373482800000,Nein,Nein,Nein,Nein,Ja,Call a Bike,Call a Bike
6676,Standort,Barbarossaplatz,40026738,normal,Köln,Deutschland,6.941426066700000,50.929039587400000,Nein,Nein,Nein,Nein,Ja,Call a Bike,Call a Bike
6712,Standort,Breite Strasse/Neue Langgasse/U-Bahn,40027097,normal,Köln,Deutschland,6.950618400000000,50.938903260700000,Nein,Nein,Nein,Nein,Ja,Call a Bike,Call a Bike
6717,Standort,Bahnhof-Haupt- Domseite,400300035,normal,Köln,Deutschland,6.957565565100000,50.941764759600000,Nein,Nein,Nein,Nein,Ja,Call a Bike,Call a Bike
6723,Standort,Lise-Meitner-Str./ Kreuznacherstr. (Novotel),6048600011,normal,Frankfurt am Main,Deutschland,8.642785000000000,50.115468000000000,Nein,Nein,Nein,Nein,Ja,Call a Bike,Call a Bike
6728,Standort,Eigelstein/Ebertplatz,40029681,normal,Köln,Deutschland,6.956884699500000,50.949074010600000,Nein,Nein,Nein,Nein,Ja,Call a Bike,Call a Bike
6729,Standort,Bahnhof West,40029695,normal,Köln,Deutschland,6.933136550800000,50.943442902200000,Nein,Nein,Nein,Nein,Ja,Call a Bike,Call a Bike
6760,Standort,Museum Ludwig,40030179,normal,Köln,Deutschland,6.959877028300000,50.941083182600000,Nein,Ja,Nein,Nein,Ja,Call a Bike,Call a Bike
7596,Standort,Dormero-Hotel / Europaallee,6032700007,normal,Frankfurt am Main,Deutschland,8.643816000000000,50.108311000000000,Nein,Nein,Nein,Nein,Ja,Call a Bike,Call a Bike
8880,Standort,Hauptbahnhof,88000577,normal,München,Deutschland,11.560833330000000,48.139444440000000,Nein,Nein,Nein,Nein,Ja,Call a Bike,Call a Bike
8960,Standort,Münchner Freiheit,88001341,normal,München,Deutschland,11.587500000000000,48.164166670000000,Nein,Nein,Nein,Nein,Ja,Call a Bike,Call a Bike
8993,Standort,Hauptbahnhof,88002000,normal,München,Deutschland,11.560555560000000,48.140555560000000,Nein,Nein,Nein,Nein,Ja,Call a Bike,Call a Bike
8999,Standort,Goetheplatz,88002039,normal,München,Deutschland,11.558333330000000,48.129444440000000,Nein,Nein,Nein,Nein,Ja,Call a Bike,Call a Bike
9052,Standort,Prof.-Huber Platz,88002510,normal,München,Deutschland,11.581944440000000,48.150277780000000,Nein,Nein,Nein,Nein,Ja,Call a Bike,Call a Bike
9090,Standort,Münchner Freiheit,88002885,normal,München,Deutschland,11.586666670000000,48.161666670000000,Nein,Nein,Nein,Nein,Ja,Call a Bike,Call a Bike
10225,Standort,Bahnhof Deutz,40022163,normal,Köln,Deutschland,6.973560040300000,50.939842185300000,Nein,Nein,Nein,Nein,Ja,Call a Bike,Call a Bike
10235,Standort,Eigelstein/Ebertplatz,40022214,normal,Köln,Deutschland,6.956884699500000,50.949074010600000,Nein,Nein,Nein,Nein,Ja,Call a Bike,Call a Bike
10286,Standort,Neumarkt,40022658,normal,Köln,Deutschland,6.949050441300000,50.935507832400000,Nein,Nein,Nein,Nein,Ja,Call a Bike,Call a Bike
10287,Standort,Neumarkt,40022659,normal,Köln,Deutschland,6.949050441300000,50.935507832400000,Nein,Nein,Nein,Nein,Ja,Call a Bike,Call a Bike
10343,Standort,Zülpicher Platz/Friedrichstr.,40023113,normal,Köln,Deutschland,6.941011210000000,50.930558251000000,Nein,Nein,Nein,Nein,Ja,Call a Bike,Call a Bike
10405,Standort,Mediapark,40023597,normal,Köln,Deutschland,6.945105008800000,50.947131194700000,Nein,Nein,Nein,Nein,Ja,Call a Bike,Call a Bike
10439,Standort,Bahnhof Haupt- Breslauer Platz,40023821,normal,Köln,Deutschland,6.960443189700000,50.943532231100000,Nein,Nein,Nein,Nein,Ja,Call a Bike,Call a Bike
10479,Standort,WDR,40024147,normal,Köln,Deutschland,6.953627851400000,50.940181530600000,Nein,Nein,Nein,Nein,Ja,Call a Bike,Call a Bike
10810,Standort,Chlodwigplatz,40029603,normal,Köln,Deutschland,6.959477162300000,50.921020722100000,Nein,Nein,Nein,Nein,Ja,Call a Bike,Call a Bike
10817,Standort,Eigelstein/Ebertplatz,40029679,normal,Köln,Deutschland,6.956884699500000,50.949074010600000,Nein,Nein,Nein,Nein,Ja,Call a Bike,Call a Bike
10844,Standort,Uni Heilpädagogik Haus 213,40030041,normal,Köln,Deutschland,6.921024450300000,50.933659741900000,Nein,Nein,Nein,Nein,Ja,Call a Bike,Call a Bike
10864,Standort,Bahnhof West,40030331,normal,Köln,Deutschland,6.933136550800000,50.943442902200000,Nein,Nein,Nein,Nein,Ja,Call a Bike,Call a Bike
12399,Standort,Stachus,88000075,normal,München,Deutschland,11.565555560000000,48.138888890000000,Nein,Nein,Nein,Nein,Ja,Call a Bike,Call a Bike
12400,Standort,Odeonsplatz,88007457,normal,München,Deutschland,11.577565977200000,48.142344159300000,Nein,Nein,Nein,Nein,Ja,Call a Bike,Call a Bike
12623,Standort,Deutschordenstraße / Heinrich-Hoffmann-Straße,6052800012,normal,Frankfurt am Main,Deutschland,8.652706000000000,50.092593000000000,Nein,Nein,Nein,Nein,Ja,Call a Bike,Call a Bike
12656,Standort,Bockenheimer Landstraße / Mendelssohnstraße,6032300005,normal,Frankfurt am Main,Deutschland,8.659764222400000,50.119072963900000,Nein,Nein,Nein,Nein,Ja,Call a Bike,Call a Bike
12939,Standort,Osthafenplatz / Hanauer Landstraße,6031400016,normal,Frankfurt am Main,Deutschland,8.712003000000000,50.111153000000000,Nein,Nein,Nein,Nein,Ja,Call a Bike,Call a Bike
13191,Standort,Odeonsplatz,88006792,normal,München,Deutschland,11.577970320400000,48.142614000600000,Nein,Nein,Nein,Nein,Ja,Call a Bike,Call a Bike
13197,Standort,Kurfürstenplatz,88006833,normal,München,Deutschland,11.575277780000000,48.160277780000000,Nein,Nein,Nein,Nein,Ja,Call a Bike,Call a Bike
13239,Standort,Sendlinger Tor Platz,88007171,normal,München,Deutschland,11.567219547000000,48.133709237800000,Nein,Nein,Nein,Nein,Ja,Call a Bike,Call a Bike
13302,Standort,Bahnhof Süd,40026124,normal,Köln,Deutschland,6.938814998800000,50.926435570300000,Nein,Nein,Nein,Nein,Ja,Call a Bike,Call a Bike
13353,Standort,WDR,40026515,normal,Köln,Deutschland,6.953175303400000,50.940162213500000,Nein,Nein,Nein,Nein,Ja,Call a Bike,Call a Bike
13427,Standort,Breite Strasse/Neue Langgasse/U-Bahn,40027096,normal,Köln,Deutschland,6.950618400000000,50.938903260700000,Nein,Nein,Nein,Nein,Ja,Call a Bike,Call a Bike
13516,Standort,Zülpicher Platz/Friedrichstr.,40027902,normal,Köln,Deutschland,6.939332934200000,50.930237905400000,Nein,Nein,Nein,Nein,Ja,Call a Bike,Call a Bike
13523,Standort,Neumarkt,40027954,normal,Köln,Deutschland,6.945853224500000,50.935807950400000,Nein,Nein,Nein,Nein,Ja,Call a Bike,Call a Bike
14150,Standort,Goetheplatz,88000523,normal,München,Deutschland,11.558333330000000,48.129166670000000,Nein,Nein,Nein,Nein,Ja,Call a Bike,Call a Bike
14166,Standort,Sendlinger Tor Platz,88000690,normal,München,Deutschland,11.565833330000000,48.134444440000000,Nein,Nein,Nein,Nein,Ja,Call a Bike,Call a Bike
14246,Standort,Ostbahnhof,88001644,normal,München,Deutschland,11.603055560000000,48.127777780000000,Nein,Nein,Nein,Nein,Ja,Call a Bike,Call a Bike
14307,Standort,LMU Projektstandort 4,88002477,normal,München,Deutschland,11.564166670000000,48.130000000000000,Nein,Nein,Nein,Nein,Ja,Call a Bike,Call a Bike
14811,Standort,Chlodwigplatz,40028419,normal,Köln,Deutschland,6.959876016900000,50.921079738900000,Nein,Nein,Nein,Nein,Ja,Call a Bike,Call a Bike
14962,Standort,Friesenplatz,40018590,normal,Köln,Deutschland,6.937831691600000,50.940359371200000,Nein,Nein,Nein,Nein,Ja,Call a Bike,Call a Bike
14964,Standort,Neumarkt,40018645,normal,Köln,Deutschland,6.945614128900000,50.936644988500000,Nein,Nein,Nein,Nein,Ja,Call a Bike,Call a Bike
14997,Standort,Friesenplatz,40018925,normal,Köln,Deutschland,6.940042141000000,50.940523807000000,Nein,Nein,Nein,Nein,Ja,Call a Bike,Call a Bike
14998,Standort,Friesenplatz,40018926,normal,Köln,Deutschland,6.940042141000000,50.940523807000000,Nein,Nein,Nein,Nein,Ja,Call a Bike,Call a Bike
15006,Standort,Chlodwigplatz,40018984,normal,Köln,Deutschland,6.959258187200000,50.921714246700000,Nein,Nein,Nein,Nein,Ja,Call a Bike,Call a Bike
15020,Standort,Rudolfplatz,40019131,normal,Köln,Deutschland,6.940416419300000,50.936740996000000,Nein,Nein,Nein,Nein,Ja,Call a Bike,Call a Bike
15249,Standort,Eigelstein/Ebertplatz,40021009,normal,Köln,Deutschland,6.958777403000000,50.950087302400000,Nein,Nein,Nein,Nein,Ja,Call a Bike,Call a Bike
15337,Standort,Bahnhof-Haupt- Domseite,40021663,normal,Köln,Deutschland,6.957565565100000,50.941764759600000,Nein,Nein,Nein,Nein,Ja,Call a Bike,Call a Bike
15389,Standort,Bahnhof Deutz,40022164,normal,Köln,Deutschland,6.973078250885010,50.940190268636925,Nein,Nein,Nein,Nein,Ja,Call a Bike,Call a Bike
15413,Standort,Heumarkt,40022421,normal,Köln,Deutschland,6.960344825000000,50.936340739900000,Nein,Nein,Nein,Nein,Ja,Call a Bike,Call a Bike
15490,Standort,Bahnhof West,40022991,normal,Köln,Deutschland,6.933136550800000,50.943442902200000,Nein,Nein,Nein,Nein,Ja,Call a Bike,Call a Bike
15640,Standort,Rudolfplatz,40024497,normal,Köln,Deutschland,6.940762718000000,50.936157051300000,Nein,Nein,Nein,Nein,Ja,Call a Bike,Call a Bike
15800,Standort,Bahnhof Deutz,40029489,normal,Köln,Deutschland,6.974530000000000,50.940330000000000,Nein,Nein,Nein,Nein,Ja,Call a Bike,Call a Bike
15812,Standort,Bahnhof Süd,40029637,normal,Köln,Deutschland,6.938814998800000,50.926435570300000,Nein,Nein,Nein,Nein,Ja,Call a Bike,Call a Bike
15814,Standort,Mediapark,40029657,normal,Köln,Deutschland,6.945105008800000,50.947131194700000,Nein,Nein,Nein,Nein,Ja,Call a Bike,Call a Bike
15816,Standort,Eigelstein/Ebertplatz,40029678,normal,Köln,Deutschland,6.956884699500000,50.949074010600000,Nein,Nein,Nein,Nein,Ja,Call a Bike,Call a Bike
15817,Standort,Bahnhof West,40029697,normal,Köln,Deutschland,6.933136550800000,50.943442902200000,Nein,Nein,Nein,Nein,Ja,Call a Bike,Call a Bike
15845,Standort,Messe,40030018,normal,Köln,Deutschland,,,Nein,Nein,Nein,Nein,Ja,Call a Bike,Call a Bike
15846,Standort,Messe,40030025,normal,Köln,Deutschland,,,Nein,Nein,Nein,Nein,Ja,Call a Bike,Call a Bike
15847,Standort,Carl-Theodor-Reiffenstein-Platz / Hasengasse,6031300002,normal,Frankfurt am Main,Deutschland,8.683521797200000,50.114191090500000,Nein,Nein,Nein,Nein,Ja,Call a Bike,Call a Bike
15863,Standort,The Coffee Store,40030276,normal,Köln,Deutschland,6.952250420600000,50.939732973000000,Nein,Nein,Nein,Nein,Ja,Call a Bike,Call a Bike
15878,Standort,Münchner Freiheit,88009826,normal,München,Deutschland,11.586111110000000,48.161944440000000,Nein,Nein,Nein,Nein,Ja,Call a Bike,Call a Bike
15888,Standort,DB-AG-Zentrale_MUC,88009969,normal,München,Deutschland,11.533174000000000,48.145271000000000,Nein,Nein,Nein,Nein,Ja,Call a Bike,Call a Bike
16118,Standort,Stiglmaierplatz,88000545,normal,München,Deutschland,11.559166670000000,48.147500000000000,Nein,Nein,Nein,Nein,Ja,Call a Bike,Call a Bike
16129,Standort,Stachus,88000681,normal,München,Deutschland,11.565277780000000,48.139722220000000,Nein,Nein,Nein,Nein,Ja,Call a Bike,Call a Bike
16175,Standort,Tal (Sparkassenstr),88001087,normal,München,Deutschland,11.578333330000000,48.136111110000000,Nein,Nein,Nein,Nein,Ja,Call a Bike,Call a Bike
16205,Standort,Rosenheimer Platz,88001484,normal,München,Deutschland,11.593888890000000,48.128611110000000,Nein,Nein,Nein,Nein,Ja,Call a Bike,Call a Bike
16209,Standort,Rosenheimer Platz,88001517,normal,München,Deutschland,11.595000000000000,48.127777780000000,Nein,Nein,Nein,Nein,Ja,Call a Bike,Call a Bike
17325,Standort,Mediapark,40037398,normal,Köln,Deutschland,6.945105008800000,50.947131194700000,Nein,Nein,Nein,Nein,Ja,Call a Bike,Call a Bike
17326,Standort,Mediapark,40037399,normal,Köln,Deutschland,6.945105008800000,50.947131194700000,Nein,Nein,Nein,Nein,Ja,Call a Bike,Call a Bike
20077,Standort,Theodor-Heuss-Allee / Hamburger- Allee,6048600012,normal,Frankfurt am Main,Deutschland,8.650183000000000,50.113779000000000,Nein,Nein,Nein,Nein,Ja,Call a Bike,Call a Bike
20098,Standort,Europaallee  / Londoner Straße,6032700008,normal,Frankfurt am Main,Deutschland,8.648037000000000,50.108542000000000,Nein,Nein,Nein,Nein,Ja,Call a Bike,Call a Bike
22760,Standort,LMU Projektstandort 3,88000574,normal,München,Deutschland,11.560833330000000,48.134166670000000,Nein,Nein,Nein,Nein,Ja,Call a Bike,Call a Bike
22774,Standort,Sendlinger Tor Platz,88000698,normal,München,Deutschland,11.566111110000000,48.133055560000000,Nein,Nein,Nein,Nein,Ja,Call a Bike,Call a Bike
22805,Standort,Kurfürstenplatz,88000973,normal,München,Deutschland,11.574722220000000,48.159444440000000,Nein,Nein,Nein,Nein,Ja,Call a Bike,Call a Bike
22815,Standort,Prof.-Huber Platz,88001172,normal,München,Deutschland,11.581111110000000,48.150000000000000,Nein,Nein,Nein,Nein,Ja,Call a Bike,Call a Bike
22819,Standort,Tal (Sparkassenstr),88001197,normal,München,Deutschland,11.581944440000000,48.135277780000000,Nein,Nein,Nein,Nein,Ja,Call a Bike,Call a Bike
22853,Standort,Rosenheimer Platz,88001488,normal,München,Deutschland,11.594166670000000,48.128611110000000,Nein,Nein,Nein,Nein,Ja,Call a Bike,Call a Bike
22900,Standort,Prof.-Huber Platz,88002205,normal,München,Deutschland,11.581944440000000,48.150555560000000,Nein,Nein,Nein,Nein,Ja,Call a Bike,Call a Bike
23704,Standort,DB Netz,6032700003,normal,Frankfurt am Main,Deutschland,8.647724000000000,50.113473000000000,Nein,Nein,Nein,Nein,Ja,Call a Bike,Call a Bike
23722,Standort,Studierendenhaus Jügelstraße / Mertonstraße,6032500001,normal,Frankfurt am Main,Deutschland,8.651872000000000,50.118538000000000,Nein,Nein,Nein,Nein,Ja,Call a Bike,Call a Bike
23844,Standort,Walter-Kolb-Straße / Elisabethenstraße,6059400014,normal,Frankfurt am Main,Deutschland,8.687040956800000,50.106327069100000,Nein,Nein,Nein,Nein,Ja,Call a Bike,Call a Bike
24194,Standort,Tal (Sparkassenstr),88006101,normal,München,Deutschland,11.577827611000000,48.136360031700000,Nein,Nein,Nein,Nein,Ja,Call a Bike,Call a Bike
24246,Standort,Stiglmaierplatz,88006553,normal,München,Deutschland,11.558888890000000,48.146944440000000,Nein,Nein,Nein,Nein,Ja,Call a Bike,Call a Bike
24344,Standort,Subbelrather/Innere Kanalstr.,40027233,normal,Köln,Deutschland,6.932795730500000,50.948595014900000,Nein,Nein,Nein,Nein,Ja,Call a Bike,Call a Bike
24379,Standort,Neumarkt,40027524,normal,Köln,Deutschland,6.949098740200000,50.936182263000000,Nein,Nein,Nein,Nein,Ja,Call a Bike,Call a Bike
24380,Standort,Neumarkt,40027525,normal,Köln,Deutschland,6.949098740200000,50.936182263000000,Nein,Nein,Nein,Nein,Ja,Call a Bike,Call a Bike
24390,Standort,Eigelstein/Ebertplatz,40027600,normal,Köln,Deutschland,6.956790157800000,50.950644755200000,Nein,Nein,Nein,Nein,Ja,Call a Bike,Call a Bike
24422,Standort,Bahnhof Haupt- Breslauer Platz,40027864,normal,Köln,Deutschland,6.958322532500000,50.944693717400000,Nein,Nein,Nein,Nein,Ja,Call a Bike,Call a Bike
24482,Standort,Mediapark,40028332,normal,Köln,Deutschland,6.942899402100000,50.946266014500000,Nein,Nein,Nein,Nein,Ja,Call a Bike,Call a Bike
24497,Standort,Mediapark,40028399,normal,Köln,Deutschland,6.940738617100000,50.946433024700000,Nein,Nein,Nein,Nein,Ja,Call a Bike,Call a Bike
24504,Standort,The Coffee Store,40028452,normal,Köln,Deutschland,6.952250420600000,50.939732973000000,Nein,Nein,Nein,Nein,Ja,Call a Bike,Call a Bike
24667,Standort,Neumarkt,40018646,normal,Köln,Deutschland,6.945614128900000,50.936644988500000,Nein,Nein,Nein,Nein,Ja,Call a Bike,Call a Bike
24706,Standort,Friesenplatz,40018927,normal,Köln,Deutschland,6.940042141000000,50.940523807000000,Nein,Nein,Nein,Nein,Ja,Call a Bike,Call a Bike
24714,Standort,Neumarkt,40019064,normal,Köln,Deutschland,6.947563211800000,50.936367508900000,Nein,Nein,Nein,Nein,Ja,Call a Bike,Call a Bike
24759,Standort,Barbarossaplatz,40019419,normal,Köln,Deutschland,6.941193078700000,50.929032746400000,Nein,Nein,Nein,Nein,Ja,Call a Bike,Call a Bike
24999,Standort,Friesenplatz,40021400,normal,Köln,Deutschland,6.938253799100000,50.940379262100000,Nein,Nein,Nein,Nein,Ja,Call a Bike,Call a Bike
25066,Standort,Chlodwigplatz,40021949,normal,Köln,Deutschland,6.959764348500000,50.920746615400000,Nein,Nein,Nein,Nein,Ja,Call a Bike,Call a Bike
25089,Standort,Bahnhof Deutz,40022162,normal,Köln,Deutschland,6.973078250885010,50.940190268636925,Nein,Nein,Nein,Nein,Ja,Call a Bike,Call a Bike
25100,Standort,Heumarkt,40022255,normal,Köln,Deutschland,6.960373834600000,50.935815259000000,Nein,Nein,Nein,Nein,Ja,Call a Bike,Call a Bike
25193,Standort,Bahnhof West,40022992,normal,Köln,Deutschland,6.933136550800000,50.943442902200000,Nein,Nein,Nein,Nein,Ja,Call a Bike,Call a Bike
25194,Standort,Bahnhof West,40022993,normal,Köln,Deutschland,6.933136550800000,50.943442902200000,Nein,Nein,Nein,Nein,Ja,Call a Bike,Call a Bike
25243,Standort,Friesenplatz,40023431,normal,Köln,Deutschland,6.941171359500000,50.940289619200000,Nein,Nein,Nein,Nein,Ja,Call a Bike,Call a Bike
25413,Standort,Barbarossaplatz,40024752,normal,Köln,Deutschland,6.942734461400000,50.928423063400000,Nein,Nein,Nein,Nein,Ja,Call a Bike,Call a Bike
25469,Standort,Chlodwigplatz,40025210,normal,Köln,Deutschland,6.959585757000000,50.922047933300000,Nein,Nein,Nein,Nein,Ja,Call a Bike,Call a Bike
25493,Standort,Friesenplatz,40025398,normal,Köln,Deutschland,6.937983371100000,50.940932744900000,Nein,Nein,Nein,Nein,Ja,Call a Bike,Call a Bike
25500,Standort,WDR,40025498,normal,Köln,Deutschland,6.956094107500000,50.940246129300000,Nein,Nein,Nein,Nein,Ja,Call a Bike,Call a Bike
25520,Standort,Bahnhof Haupt- Breslauer Platz,40025627,normal,Köln,Deutschland,6.960037080800000,50.942798812400000,Nein,Nein,Nein,Nein,Ja,Call a Bike,Call a Bike
25652,Standort,Barbarossaplatz,40026737,normal,Köln,Deutschland,6.941426066700000,50.929039587400000,Nein,Nein,Nein,Nein,Ja,Call a Bike,Call a Bike
25729,Standort,Mediapark,40029658,normal,Köln,Deutschland,6.945105008800000,50.947131194700000,Nein,Nein,Nein,Nein,Ja,Call a Bike,Call a Bike
25730,Standort,Eigelstein/Ebertplatz,40029684,normal,Köln,Deutschland,6.956884699500000,50.949074010600000,Nein,Nein,Nein,Nein,Ja,Call a Bike,Call a Bike
25767,Standort,Bahnhof West,40030332,normal,Köln,Deutschland,6.933136550800000,50.943442902200000,Nein,Nein,Nein,Nein,Ja,Call a Bike,Call a Bike
25782,Standort,Eigelstein/Ebertplatz,40030560,normal,Köln,Deutschland,6.956884699500000,50.949074010600000,Nein,Nein,Nein,Nein,Ja,Call a Bike,Call a Bike
25783,Standort,Eigelstein/Ebertplatz,40030561,normal,Köln,Deutschland,6.956884699500000,50.949074010600000,Nein,Nein,Nein,Nein,Ja,Call a Bike,Call a Bike
28568,Standort,Münchner Freiheit,88000212,normal,München,Deutschland,11.587555633900000,48.162391780400000,Nein,Nein,Nein,Nein,Ja,Call a Bike,Call a Bike
28824,Standort,Adalbertstraße / Schlossstraße,6048600002,normal,Frankfurt am Main,Deutschland,8.643545000000000,50.118894000000000,Nein,Nein,Nein,Nein,Ja,Call a Bike,Call a Bike
28835,Standort,Kaufunger Straße / Kleine Seestraße,6048600004,normal,Frankfurt am Main,Deutschland,8.639854361400000,50.123549218200000,Nein,Nein,Nein,Nein,Ja,Call a Bike,Call a Bike
28937,Standort,Wilhelm-Leuschner-Straße/ Windmühlstraße,6032900002,normal,Frankfurt am Main,Deutschland,8.669916000000000,50.105664000000000,Nein,Nein,Nein,Nein,Ja,Call a Bike,Call a Bike
28951,Standort,Taunusstraße / Gallusanlage,6032900003,normal,Frankfurt am Main,Deutschland,8.670586000000000,50.110448000000000,Nein,Nein,Nein,Nein,Ja,Call a Bike,Call a Bike
28969,Standort,Alte Brücke / Mainkai,6031100009,normal,Frankfurt am Main,Deutschland,8.687676000000000,50.109864000000000,Nein,Nein,Nein,Nein,Ja,Call a Bike,Call a Bike
29123,Standort,Bürgeramt / Zeil,6031300006,normal,Frankfurt am Main,Deutschland,8.692825000000000,50.114832000000000,Nein,Nein,Nein,Nein,Ja,Call a Bike,Call a Bike
29351,Standort,Stiglmaierplatz,88006554,normal,München,Deutschland,11.558888890000000,48.146944440000000,Nein,Nein,Nein,Nein,Ja,Call a Bike,Call a Bike
30719,Standort,Goetheplatz,,normal,München,Deutschland,11.558419135100000,48.129217173900000,Nein,Nein,Nein,Nein,Ja,Call a Bike,Call a Bike
31002,Standort,Adalberstraße / Hamburger Allee,6048600003,normal,Frankfurt am Main,Deutschland,8.641077648200000,50.118687818600000,Nein,Nein,Nein,Nein,Ja,Call a Bike,Call a Bike
31139,Standort,François-Mitterrand-Platz,60003103,normal,Frankfurt am Main,Deutschland,,,Nein,Nein,Nein,Nein,Ja,Call a Bike,Call a Bike
31166,Standort,Bockenheimer Landstraße / Liebigstraße,6032300010,normal,Frankfurt am Main,Deutschland,8.665973000000000,50.117156000000000,Nein,Nein,Nein,Nein,Ja,Call a Bike,Call a Bike
31492,Standort,Stachus,88006097,normal,München,Deutschland,11.565555560000000,48.138888890000000,Nein,Nein,Nein,Nein,Ja,Call a Bike,Call a Bike
31564,Standort,Stiglmaierplatz,88006782,normal,München,Deutschland,11.559166670000000,48.147500000000000,Nein,Nein,Nein,Nein,Ja,Call a Bike,Call a Bike
31583,Standort,Ostendstraße / Martin-Elsässer-Weg,60314000014,normal,Frankfurt am Main,Deutschland,8.698890638400000,50.111203493000000,Nein,Nein,Nein,Nein,Ja,Call a Bike,Call a Bike
31655,Standort,Bahnhof Haupt- Breslauer Platz,40027862,normal,Köln,Deutschland,6.958322532500000,50.944693717400000,Nein,Nein,Nein,Nein,Ja,Call a Bike,Call a Bike
31734,Standort,The Coffee Store,40028455,normal,Köln,Deutschland,6.952250420600000,50.939732973000000,Nein,Nein,Nein,Nein,Ja,Call a Bike,Call a Bike
31852,Standort,Heumarkt,40029413,normal,Köln,Deutschland,6.961063958000000,50.937396004200000,Nein,Nein,Nein,Nein,Ja,Call a Bike,Call a Bike
31899,Standort,Stiglmaierplatz,88007373,normal,München,Deutschland,11.558611110000000,48.147500000000000,Nein,Nein,Nein,Nein,Ja,Call a Bike,Call a Bike
31957,Standort,WDR,40026514,normal,Köln,Deutschland,6.953175303400000,50.940162213500000,Nein,Nein,Nein,Nein,Ja,Call a Bike,Call a Bike
31963,Standort,Bahnhof-Haupt- Domseite,40026554,normal,Köln,Deutschland,6.955880419000000,50.942501573100000,Nein,Nein,Nein,Nein,Ja,Call a Bike,Call a Bike
32118,Standort,Zülpicher Platz/Friedrichstr.,40027903,normal,Köln,Deutschland,6.939332934200000,50.930237905400000,Nein,Nein,Nein,Nein,Ja,Call a Bike,Call a Bike
32292,Standort,Heumarkt,40029252,normal,Köln,Deutschland,6.961086352500000,50.937026181600000,Nein,Nein,Nein,Nein,Ja,Call a Bike,Call a Bike
32299,Standort,Heumarkt,40029324,normal,Köln,Deutschland,6.960422973200000,50.935376089100000,Nein,Nein,Nein,Nein,Ja,Call a Bike,Call a Bike
32357,Standort,Heumarkt,40018593,normal,Köln,Deutschland,6.960323585300000,50.936594231900000,Nein,Nein,Nein,Nein,Ja,Call a Bike,Call a Bike
32483,Standort,Zülpicher Platz/Friedrichstr.,40019582,normal,Köln,Deutschland,6.940756614800000,50.931067207000000,Nein,Nein,Nein,Nein,Ja,Call a Bike,Call a Bike
32577,Standort,Hansaring/Krefelder Str.,40020258,normal,Köln,Deutschland,6.953070506200000,50.949231954300000,Nein,Nein,Nein,Nein,Ja,Call a Bike,Call a Bike
32673,Standort,Eigelstein/Ebertplatz,40021010,normal,Köln,Deutschland,6.958777403000000,50.950087302400000,Nein,Nein,Nein,Nein,Ja,Call a Bike,Call a Bike
32806,Standort,Heumarkt,40022254,normal,Köln,Deutschland,6.960373834600000,50.935815259000000,Nein,Nein,Nein,Nein,Ja,Call a Bike,Call a Bike
32906,Standort,Eigelstein/Ebertplatz,40023020,normal,Köln,Deutschland,6.959110519600000,50.950922812800000,Nein,Nein,Nein,Nein,Ja,Call a Bike,Call a Bike
32907,Standort,Eigelstein/Ebertplatz,40023022,normal,Köln,Deutschland,6.959110519600000,50.950922812800000,Nein,Nein,Nein,Nein,Ja,Call a Bike,Call a Bike
33100,Standort,WDR,40024360,normal,Köln,Deutschland,6.955526041200000,50.940206552600000,Nein,Nein,Nein,Nein,Ja,Call a Bike,Call a Bike
33985,Standort,Königsplatz,88000646,normal,München,Deutschland,11.563611110000000,48.145833330000000,Nein,Nein,Nein,Nein,Ja,Call a Bike,Call a Bike
34011,Standort,Gärtnerplatz,88001031,normal,München,Deutschland,11.576388890000000,48.131944440000000,Nein,Nein,Nein,Nein,Ja,Call a Bike,Call a Bike
34023,Standort,Isartorplatz,88001185,normal,München,Deutschland,11.581388890000000,48.135000000000000,Nein,Nein,Nein,Nein,Ja,Call a Bike,Call a Bike
34032,Standort,Münchner Freiheit,88001328,normal,München,Deutschland,11.586666670000000,48.161666670000000,Nein,Nein,Nein,Nein,Ja,Call a Bike,Call a Bike
34170,Standort,DB_MobilityCenter,88002895,normal,München,Deutschland,11.575277780000000,48.160277780000000,Nein,Nein,Nein,Nein,Ja,Call a Bike,Call a Bike
34171,Standort,DB_MobilityCenter,88002896,normal,München,Deutschland,11.574722220000000,48.160277780000000,Nein,Nein,Nein,Nein,Ja,Call a Bike,Call a Bike
34178,Standort,Prof.-Huber Platz,88002989,normal,München,Deutschland,11.581666670000000,48.151111110000000,Nein,Nein,Nein,Nein,Ja,Call a Bike,Call a Bike
34213,Standort,Isartorplatz,88003204,normal,München,Deutschland,11.581944440000000,48.134722220000000,Nein,Nein,Nein,Nein,Ja,Call a Bike,Call a Bike
34868,Standort,Odeonsplatz,88009902,normal,München,Deutschland,11.577777780000000,48.143055560000000,Nein,Nein,Nein,Nein,Ja,Call a Bike,Call a Bike
34884,Standort,Goetheplatz,88007462,normal,München,Deutschland,11.558055560000000,48.129444440000000,Nein,Nein,Nein,Nein,Ja,Call a Bike,Call a Bike
35286,Standort,François-Mitterrand-Platz,60003102,normal,Frankfurt am Main,Deutschland,,,Nein,Nein,Nein,Nein,Ja,Call a Bike,Call a Bike
35595,Standort,Barbarossaplatz,40024753,normal,Köln,Deutschland,6.942734461400000,50.928423063400000,Nein,Nein,Nein,Nein,Ja,Call a Bike,Call a Bike
35599,Standort,Rudolfplatz,40024796,normal,Köln,Deutschland,6.938976624000000,50.936659815300000,Nein,Nein,Nein,Nein,Ja,Call a Bike,Call a Bike
35604,Standort,Heumarkt,40024816,normal,Köln,Deutschland,6.961120977900000,50.936573377400000,Nein,Nein,Nein,Nein,Ja,Call a Bike,Call a Bike
35605,Standort,Heumarkt,40024818,normal,Köln,Deutschland,6.961120977900000,50.936573377400000,Nein,Nein,Nein,Nein,Ja,Call a Bike,Call a Bike
35712,Standort,Bahnhof Haupt- Breslauer Platz,40025626,normal,Köln,Deutschland,6.960037080800000,50.942798812400000,Nein,Nein,Nein,Nein,Ja,Call a Bike,Call a Bike
35812,Standort,Bahnhof Süd,40029634,normal,Köln,Deutschland,6.938814998800000,50.926435570300000,Nein,Nein,Nein,Nein,Ja,Call a Bike,Call a Bike
35813,Standort,Bahnhof Süd,40029636,normal,Köln,Deutschland,6.938814998800000,50.926435570300000,Nein,Nein,Nein,Nein,Ja,Call a Bike,Call a Bike
35819,Standort,Eigelstein/Ebertplatz,40029682,normal,Köln,Deutschland,6.956884699500000,50.949074010600000,Nein,Nein,Nein,Nein,Ja,Call a Bike,Call a Bike
35820,Standort,Bahnhof West,40029698,normal,Köln,Deutschland,6.933136550800000,50.943442902200000,Nein,Nein,Nein,Nein,Ja,Call a Bike,Call a Bike
35850,Standort,Messe,40030021,normal,Köln,Deutschland,,,Nein,Nein,Nein,Nein,Ja,Call a Bike,Call a Bike
35851,Standort,Messe,40030026,normal,Köln,Deutschland,6.978271007537842,50.941866861091120,Nein,Nein,Nein,Nein,Ja,Call a Bike,Call a Bike
35863,Standort,The Coffee Store,40030271,normal,Köln,Deutschland,6.952250420600000,50.939732973000000,Nein,Nein,Nein,Nein,Ja,Call a Bike,Call a Bike
35864,Standort,The Coffee Store,40030277,normal,Köln,Deutschland,6.952250420600000,50.939732973000000,Nein,Nein,Nein,Nein,Ja,Call a Bike,Call a Bike
35867,Standort,Bahnhof West,40030330,normal,Köln,Deutschland,6.933136550800000,50.943442902200000,Nein,Nein,Nein,Nein,Ja,Call a Bike,Call a Bike
35868,Standort,Bahnhof West,40030333,normal,Köln,Deutschland,6.933136550800000,50.943442902200000,Nein,Nein,Nein,Nein,Ja,Call a Bike,Call a Bike
35882,Standort,Eigelstein/Ebertplatz,40030559,normal,Köln,Deutschland,6.956884699500000,50.949074010600000,Nein,Nein,Nein,Nein,Ja,Call a Bike,Call a Bike
37944,Standort,Friesenplatz,40018924,normal,Köln,Deutschland,6.940042141000000,50.940523807000000,Nein,Nein,Nein,Nein,Ja,Call a Bike,Call a Bike
38048,Standort,Uni Albertus-Magnus-Platz,40019811,normal,Köln,Deutschland,6.928424376300000,50.927985352200000,Nein,Nein,Nein,Nein,Ja,Call a Bike,Call a Bike
38103,Standort,Eigelstein/Ebertplatz,40020326,normal,Köln,Deutschland,6.957059927100000,50.950781068500000,Nein,Nein,Nein,Nein,Ja,Call a Bike,Call a Bike
38133,Standort,Heumarkt,40020555,normal,Köln,Deutschland,6.961508359300000,50.936628258300000,Nein,Nein,Nein,Nein,Ja,Call a Bike,Call a Bike
38192,Standort,Eigelstein/Ebertplatz,40021012,normal,Köln,Deutschland,6.958777403000000,50.950087302400000,Nein,Nein,Nein,Nein,Ja,Call a Bike,Call a Bike
38417,Standort,Neumarkt,40022657,normal,Köln,Deutschland,6.949050441300000,50.935507832400000,Nein,Nein,Nein,Nein,Ja,Call a Bike,Call a Bike
38473,Standort,Zülpicher Platz/Friedrichstr.,40023114,normal,Köln,Deutschland,6.941011210000000,50.930558251000000,Nein,Nein,Nein,Nein,Ja,Call a Bike,Call a Bike
38656,Standort,Eigelstein/Ebertplatz,40024632,normal,Köln,Deutschland,6.956892241100000,50.950155084100000,Nein,Nein,Nein,Nein,Ja,Call a Bike,Call a Bike
38668,Standort,Barbarossaplatz,40024755,normal,Köln,Deutschland,6.942734461400000,50.928423063400000,Nein,Nein,Nein,Nein,Ja,Call a Bike,Call a Bike
38868,Standort,WDR,40026516,normal,Köln,Deutschland,6.953175303400000,50.940162213500000,Nein,Nein,Nein,Nein,Ja,Call a Bike,Call a Bike
38893,Standort,Barbarossaplatz,40026743,normal,Köln,Deutschland,6.941426066700000,50.929039587400000,Nein,Nein,Nein,Nein,Ja,Call a Bike,Call a Bike
39030,Standort,Heumarkt,40027818,normal,Köln,Deutschland,6.960311677000000,50.937404351700000,Nein,Nein,Nein,Nein,Ja,Call a Bike,Call a Bike
39035,Standort,Bahnhof Haupt- Breslauer Platz,40029487,normal,Köln,Deutschland,6.959970000000000,50.943710000000000,Nein,Nein,Nein,Nein,Ja,Call a Bike,Call a Bike
39074,Standort,Uni Heilpädagogik Haus 213,40030043,normal,Köln,Deutschland,6.921024450300000,50.933659741900000,Nein,Nein,Nein,Nein,Ja,Call a Bike,Call a Bike
39083,Standort,Museum Ludwig,40030178,normal,Köln,Deutschland,6.959877028300000,50.941083182600000,Nein,Ja,Nein,Nein,Ja,Call a Bike,Call a Bike
39084,Standort,Museum Ludwig,40030180,normal,Köln,Deutschland,6.959877028300000,50.941083182600000,Nein,Ja,Nein,Nein,Ja,Call a Bike,Call a Bike
39102,Standort,Münchner Freiheit,88009827,normal,München,Deutschland,11.586111110000000,48.161944440000000,Nein,Nein,Nein,Nein,Ja,Call a Bike,Call a Bike
39990,Standort,Goetheplatz,88000515,normal,München,Deutschland,11.558055560000000,48.129722220000000,Nein,Nein,Nein,Nein,Ja,Call a Bike,Call a Bike
40008,Standort,Sendlinger Tor Platz,88000751,normal,München,Deutschland,11.568055560000000,48.134166670000000,Nein,Nein,Nein,Nein,Ja,Call a Bike,Call a Bike
40028,Standort,Gärtnerplatz,88001009,normal,München,Deutschland,11.575833330000000,48.131388890000000,Nein,Nein,Nein,Nein,Ja,Call a Bike,Call a Bike
40033,Standort,Odeonsplatz,88001088,normal,München,Deutschland,11.578333330000000,48.143888890000000,Nein,Nein,Nein,Nein,Ja,Call a Bike,Call a Bike
40034,Standort,Odeonsplatz,88001092,normal,München,Deutschland,11.578333330000000,48.144166670000000,Nein,Nein,Nein,Nein,Ja,Call a Bike,Call a Bike
40088,Standort,Ostbahnhof,88001653,normal,München,Deutschland,11.603611110000000,48.128888890000000,Nein,Nein,Nein,Nein,Ja,Call a Bike,Call a Bike
40166,Standort,Prof.-Huber Platz,88002513,normal,München,Deutschland,11.582222220000000,48.150833330000000,Nein,Nein,Nein,Nein,Ja,Call a Bike,Call a Bike
40424,Standort,Kurt-Schumacher Straße / Börneplatz,6031100008,normal,Frankfurt am Main,Deutschland,8.687911000000000,50.111982000000000,Nein,Nein,Nein,Nein,Ja,Call a Bike,Call a Bike
40442,Standort,Tal (Sparkassenstr),88006297,normal,München,Deutschland,11.580277455400000,48.135994952300000,Nein,Nein,Nein,Nein,Ja,Call a Bike,Call a Bike
40568,Standort,Stiglmaierplatz,88007377,normal,München,Deutschland,11.558611110000000,48.147500000000000,Nein,Nein,Nein,Nein,Ja,Call a Bike,Call a Bike
40749,Standort,Neumarkt,40027953,normal,Köln,Deutschland,6.945853224500000,50.935807950400000,Nein,Nein,Nein,Nein,Ja,Call a Bike,Call a Bike
40800,Standort,The Coffee Store,40028453,normal,Köln,Deutschland,6.952250420600000,50.939732973000000,Nein,Nein,Nein,Nein,Ja,Call a Bike,Call a Bike
40992,Standort,Friesenplatz,40018922,normal,Köln,Deutschland,6.940042141000000,50.940523807000000,Nein,Nein,Nein,Nein,Ja,Call a Bike,Call a Bike
41041,Standort,Neumarkt,40019363,normal,Köln,Deutschland,6.947797529700000,50.935577159700000,Nein,Nein,Nein,Nein,Ja,Call a Bike,Call a Bike
41155,Standort,Hansaring/Krefelder Str.,40020259,normal,Köln,Deutschland,6.953070506200000,50.949231954300000,Nein,Nein,Nein,Nein,Ja,Call a Bike,Call a Bike
41192,Standort,Heumarkt,40020557,normal,Köln,Deutschland,6.961508359300000,50.936628258300000,Nein,Nein,Nein,Nein,Ja,Call a Bike,Call a Bike
41384,Standort,Bahnhof Deutz,40022160,normal,Köln,Deutschland,6.973078250885010,50.940190268636925,Nein,Nein,Nein,Nein,Ja,Call a Bike,Call a Bike
43649,Standort,Tal (Sparkassenstr),88000055,normal,München,Deutschland,11.580301240300000,48.135725111000000,Nein,Nein,Nein,Nein,Ja,Call a Bike,Call a Bike
43880,Standort,Mannheimer Straße / Hardenbergstraße,6032700018,normal,Frankfurt am Main,Deutschland,8.656966000000000,50.103013000000000,Nein,Nein,Nein,Nein,Ja,Call a Bike,Call a Bike
44072,Standort,Grüneburgweg / Feldbergstraße,6032300006,normal,Frankfurt am Main,Deutschland,8.665717000000000,50.122811000000000,Nein,Nein,Nein,Nein,Ja,Call a Bike,Call a Bike
45437,Standort,Friesenplatz,40025397,normal,Köln,Deutschland,6.937983371100000,50.940932744900000,Nein,Nein,Nein,Nein,Ja,Call a Bike,Call a Bike
45463,Standort,Zülpicher Platz/Friedrichstr.,40025589,normal,Köln,Deutschland,6.939878417000000,50.929918891200000,Nein,Nein,Nein,Nein,Ja,Call a Bike,Call a Bike
45532,Standort,Bahnhof Süd,40026125,normal,Köln,Deutschland,6.938814998800000,50.926435570300000,Nein,Nein,Nein,Nein,Ja,Call a Bike,Call a Bike
45577,Standort,Bahnhof-Haupt- Domseite,40026553,normal,Köln,Deutschland,6.957124849300000,50.942530391700000,Nein,Nein,Nein,Nein,Ja,Call a Bike,Call a Bike
45599,Standort,Chlodwigplatz,40029602,normal,Köln,Deutschland,6.959477162300000,50.921020722100000,Nein,Nein,Nein,Nein,Ja,Call a Bike,Call a Bike
45603,Standort,Eigelstein/Ebertplatz,40029675,normal,Köln,Deutschland,6.956884699500000,50.949074010600000,Nein,Nein,Nein,Nein,Ja,Call a Bike,Call a Bike
45604,Standort,Eigelstein/Ebertplatz,40029680,normal,Köln,Deutschland,6.956884699500000,50.949074010600000,Nein,Nein,Nein,Nein,Ja,Call a Bike,Call a Bike
45660,Standort,Eigelstein/Ebertplatz,40030562,normal,Köln,Deutschland,6.956884699500000,50.949074010600000,Nein,Nein,Nein,Nein,Ja,Call a Bike,Call a Bike
46546,Standort,Stiglmaierplatz,88000543,normal,München,Deutschland,11.558888890000000,48.146944440000000,Nein,Nein,Nein,Nein,Ja,Call a Bike,Call a Bike
46549,Standort,Hauptbahnhof,88000586,normal,München,Deutschland,11.561111110000000,48.141111110000000,Nein,Nein,Nein,Nein,Ja,Call a Bike,Call a Bike
47259,Standort,Mediapark,40037395,normal,Köln,Deutschland,6.945105008800000,50.947131194700000,Nein,Nein,Nein,Nein,Ja,Call a Bike,Call a Bike
47276,Standort,Europaallee / Den Haager Straße,6032700017,normal,Frankfurt am Main,Deutschland,8.651459000000000,50.109058000000000,Nein,Nein,Nein,Nein,Ja,Call a Bike,Call a Bike
48109,Standort,Stiglmaierplatz,88006784,normal,München,Deutschland,11.559166670000000,48.147500000000000,Nein,Nein,Nein,Nein,Ja,Call a Bike,Call a Bike
48166,Standort,Stiglmaierplatz,88007374,normal,München,Deutschland,11.558611110000000,48.147500000000000,Nein,Nein,Nein,Nein,Ja,Call a Bike,Call a Bike
48246,Standort,Neumarkt,40027526,normal,Köln,Deutschland,6.949098740200000,50.936182263000000,Nein,Nein,Nein,Nein,Ja,Call a Bike,Call a Bike
48289,Standort,Heumarkt,40027817,normal,Köln,Deutschland,6.960311677000000,50.937404351700000,Nein,Nein,Nein,Nein,Ja,Call a Bike,Call a Bike
48296,Standort,Bahnhof Haupt- Breslauer Platz,40027866,normal,Köln,Deutschland,6.958322532500000,50.944693717400000,Nein,Nein,Nein,Nein,Ja,Call a Bike,Call a Bike
48346,Standort,Mediapark,40028239,normal,Köln,Deutschland,6.941715848700000,50.946346041800000,Nein,Nein,Nein,Nein,Ja,Call a Bike,Call a Bike
48374,Standort,The Coffee Store,40028451,normal,Köln,Deutschland,6.952250420600000,50.939732973000000,Nein,Nein,Nein,Nein,Ja,Call a Bike,Call a Bike
48557,Standort,Neumarkt,40018649,normal,Köln,Deutschland,6.945614128900000,50.936644988500000,Nein,Nein,Nein,Nein,Ja,Call a Bike,Call a Bike
48615,Standort,Rudolfplatz,40019130,normal,Köln,Deutschland,6.940416419300000,50.936740996000000,Nein,Nein,Nein,Nein,Ja,Call a Bike,Call a Bike
48676,Standort,Zülpicher Platz/Friedrichstr.,40019581,normal,Köln,Deutschland,6.940756614800000,50.931067207000000,Nein,Nein,Nein,Nein,Ja,Call a Bike,Call a Bike
48703,Standort,Heumarkt,40019829,normal,Köln,Deutschland,6.961071516800000,50.937238180500000,Nein,Nein,Nein,Nein,Ja,Call a Bike,Call a Bike
48837,Standort,WDR,40020941,normal,Köln,Deutschland,6.953908735100000,50.940176089800000,Nein,Nein,Nein,Nein,Ja,Call a Bike,Call a Bike
48971,Standort,Bahnhof West,40021892,normal,Köln,Deutschland,6.933412778200000,50.943317541800000,Nein,Nein,Nein,Nein,Ja,Call a Bike,Call a Bike
49054,Standort,Hauptbahnhof,88000596,normal,München,Deutschland,11.561388890000000,48.140277780000000,Nein,Nein,Nein,Nein,Ja,Call a Bike,Call a Bike
49149,Standort,Prinzregentenplatz,88001687,normal,München,Deutschland,11.607222220000000,48.139166670000000,Nein,Nein,Nein,Nein,Ja,Call a Bike,Call a Bike
50264,Standort,Bahnhof West,40022605,normal,Köln,Deutschland,6.934101841300000,50.944267676400000,Nein,Nein,Nein,Nein,Ja,Call a Bike,Call a Bike
50269,Standort,Rudolfplatz,40022653,normal,Köln,Deutschland,6.940222632600000,50.935836980100000,Nein,Nein,Nein,Nein,Ja,Call a Bike,Call a Bike
50318,Standort,Eigelstein/Ebertplatz,40023021,normal,Köln,Deutschland,6.959110519600000,50.950922812800000,Nein,Nein,Nein,Nein,Ja,Call a Bike,Call a Bike
50755,Standort,Barbarossaplatz,40026740,normal,Köln,Deutschland,6.941426066700000,50.929039587400000,Nein,Nein,Nein,Nein,Ja,Call a Bike,Call a Bike
50785,Standort,Breite Strasse/Neue Langgasse/U-Bahn,40027095,normal,Köln,Deutschland,6.950618400000000,50.938903260700000,Nein,Nein,Nein,Nein,Ja,Call a Bike,Call a Bike
50834,Standort,Uni Albertus-Magnus-Platz,40030038,normal,Köln,Deutschland,6.928424376300000,50.927985352200000,Nein,Nein,Nein,Nein,Ja,Call a Bike,Call a Bike
50835,Standort,Uni Albertus-Magnus-Platz,40030040,normal,Köln,Deutschland,6.928424376300000,50.927985352200000,Nein,Nein,Nein,Nein,Ja,Call a Bike,Call a Bike
50836,Standort,Uni Heilpädagogik Haus 213,40030042,normal,Köln,Deutschland,6.921024450300000,50.933659741900000,Nein,Nein,Nein,Nein,Ja,Call a Bike,Call a Bike
50870,Standort,Eigelstein/Ebertplatz,40030554,normal,Köln,Deutschland,6.956884699500000,50.949074010600000,Nein,Nein,Nein,Nein,Ja,Call a Bike,Call a Bike
53486,Standort,Tal (Sparkassenstr),88009940,normal,München,Deutschland,11.579183350200000,48.136185428500000,Nein,Nein,Nein,Nein,Ja,Call a Bike,Call a Bike
53487,Standort,Tal (Sparkassenstr),88009942,normal,München,Deutschland,11.577447052700000,48.136756857200000,Nein,Nein,Nein,Nein,Ja,Call a Bike,Call a Bike
53648,Standort,Goldsteinstraße / Hahnstraße,6052800001,normal,Frankfurt am Main,Deutschland,8.632937601500000,50.084668562200000,Nein,Nein,Nein,Nein,Ja,Call a Bike,Call a Bike
53909,Standort,François-Mitterrand-Platz,60003104,normal,Frankfurt am Main,Deutschland,,,Nein,Nein,Nein,Nein,Ja,Call a Bike,Call a Bike
54372,Standort,Goetheplatz,,normal,München,Deutschland,11.558055560000000,48.129444440000000,Nein,Nein,Nein,Nein,Ja,Call a Bike,Call a Bike
54487,Standort,Münchner Freiheit,,normal,München,Deutschland,11.587615096200000,48.163637812200000,Nein,Nein,Nein,Nein,Ja,Call a Bike,Call a Bike
54567,Standort,The Coffee Store,,normal,Köln,Deutschland,6.952250420600000,50.939732973000000,Nein,Nein,Nein,Nein,Ja,Call a Bike,Call a Bike
62444,Standort,7420 Böheimstraße,7420,normal,Stuttgart,Deutschland,9.153930000000000,48.759370000000000,Nein,Nein,Nein,Nein,Ja,Call a Bike,Call a Bike
62685,Standort,7410 Erwin-Schoettle-Platz,7410,normal,Stuttgart,Deutschland,9.160030000000000,48.762100000000000,Nein,Nein,Nein,Nein,Ja,Call a Bike,Call a Bike
62689,Standort,7400 Marienplatz,7400,normal,Stuttgart,Deutschland,9.168110000000000,48.764500000000000,Nein,Nein,Nein,Nein,Ja,Call a Bike,Call a Bike
62718,Standort,7310 Schwabstraße,7310,normal,Stuttgart,Deutschland,9.158680000000000,48.770800000000000,Nein,Nein,Nein,Nein,Ja,Call a Bike,Call a Bike
62721,Standort,7315 Feuersee,7315,normal,Stuttgart,Deutschland,9.164370000000000,48.772300000000000,Nein,Nein,Nein,Nein,Ja,Call a Bike,Call a Bike
62724,Standort,7130 Tübinger Straße,7130,normal,Stuttgart,Deutschland,9.173041897275350,48.770695127281910,Nein,Nein,Nein,Nein,Ja,Call a Bike,Call a Bike
62726,Standort,7140 Wilhelmsplatz,7140,normal,Stuttgart,Deutschland,9.178740000000000,48.771100000000000,Nein,Nein,Nein,Nein,Ja,Call a Bike,Call a Bike
62728,Standort,7120 Rotebühlplatz,7120,normal,Stuttgart,Deutschland,9.171955602624319,48.774812459613656,Nein,Nein,Nein,Nein,Ja,Call a Bike,Call a Bike
62969,Standort,7110 Eberhardstraße,7110,normal,Stuttgart,Deutschland,9.178010000000000,48.773200000000000,Nein,Nein,Nein,Nein,Ja,Call a Bike,Call a Bike
62970,Standort,7115 Leonhardsplatz,7115,normal,Stuttgart,Deutschland,9.180570000000000,48.773700000000000,Nein,Nein,Nein,Nein,Ja,Call a Bike,Call a Bike
62971,Standort,7300 Bebelstraße,7300,normal,Stuttgart,Deutschland,9.155280000000000,48.775200000000000,Nein,Nein,Nein,Nein,Ja,Call a Bike,Call a Bike
62974,Standort,7335 Johannesstraße,7335,normal,Stuttgart,Deutschland,9.159070000000000,48.780700000000000,Nein,Nein,Nein,Nein,Ja,Call a Bike,Call a Bike
62975,Standort,7320 Breitscheidstraße,7320,normal,Stuttgart,Deutschland,9.167510000000000,48.779000000000000,Nein,Nein,Nein,Nein,Ja,Call a Bike,Call a Bike
62977,Standort,7128 Theodor-Heuss-Straße,7128,normal,Stuttgart,Deutschland,9.173870000000000,48.777300000000000,Nein,Nein,Nein,Nein,Ja,Call a Bike,Call a Bike
62979,Standort,7030 Theodor-Heuss-Straße,7030,normal,Stuttgart,Deutschland,9.176801013209722,48.779565391298640,Nein,Nein,Nein,Nein,Ja,Call a Bike,Call a Bike
62980,Standort,7035 Kleiner Schloßplatz,7035,normal,Stuttgart,Deutschland,9.176210000000000,48.778100000000000,Nein,Nein,Nein,Nein,Ja,Call a Bike,Call a Bike
62982,Standort,7060 Landesbibliothek,7060,normal,Stuttgart,Deutschland,9.185650000000000,48.777000000000000,Nein,Nein,Nein,Nein,Ja,Call a Bike,Call a Bike
62983,Standort,7020 Universität,7020,normal,Stuttgart,Deutschland,9.175390000000000,48.782400000000000,Nein,Nein,Nein,Nein,Ja,Call a Bike,Call a Bike
62985,Standort,7016 Königstraße,7016,normal,Stuttgart,Deutschland,9.180290000000000,48.781907000000000,Nein,Nein,Nein,Nein,Ja,Call a Bike,Call a Bike
62990,Standort,7010 Königstraße,7010,normal,Stuttgart,Deutschland,9.181890000000000,48.782572000000000,Nein,Nein,Nein,Nein,Ja,Call a Bike,Call a Bike
62991,Standort,7065 Jugendherberge,7065,normal,Stuttgart,Deutschland,9.191205816724203,48.780068408444826,Nein,Nein,Nein,Nein,Ja,Call a Bike,Call a Bike
62992,Standort,7070 Neckartor,7070,normal,Stuttgart,Deutschland,9.190710000000000,48.786500000000000,Nein,Nein,Nein,Nein,Ja,Call a Bike,Call a Bike
62996,Standort,7610 Wilhelmsplatz,7610,normal,Stuttgart,Deutschland,9.215790000000000,48.802500000000000,Nein,Nein,Nein,Nein,Ja,Call a Bike,Call a Bike
62997,Standort,7600 Bad Cannstatt Bahnhof,76003,normal,Stuttgart,Deutschland,9.218300000000000,48.801700000000000,Nein,Nein,Nein,Nein,Ja,Call a Bike,Call a Bike
62999,Standort,7635 Mercedes-Benz-Museum,7635,normal,Stuttgart,Deutschland,9.235380000000000,48.788900000000000,Nein,Nein,Nein,Nein,Ja,Call a Bike,Call a Bike
63000,Standort,7525 Ostendplatz,7525,normal,Stuttgart,Deutschland,9.207989005727760,48.785880294084670,Nein,Nein,Nein,Nein,Ja,Call a Bike,Call a Bike
94126,Standort,7340 Paul Gerhardt Platz,7340,normal,Stuttgart,Deutschland,9.146840000000000,48.775500000000000,Nein,Nein,Nein,Nein,Ja,Call a Bike,Call a Bike
94127,Standort,7145 Olgastraße,7145,normal,Stuttgart,Deutschland,9.180580000000000,48.769500000000000,Nein,Nein,Nein,Nein,Ja,Call a Bike,Call a Bike
94585,Standort,7308 Johannesstraße,7308,normal,Stuttgart,Deutschland,9.162210000000000,48.776700000000000,Nein,Nein,Nein,Nein,Ja,Call a Bike,Call a Bike
95237,Standort,7014 Lautenschlagerstraße,7014,normal,Stuttgart,Deutschland,9.179780000000000,48.782900000000000,Nein,Nein,Nein,Nein,Ja,Call a Bike,Call a Bike
95238,Standort,7425 Südheimer Platz,7425,normal,Stuttgart,Deutschland,9.144390000000000,48.756600000000000,Nein,Nein,Nein,Nein,Ja,Call a Bike,Call a Bike
95239,Standort,7540 Wagenburgstraße,7540,normal,Stuttgart,Deutschland,9.208230000000000,48.781000000000000,Nein,Nein,Nein,Nein,Ja,Call a Bike,Call a Bike
95251,Standort,7240 Herdweg,7240,normal,Stuttgart,Deutschland,9.162390000000000,48.786700000000000,Nein,Nein,Nein,Nein,Ja,Call a Bike,Call a Bike
103510,Standort,Bonn Hbf,5300,normal,Bonn,Deutschland,7.098620000000000,50.731700000000000,Nein,Nein,Nein,Nein,Ja,Call a Bike,Call a Bike
104359,Standort,Düsseldorf Hbf,4000,normal,Düsseldorf,Deutschland,6.792290000000000,51.220300000000000,Nein,Nein,Nein,Nein,Ja,Call a Bike,Call a Bike
109584,Standort,7102 Rathaus,7102,normal,Stuttgart,Deutschland,9.179230000000000,48.774900000000000,Nein,Nein,Nein,Nein,Ja,Call a Bike,Call a Bike
111444,Standort,Braunschweig Hbf,3800,normal,Braunschweig,Deutschland,10.539944000000000,52.253080000000000,Nein,Nein,Nein,Nein,Ja,Call a Bike,Call a Bike
112114,Standort,Goetheplatz,,normal,München,Deutschland,11.558510000000000,48.129186000000000,Nein,Nein,Nein,Nein,Ja,Call a Bike,Call a Bike
112955,Standort,Hannover Hauptbahnhof,3000,normal,Hannover,Deutschland,9.742082000000000,52.377937000000000,Nein,Nein,Nein,Nein,Ja,Call a Bike,Call a Bike
113120,Standort,Mannheim Hbf,6800,normal,Mannheim,Deutschland,8.470980000000000,49.479290000000000,Nein,Nein,Nein,Nein,Ja,Call a Bike,Call a Bike
114045,Standort,Mainz Hbf,5500,normal,Mainz,Deutschland,8.259560000000000,50.000700000000000,Nein,Nein,Nein,Nein,Ja,Call a Bike,Call a Bike
114276,Standort,Freiburg Hbf,7900,normal,Freiburg,Deutschland,7.841954000000000,47.997399000000000,Nein,Nein,Nein,Nein,Ja,Call a Bike,Call a Bike
114278,Standort,Bremen Hbf,2800,normal,Bremen,Deutschland,8.812398000000000,53.082919000000000,Nein,Nein,Nein,Nein,Ja,Call a Bike,Call a Bike
114281,Standort,Oldenburg (Oldb)  Hbf,2600,normal,Oldenburg (Oldb),Deutschland,8.222902000000000,53.143427000000000,Nein,Nein,Nein,Nein,Ja,Call a Bike,Call a Bike
117076,Standort,Weimar Hbf,9970,normal,Weimar,Deutschland,11.327300000000000,50.991100000000000,Nein,Nein,Nein,Nein,Ja,Call a Bike,Call a Bike
119101,Standort,Fulda Bhf,3600,normal,Fulda,Deutschland,9.684600000000000,50.555300000000000,Nein,Nein,Nein,Nein,Ja,Call a Bike,Call a Bike
119809,Standort,Diesterwegstraße / Schweizer Platz,6059400012,normal,Frankfurt am Main,Deutschland,8.681084000000000,50.101706000000000,Nein,Nein,Nein,Nein,Ja,Call a Bike,Call a Bike
128493,Standort,Aschaffenburg Hbf,6370,normal,Aschaffenburg,Deutschland,9.144816000000000,49.980247000000000,Nein,Nein,Nein,Nein,Ja,Call a Bike,Call a Bike
128494,Standort,Bamberg Bf,9600,normal,Bamberg,Deutschland,10.899743000000000,49.901310000000000,Nein,Nein,Nein,Nein,Ja,Call a Bike,Call a Bike
128496,Standort,Darmstadt Hbf,6420100,normal,Darmstadt,Deutschland,8.631084000000000,49.871651000000000,Nein,Nein,Nein,Nein,Ja,Call a Bike,Call a Bike
128500,Standort,Erlangen Hbf,9100,normal,Erlangen,Deutschland,11.002000000000000,49.595700000000000,Nein,Nein,Nein,Nein,Ja,Call a Bike,Call a Bike
128501,Standort,Hanau Hbf,6340,normal,Hanau,Deutschland,8.930160000000000,50.121600000000000,Nein,Nein,Nein,Nein,Ja,Call a Bike,Call a Bike
128502,Standort,Heidelberg Hbf,6900,normal,Heidelberg,Deutschland,8.676090000000000,49.404400000000000,Nein,Nein,Nein,Nein,Ja,Call a Bike,Call a Bike
128504,Standort,Magdeburg Hbf,3900,normal,Magdeburg,Deutschland,11.625300000000000,52.130600000000000,Nein,Nein,Nein,Nein,Ja,Call a Bike,Call a Bike
128510,Standort,Würzburg Hbf,9700,normal,Würzburg,Deutschland,9.935180000000000,49.801400000000000,Nein,Nein,Nein,Nein,Ja,Call a Bike,Call a Bike
129477,Standort,Teststandort für interne Tests,54321,normal,Hamburg,Deutschland,,,Nein,Nein,Nein,Nein,Ja,StadtRAD Hamburg,Call a Bike
130493,Standort,Leonardo-da-Vinci Allee / August-Euler Allee,6048600010,normal,Frankfurt am Main,Deutschland,8.622892000000000,50.113852000000000,Nein,Nein,Nein,Nein,Ja,Call a Bike,Call a Bike
131543,Standort,Landungsbrücke/Hafentor,2621,normal,Hamburg,Deutschland,9.972300000000000,53.545700000000000,Nein,Nein,Nein,Nein,Ja,StadtRAD Hamburg,Call a Bike
131546,Standort,Fischmarkt/Breite Straße,2112,normal,Hamburg,Deutschland,9.950880000000000,53.546200000000000,Nein,Nein,Nein,Nein,Ja,StadtRAD Hamburg,Call a Bike
131547,Standort,Paulinenplatz/Wohlwillstraße,2613,normal,Hamburg,Deutschland,9.962460000000000,53.554200000000000,Nein,Nein,Nein,Nein,Ja,StadtRAD Hamburg,Call a Bike
131639,Standort,Burgstraße/Hammer Landstraße,2561,normal,Hamburg,Deutschland,10.041298000000000,53.555693000000000,Nein,Nein,Nein,Nein,Ja,StadtRAD Hamburg,Call a Bike
131640,Standort,Innocentiapark/Oberstraße,2233,normal,Hamburg,Deutschland,9.982110000000000,53.577248000000000,Nein,Nein,Nein,Nein,Ja,StadtRAD Hamburg,Call a Bike
131641,Standort,Goebenstraße/Eppendorfer Weg,2242,normal,Hamburg,Deutschland,9.963063000000000,53.577579000000000,Nein,Nein,Nein,Nein,Ja,StadtRAD Hamburg,Call a Bike
131642,Standort,Osterstraße/Bismarckstraße,2223,normal,Hamburg,Deutschland,9.962395000000000,53.573183000000000,Nein,Nein,Nein,Nein,Ja,StadtRAD Hamburg,Call a Bike
131643,Standort,Christuskirche/Fruchtallee,2222,normal,Hamburg,Deutschland,9.963090000000000,53.569500000000000,Nein,Nein,Nein,Nein,Ja,StadtRAD Hamburg,Call a Bike
131644,Standort,Eimsbütteler Straße/Waterloostraße,2135,normal,Hamburg,Deutschland,9.953400000000000,53.566200000000000,Nein,Nein,Nein,Nein,Ja,StadtRAD Hamburg,Call a Bike
131645,Standort,Ottenser Marktplatz/Museumsstraße,2114,normal,Hamburg,Deutschland,9.934844000000000,53.547905000000000,Nein,Nein,Nein,Nein,Ja,StadtRAD Hamburg,Call a Bike
131646,Standort,Bahnhof Altona Ost/Max-Brauer-Allee,2121,normal,Hamburg,Deutschland,9.936005000000000,53.552121000000000,Nein,Nein,Nein,Nein,Ja,StadtRAD Hamburg,Call a Bike
131647,Standort,Kurze Mühren/Spitalerstraße,2535,normal,Hamburg,Deutschland,10.004150000000000,53.552611000000000,Nein,Nein,Nein,Nein,Ja,StadtRAD Hamburg,Call a Bike
131648,Standort,Schulterblatt/Eifflerstraße,2132,normal,Hamburg,Deutschland,9.960990000000000,53.562709000000000,Nein,Nein,Nein,Nein,Ja,StadtRAD Hamburg,Call a Bike
131649,Standort,Große Bergstraße / Jessenstraße,2115,normal,Hamburg,Deutschland,9.945760000000000,53.551200000000000,Nein,Nein,Nein,Nein,Ja,StadtRAD Hamburg,Call a Bike
131650,Standort,Königstraße / Struenseestraße,2113,normal,Hamburg,Deutschland,9.942410000000000,53.547100000000000,Nein,Nein,Nein,Nein,Ja,StadtRAD Hamburg,Call a Bike
131651,Standort,Kurt-Schumacher-Allee / Nagelsweg,2643,normal,Hamburg,Deutschland,10.016000000000000,53.551700000000000,Nein,Nein,Nein,Nein,Ja,StadtRAD Hamburg,Call a Bike
131652,Standort,Berliner Tor / Berlinertordamm,2645,normal,Hamburg,Deutschland,10.024600000000000,53.553300000000000,Nein,Nein,Nein,Nein,Ja,StadtRAD Hamburg,Call a Bike
131653,Standort,Zentralbibliothek / Münzstraße,2641,normal,Hamburg,Deutschland,10.008849000000000,53.550332000000000,Nein,Nein,Nein,Nein,Ja,StadtRAD Hamburg,Call a Bike
131654,Standort,Steinstraße / Deichtorplatz,2638,normal,Hamburg,Deutschland,10.005325000000000,53.548562000000000,Nein,Nein,Nein,Nein,Ja,StadtRAD Hamburg,Call a Bike
131872,Standort,Hauptbahnhof West / Glockengießer Wall,2536,normal,Hamburg,Deutschland,10.004553000000000,53.553676000000000,Nein,Nein,Nein,Nein,Ja,StadtRAD Hamburg,Call a Bike
131873,Standort,Hauptbahnhof Ost / Hachmannplatz,2541,normal,Hamburg,Deutschland,10.007652000000000,53.554307000000000,Nein,Nein,Nein,Nein,Ja,StadtRAD Hamburg,Call a Bike
131875,Standort,Jacobikirche / Steinstraße,2637,normal,Hamburg,Deutschland,10.001500000000000,53.550300000000000,Nein,Nein,Nein,Nein,Ja,StadtRAD Hamburg,Call a Bike
131877,Standort,Meßberg / Willy-Brandt-Straße,2634,normal,Hamburg,Deutschland,9.998774000000000,53.547805000000000,Nein,Nein,Nein,Nein,Ja,StadtRAD Hamburg,Call a Bike
131879,Standort,Jungfernstieg / Ballindamm,2533,normal,Hamburg,Deutschland,9.995501000000000,53.552244000000000,Nein,Nein,Nein,Nein,Ja,StadtRAD Hamburg,Call a Bike
131880,Standort,Mönckebergstraße / Rosenstraße,2636,normal,Hamburg,Deutschland,9.997140000000000,53.550722000000000,Nein,Nein,Nein,Nein,Ja,StadtRAD Hamburg,Call a Bike
131881,Standort,Universität / Schlüterstraße,2214,normal,Hamburg,Deutschland,9.986076000000000,53.566972000000000,Nein,Nein,Nein,Nein,Ja,StadtRAD Hamburg,Call a Bike
131882,Standort,Universität / Moorweidenstraße,2212,normal,Hamburg,Deutschland,9.987659000000000,53.563755000000000,Nein,Nein,Nein,Nein,Ja,StadtRAD Hamburg,Call a Bike
131883,Standort,Bahnhof Dammtor Nord // Theodor-Heuss-Platz,2211,normal,Hamburg,Deutschland,9.990430000000000,53.561400000000000,Nein,Nein,Nein,Nein,Ja,StadtRAD Hamburg,Call a Bike
131884,Standort,Gänsemarkt / Büschstraße,2524,normal,Hamburg,Deutschland,9.990091000000000,53.556282000000000,Nein,Nein,Nein,Nein,Ja,StadtRAD Hamburg,Call a Bike
131885,Standort,Rödingsmarkt / Großer Burstah,2632,normal,Hamburg,Deutschland,9.986950000000000,53.548300000000000,Nein,Nein,Nein,Nein,Ja,StadtRAD Hamburg,Call a Bike
131887,Standort,Enckeplatz / Hütten,2624,normal,Hamburg,Deutschland,9.976950000000000,53.552400000000000,Nein,Nein,Nein,Nein,Ja,StadtRAD Hamburg,Call a Bike
131888,Standort,Messehallen / Marktstraße,2511,normal,Hamburg,Deutschland,9.975346000000000,53.558518000000000,Nein,Nein,Nein,Nein,Ja,StadtRAD Hamburg,Call a Bike
131889,Standort,Bahnhof Altona West / Busbahnhof,2122,normal,Hamburg,Deutschland,9.933870000000000,53.551800000000000,Nein,Nein,Nein,Nein,Ja,StadtRAD Hamburg,Call a Bike
131890,Standort,Neuer Pferdemarkt / Beim Grünen Jäger,2131,normal,Hamburg,Deutschland,9.963824000000000,53.558869000000000,Nein,Nein,Nein,Nein,Ja,StadtRAD Hamburg,Call a Bike
131902,Standort,Reeperbahn / Königstraße,2111,normal,Hamburg,Deutschland,9.954934000000000,53.549501000000000,Nein,Nein,Nein,Nein,Ja,StadtRAD Hamburg,Call a Bike
131905,Standort,Millerntorplatz/St.Pauli,2612,normal,Hamburg,Deutschland,9.970330000000000,53.551000000000000,Nein,Nein,Nein,Nein,Ja,StadtRAD Hamburg,Call a Bike
135647,Standort,Konstablerwache,6031100010,normal,Frankfurt am Main,Deutschland,8.686701000000000,50.114156000000000,Nein,Nein,Nein,Nein,Ja,Call a Bike,Call a Bike
137994,Standort,Harvestehuder Weg / Alte Rabenstraße,2213,normal,Hamburg,Deutschland,10.001100000000000,53.567200000000000,Nein,Nein,Nein,Nein,Ja,StadtRAD Hamburg,Call a Bike
137995,Standort,Hallerstraße / Rohtenbaumchaussee,2231,normal,Hamburg,Deutschland,9.988801000000000,53.572081000000000,Nein,Nein,Nein,Nein,Ja,StadtRAD Hamburg,Call a Bike
138372,Standort,Uhlandstraße / Eingang Nord,2315,normal,Hamburg,Deutschland,10.026700000000000,53.565000000000000,Nein,Nein,Nein,Nein,Ja,StadtRAD Hamburg,Call a Bike
138375,Standort,Lerchenfeld / Uferstraße,2322,normal,Hamburg,Deutschland,10.031800000000000,53.567000000000000,Nein,Nein,Nein,Nein,Ja,StadtRAD Hamburg,Call a Bike
138376,Standort,Jarrestraße / Rambatzweg,2364,normal,Hamburg,Deutschland,10.021100000000000,53.584000000000000,Nein,Nein,Nein,Nein,Ja,StadtRAD Hamburg,Call a Bike
138378,Standort,Hudtwalckerstraße / Bebelallee,2369,normal,Hamburg,Deutschland,9.995750000000000,53.594300000000000,Nein,Nein,Nein,Nein,Ja,StadtRAD Hamburg,Call a Bike
138379,Standort,Stadthausbrücke / Neuer Wall,2521,normal,Hamburg,Deutschland,9.986594000000000,53.549672000000000,Nein,Nein,Nein,Nein,Ja,StadtRAD Hamburg,Call a Bike
138380,Standort,Jungfernstieg / Neuer Jungfernstieg,2523,normal,Hamburg,Deutschland,9.991400000000000,53.555000000000000,Nein,Nein,Nein,Nein,Ja,StadtRAD Hamburg,Call a Bike
138382,Standort,Bahnhof Dammtor Süd / Marseiller Straße,2528,normal,Hamburg,Deutschland,9.989630000000000,53.560200000000000,Nein,Nein,Nein,Nein,Ja,StadtRAD Hamburg,Call a Bike
138383,Standort,Kleine Rosenstraße / Gerhart-Hauptmann-Platz,2534,normal,Hamburg,Deutschland,9.998430000000000,53.551600000000000,Nein,Nein,Nein,Nein,Ja,StadtRAD Hamburg,Call a Bike
138384,Standort,Lange Reihe / Kirchenallee,2542,normal,Hamburg,Deutschland,10.008200000000000,53.555200000000000,Nein,Nein,Nein,Nein,Ja,StadtRAD Hamburg,Call a Bike
138385,Standort,Lange Reihe / Lohmühlenpark,2544,normal,Hamburg,Deutschland,10.014900000000000,53.559900000000000,Nein,Nein,Nein,Nein,Ja,StadtRAD Hamburg,Call a Bike
138386,Standort,Michaeliskirche / Krayenkamp,2622,normal,Hamburg,Deutschland,9.979420000000000,53.547975000000000,Nein,Nein,Nein,Nein,Ja,StadtRAD Hamburg,Call a Bike
138387,Standort,Mönckebergstraße / Steintorwall,2639,normal,Hamburg,Deutschland,10.005400000000000,53.551600000000000,Nein,Nein,Nein,Nein,Ja,StadtRAD Hamburg,Call a Bike
138389,Standort,Steindamm / Stralsunder Straße,2644,normal,Hamburg,Deutschland,10.013306000000000,53.554216000000000,Nein,Nein,Nein,Nein,Ja,StadtRAD Hamburg,Call a Bike
139498,Standort,Chemnitzstraße / Max-Brauer-Allee,2116,normal,Hamburg,Deutschland,9.942860000000000,53.555300000000000,Nein,Nein,Nein,Nein,Ja,StadtRAD Hamburg,Call a Bike
139501,Standort,Sternschanze / Eingang Dänenweg,2133,normal,Hamburg,Deutschland,9.969250000000000,53.564227000000000,Nein,Nein,Nein,Nein,Ja,StadtRAD Hamburg,Call a Bike
139508,Standort,Eppendorfer Baum / Isestraße,2235,normal,Hamburg,Deutschland,9.984410000000000,53.583200000000000,Nein,Nein,Nein,Nein,Ja,StadtRAD Hamburg,Call a Bike
140790,Standort,Hammerbrook / Sachsenfeld,2651,normal,Hamburg,Deutschland,10.024042000000000,53.546011000000000,Nein,Nein,Nein,Nein,Ja,StadtRAD Hamburg,Call a Bike
140791,Standort,Lohmühlenstraße / Steindamm,2646,normal,Hamburg,Deutschland,10.019900000000000,53.557200000000000,Nein,Nein,Nein,Nein,Ja,StadtRAD Hamburg,Call a Bike
140793,Standort,Martinistraße / Haupteingang Klinikum,2373,normal,Hamburg,Deutschland,9.975715000000000,53.588918000000000,Nein,Nein,Nein,Nein,Ja,StadtRAD Hamburg,Call a Bike
140794,Standort,Kümmellstraße / Robert-Koch-Straße,2372,normal,Hamburg,Deutschland,9.986730000000000,53.590237000000000,Nein,Nein,Nein,Nein,Ja,StadtRAD Hamburg,Call a Bike
140795,Standort,Kellinghusenstraße / Loogeplatz,2371,normal,Hamburg,Deutschland,9.991125000000000,53.588516000000000,Nein,Nein,Nein,Nein,Ja,StadtRAD Hamburg,Call a Bike
140796,Standort,Goldbekplatz / Semperstraße,2363,normal,Hamburg,Deutschland,10.010000000000000,53.583800000000000,Nein,Nein,Nein,Nein,Ja,StadtRAD Hamburg,Call a Bike
140799,Standort,Mundsburg / Schürbeker Straße,2323,normal,Hamburg,Deutschland,10.027100000000000,53.569600000000000,Nein,Nein,Nein,Nein,Ja,StadtRAD Hamburg,Call a Bike
140800,Standort,Eduard-Rhein-Ufer / Schwanenwik,2321,normal,Hamburg,Deutschland,10.016200000000000,53.567700000000000,Nein,Nein,Nein,Nein,Ja,StadtRAD Hamburg,Call a Bike
140801,Standort,Wartenau / Lübecker Straße,2314,normal,Hamburg,Deutschland,10.034100000000000,53.563600000000000,Nein,Nein,Nein,Nein,Ja,StadtRAD Hamburg,Call a Bike
140802,Standort,Landwehr / Ramazan-Avci-Platz,2313,normal,Hamburg,Deutschland,10.037022000000000,53.561109000000000,Nein,Nein,Nein,Nein,Ja,StadtRAD Hamburg,Call a Bike
140803,Standort,Lübecker Straße / Marienkrankenhaus,2312,normal,Hamburg,Deutschland,10.028500000000000,53.559700000000000,Nein,Nein,Nein,Nein,Ja,StadtRAD Hamburg,Call a Bike
140804,Standort,Isestraße / Hoheluftbrücke,2241,normal,Hamburg,Deutschland,9.977210000000000,53.578000000000000,Nein,Nein,Nein,Nein,Ja,StadtRAD Hamburg,Call a Bike
142325,Standort,Warnemünde Bf,1810,normal,Warnemünde,Deutschland,12.090780000000000,54.177041000000000,Nein,Nein,Nein,Nein,Ja,Call a Bike,Call a Bike
142328,Standort,Rostock Hbf,1800,normal,Rostock,Deutschland,12.129958000000000,54.077671000000000,Nein,Nein,Nein,Nein,Ja,Call a Bike,Call a Bike
142339,Standort,Lübeck Hbf,2350,normal,Lübeck,Deutschland,10.669517000000000,53.867993000000000,Nein,Nein,Nein,Nein,Ja,Call a Bike,Call a Bike
142638,Standort,Halle Hbf ,0610,normal,Halle,Deutschland,11.986355000000000,51.476814000000000,Nein,Nein,Nein,Nein,Ja,Call a Bike,Call a Bike
142999,Standort,Göttingen Bhf,3700,normal,Göttingen,Deutschland,9.926802000000000,51.536252000000000,Nein,Nein,Nein,Nein,Ja,Call a Bike,Call a Bike
143003,Standort,Kiel Hauptbahnhof,24105,normal,Kiel,Deutschland,10.131149000000000,54.314865000000000,Nein,Nein,Nein,Nein,Ja,Call a Bike,Call a Bike
145097,Standort,Ingolstadt Hbf,8500,normal,Ingolstadt,Deutschland,11.436714000000000,48.744043000000000,Nein,Nein,Nein,Nein,Ja,Call a Bike,Call a Bike
145114,Standort,Bielefeld Hbf,3360,normal,Bielefeld,Deutschland,8.533000000000000,52.028000000000000,Nein,Nein,Nein,Nein,Ja,Call a Bike,Call a Bike
145116,Standort,Gütersloh Hbf,3330,normal,Gütersloh,Deutschland,8.384000000000000,51.907000000000000,Nein,Nein,Nein,Nein,Ja,Call a Bike,Call a Bike
156033,Standort,Kaiserslautern Hbf ,6700,normal,Kaiserslautern,Deutschland,7.767956000000000,49.436337000000000,Nein,Nein,Nein,Nein,Ja,Call a Bike,Call a Bike
156036,Standort,Saarbrücken Hbf,6600,normal,Saarbrücken,Deutschland,6.990765000000000,49.240455000000000,Nein,Nein,Nein,Nein,Ja,Call a Bike,Call a Bike
158204,Standort,Alter Wall/Adolphsbrücke,2531,normal,Hamburg,Deutschland,9.990110000000000,53.550193000000000,Nein,Nein,Nein,Nein,Ja,StadtRAD Hamburg,Call a Bike
163327,Standort,Axel-Springer-Platz/Wexstraße,2522,normal,Hamburg,Deutschland,9.985161000000000,53.551853000000000,Nein,Nein,Nein,Nein,Ja,StadtRAD Hamburg,Call a Bike
164033,Standort,Sievekingplatz/Gorch-Fock-Wall,2526,normal,Hamburg,Deutschland,9.979697000000000,53.556061000000000,Nein,Nein,Nein,Nein,Ja,StadtRAD Hamburg,Call a Bike
167331,Standort,Oberhausen Hbf,4600,normal,Oberhausen,Deutschland,6.849782000000000,51.475382000000000,Nein,Nein,Nein,Nein,Ja,Call a Bike,Call a Bike
171372,Standort,Wilhelmsburger Platz/Zur Schleuse,2691,normal,Hamburg,Deutschland,10.014810000000000,53.522794000000000,Nein,Nein,Nein,Nein,Ja,StadtRAD Hamburg,Call a Bike
175002,Standort,Horst-Schulmann Straße / Sonnemannstraße,6031400007,normal,Frankfurt am Main,Deutschland,8.700187000000000,50.109772000000000,Nein,Nein,Nein,Nein,Ja,Call a Bike,Call a Bike
193238,Standort,Am Kaiserkai/Großer Grasbrook,2673,normal,Hamburg,Deutschland,9.992856000000000,53.541838000000000,Nein,Nein,Nein,Nein,Ja,StadtRAD Hamburg,Call a Bike
193381,Standort,Unilever/Strandkai,2671,normal,Hamburg,Deutschland,9.993650000000000,53.539580000000000,Nein,Nein,Nein,Nein,Ja,StadtRAD Hamburg,Call a Bike
194520,Standort,Standort,111111,normal,Zürich,Schweiz,,,Nein,Nein,Nein,Nein,Ja,Call a Bike,Call a Bike
194521,Standort,Standort,111112,normal,Chur,Schweiz,,,Nein,Nein,Nein,Nein,Ja,Call a Bike,Call a Bike
194522,Standort,Standort,111113,normal,Davos,Schweiz,,,Nein,Nein,Nein,Nein,Ja,Call a Bike,Call a Bike
194523,Standort,Standort,111114,normal,Genf,Schweiz,,,Nein,Nein,Nein,Nein,Ja,Call a Bike,Call a Bike
194524,Standort,Standort,111115,normal,Brigg,Schweiz,,,Nein,Nein,Nein,Nein,Ja,Call a Bike,Call a Bike
194525,Standort,Standort,111116,normal,Interlaken,Schweiz,,,Nein,Nein,Nein,Nein,Ja,Call a Bike,Call a Bike
194526,Standort,Standort,111117,normal,Grindelwald,Schweiz,,,Nein,Nein,Nein,Nein,Ja,Call a Bike,Call a Bike
194527,Standort,Standort,111118,normal,Zermatt,Schweiz,,,Nein,Nein,Nein,Nein,Ja,Call a Bike,Call a Bike
194528,Standort,Standort,111119,normal,Göschenen,Schweiz,,,Nein,Nein,Nein,Nein,Ja,Call a Bike,Call a Bike
194529,Standort,Standort,111120,normal,Andermatt,Schweiz,,,Nein,Nein,Nein,Nein,Ja,Call a Bike,Call a Bike
194530,Standort,Standort,111121,normal,Lausanne,Schweiz,,,Nein,Nein,Nein,Nein,Ja,Call a Bike,Call a Bike
194531,Standort,Standort,111122,normal,Thun,Schweiz,,,Nein,Nein,Nein,Nein,Ja,Call a Bike,Call a Bike
194532,Standort,Standort,111123,normal,Spiez,Schweiz,,,Nein,Nein,Nein,Nein,Ja,Call a Bike,Call a Bike
194533,Standort,Standort,111124,normal,Winterthur,Schweiz,,,Nein,Nein,Nein,Nein,Ja,Call a Bike,Call a Bike
194534,Standort,Standort,111125,normal,St. Gallen,Schweiz,,,Nein,Nein,Nein,Nein,Ja,Call a Bike,Call a Bike
194535,Standort,Standort,111126,normal,Biel,Schweiz,,,Nein,Nein,Nein,Nein,Ja,Call a Bike,Call a Bike
194536,Standort,Standort,111127,normal,Sion,Schweiz,,,Nein,Nein,Nein,Nein,Ja,Call a Bike,Call a Bike
194537,Standort,Standort,111128,normal,Lugano,Schweiz,,,Nein,Nein,Nein,Nein,Ja,Call a Bike,Call a Bike
194538,Standort,Standort,111129,normal,Bellinzona,Schweiz,,,Nein,Nein,Nein,Nein,Ja,Call a Bike,Call a Bike
196417,Standort,Bernhard-Nocht-Straße/Zirkusweg,2611,normal,Hamburg,Deutschland,9.965669000000000,53.547320000000000,Nein,Nein,Nein,Nein,Ja,StadtRAD Hamburg,Call a Bike
198077,Standort,Allende-Platz/Grindelhof,2215,normal,Hamburg,Deutschland,9.982728000000000,53.567845000000000,Nein,Nein,Nein,Nein,Ja,StadtRAD Hamburg,Call a Bike
198081,Standort,Alsterschwimmhalle/Ifflandstraße,2311,normal,Hamburg,Deutschland,10.022148000000000,53.560781000000000,Nein,Nein,Nein,Nein,Ja,StadtRAD Hamburg,Call a Bike
198086,Standort,Eppendorfer Weg/Hoheluftchaussee,2243,normal,Hamburg,Deutschland,9.971720000000000,53.581771000000000,Nein,Nein,Nein,Nein,Ja,StadtRAD Hamburg,Call a Bike
198088,Standort,Borgweg/Stadtpark,2367,normal,Hamburg,Deutschland,10.015021000000000,53.592022000000000,Nein,Nein,Nein,Nein,Ja,StadtRAD Hamburg,Call a Bike
199402,Standort,Mannesallee/Veringstraße,2711,normal,Hamburg,Deutschland,9.987298000000000,53.514265000000000,Nein,Nein,Nein,Nein,Ja,StadtRAD Hamburg,Call a Bike
200502,Standort,Hofweg/Am Langenzug,2324,normal,Hamburg,Deutschland,10.013995000000000,53.578035000000000,Nein,Nein,Nein,Nein,Ja,StadtRAD Hamburg,Call a Bike
201324,Standort,Methfesselstraße/Luruper Weg,2226,normal,Hamburg,Deutschland,9.946786000000000,53.580060000000000,Nein,Nein,Nein,Nein,Ja,StadtRAD Hamburg,Call a Bike
201326,Standort,Heußweg/Wiesenstraße,2225,normal,Hamburg,Deutschland,9.953073000000000,53.577796000000000,Nein,Nein,Nein,Nein,Ja,StadtRAD Hamburg,Call a Bike
201328,Standort,Süderfeldstraße/Universitätsklinikum Eppendorf,2374,normal,Hamburg,Deutschland,9.973000000000000,53.594000000000000,Nein,Nein,Nein,Nein,Ja,StadtRAD Hamburg,Call a Bike
201329,Standort,Osakaallee/Übersee Quartier,2674,normal,Hamburg,Deutschland,9.999731000000000,53.541583000000000,Nein,Nein,Nein,Nein,Ja,StadtRAD Hamburg,Call a Bike
203890,Standort,Saarlandstraße/Wiesendamm,2365,normal,Hamburg,Deutschland,10.032680000000000,53.588735000000000,Nein,Nein,Nein,Nein,Ja,StadtRAD Hamburg,Call a Bike
203892,Standort,Südring/Stadthallenbrücke,2366,normal,Hamburg,Deutschland,10.030327000000000,53.591446000000000,Nein,Nein,Nein,Nein,Ja,StadtRAD Hamburg,Call a Bike
204029,Standort,Dehnhaide/Barmbeker Markt,2335,normal,Hamburg,Deutschland,10.041461000000000,53.579981000000000,Nein,Nein,Nein,Nein,Ja,StadtRAD Hamburg,Call a Bike
204030,Standort,Wandsbeker Chaussee/Ritterstraße,2411,normal,Hamburg,Deutschland,10.044484000000000,53.567126000000000,Nein,Nein,Nein,Nein,Ja,StadtRAD Hamburg,Call a Bike
204031,Standort,Hasselbrookstraße/Papenstraße,2412,normal,Hamburg,Deutschland,10.054679000000000,53.564805000000000,Nein,Nein,Nein,Nein,Ja,StadtRAD Hamburg,Call a Bike
204032,Standort,Wandsbeker Marktstraße/Wandsbeker Marktplatz,2432,normal,Hamburg,Deutschland,10.068955000000000,53.572433000000000,Nein,Nein,Nein,Nein,Ja,StadtRAD Hamburg,Call a Bike
204778,Standort,Uni-Kassel / Heinrich-Plett-Straße,507,normal,Kassel,Deutschland,9.446111000000000,51.280278000000000,Nein,Nein,Nein,Nein,Ja,Konrad,Call a Bike
204779,Standort,Leuschnerstraße / DEZ-Frankfurter Straße,505,normal,Kassel,Deutschland,9.472777777777777,51.289722222222220,Nein,Nein,Nein,Nein,Ja,Konrad,Call a Bike
204780,Standort,Dennhäuser Str. / Frankfurter Straße,504,normal,Kassel,Deutschland,9.468852000000000,51.284697000000000,Nein,Nein,Nein,Nein,Ja,Konrad,Call a Bike
204781,Standort,Auestadion,503,normal,Kassel,Deutschland,9.481111111111112,51.298611111111110,Nein,Nein,Nein,Nein,Ja,Konrad,Call a Bike
204782,Standort,Schwimmbad Auedamm,501,normal,Kassel,Deutschland,9.499444444444444,51.300277777777780,Nein,Nein,Nein,Nein,Ja,Konrad,Call a Bike
204783,Standort,Druseltalstraße. Wendeschleife,508,normal,Kassel,Deutschland,9.413333333333334,51.300833333333340,Nein,Nein,Nein,Nein,Ja,Konrad,Call a Bike
204784,Standort,Leipziger Platz,401,normal,Kassel,Deutschland,9.530833333333334,51.302777777777780,Nein,Nein,Nein,Nein,Ja,Konrad,Call a Bike
204785,Standort,Uni-Kassel / Menzelstr.,502,normal,Kassel,Deutschland,9.486944444444445,51.303611111111110,Nein,Nein,Nein,Nein,Ja,Konrad,Call a Bike
204786,Standort,Marbachshöhe / Marie-Calm-Straße,506,normal,Kassel,Deutschland,9.443888888888889,51.304722222222220,Nein,Nein,Nein,Nein,Ja,Konrad,Call a Bike
204788,Standort,Georg-Stock-Platz / Kohlenstraße,210,normal,Kassel,Deutschland,9.468055555555555,51.309166666666670,Nein,Nein,Nein,Nein,Ja,Konrad,Call a Bike
204789,Standort,Volkshochschule-VHS / Wilhelmshöher Allee,108,normal,Kassel,Deutschland,9.485277777777778,51.311111111111110,Nein,Nein,Nein,Nein,Ja,Konrad,Call a Bike
204790,Standort,Rotes Kreuz / Hansteinstraße,211,normal,Kassel,Deutschland,9.454722222222223,51.311666666666670,Nein,Nein,Nein,Nein,Ja,Konrad,Call a Bike
204791,Standort,Uni-Kassel / Murhardstraße-Wilhelmshöher Allee,206,normal,Kassel,Deutschland,9.474444444444444,51.311666666666670,Nein,Nein,Nein,Nein,Ja,Konrad,Call a Bike
204792,Standort,Haltestelle Kirchweg/Wilhelmshöher Allee,209,normal,Kassel,Deutschland,9.465000000000000,51.311944444444440,Nein,Nein,Nein,Nein,Ja,Konrad,Call a Bike
204793,Standort,Staatstheater/Unterer Friedrichsplatz,105,normal,Kassel,Deutschland,9.498333333333333,51.311944444444440,Nein,Nein,Nein,Nein,Ja,Konrad,Call a Bike
204794,Standort,Rathaus / Wilhelmsstr.,106,normal,Kassel,Deutschland,9.493055555555555,51.312222222222220,Nein,Nein,Nein,Nein,Ja,Konrad,Call a Bike
204795,Standort,Königstor / Städtische Werke,109,normal,Kassel,Deutschland,9.488333333333333,51.312500000000000,Nein,Nein,Nein,Nein,Ja,Konrad,Call a Bike
204796,Standort,ICE Bahnhof / Willy-Brandt-Platz,212,normal,Kassel,Deutschland,9.445833333333333,51.312777777777780,Nein,Nein,Nein,Nein,Ja,Konrad,Call a Bike
204797,Standort,Unterneustadt,403,normal,Kassel,Deutschland,9.508611111111112,51.313055555555560,Nein,Nein,Nein,Nein,Ja,Konrad,Call a Bike
204798,Standort,Salzmannshausen / SMA,402,normal,Kassel,Deutschland,9.536388888888888,51.313055555555560,Nein,Nein,Nein,Nein,Ja,Konrad,Call a Bike
204799,Standort,Friedrichsplatz,104,normal,Kassel,Deutschland,9.494444444444444,51.313333333333330,Nein,Nein,Nein,Nein,Ja,Konrad,Call a Bike
204800,Standort,Wilhelmsstr. / Ständepl.,107,normal,Kassel,Deutschland,9.490277777777777,51.313888888888890,Nein,Nein,Nein,Nein,Ja,Konrad,Call a Bike
204801,Standort,Goethestr. / Querallee,205,normal,Kassel,Deutschland,9.472222222222221,51.314166666666670,Nein,Nein,Nein,Nein,Ja,Konrad,Call a Bike
204802,Standort,Diakonie-Kliniken / Goethestraße,208,normal,Kassel,Deutschland,9.463055555555556,51.314444444444450,Nein,Nein,Nein,Nein,Ja,Konrad,Call a Bike
204803,Standort,Karthäuser Str. / FES,201,normal,Kassel,Deutschland,9.485277777777778,51.314444444444450,Nein,Nein,Nein,Nein,Ja,Konrad,Call a Bike
204804,Standort,Markthalle / Graben,103,normal,Kassel,Deutschland,9.501666666666667,51.315000000000000,Nein,Nein,Nein,Nein,Ja,Konrad,Call a Bike
204805,Standort,Wilhelmsh. / Bergpark,213,normal,Kassel,Deutschland,9.423333333333334,51.315277777777780,Nein,Nein,Nein,Nein,Ja,Konrad,Call a Bike
204806,Standort,Annastraße / Friedrich-Ebert-Str.,202,normal,Kassel,Deutschland,9.477499999999999,51.315277777777780,Nein,Nein,Nein,Nein,Ja,Konrad,Call a Bike
204807,Standort,Königsplatz Ost,102,normal,Kassel,Deutschland,9.498333333333333,51.315277777777780,Nein,Nein,Nein,Nein,Ja,Konrad,Call a Bike
204808,Standort,Stadthalle / FES,207,normal,Kassel,Deutschland,9.460000000000001,51.315555555555560,Nein,Nein,Nein,Nein,Ja,Konrad,Call a Bike
204809,Standort,Königsplatz  West,101,normal,Kassel,Deutschland,9.496666666666666,51.315555555555560,Nein,Nein,Nein,Nein,Ja,Konrad,Call a Bike
204810,Standort,Friedenskirche / FES,204,normal,Kassel,Deutschland,9.468055555555555,51.315833333333330,Nein,Nein,Nein,Nein,Ja,Konrad,Call a Bike
204811,Standort,Freibad Wilhelmshöhe / Baunsbergstraße,214,normal,Kassel,Deutschland,9.426111111111112,51.307500000000000,Nein,Nein,Nein,Nein,Ja,Konrad,Call a Bike
204812,Standort,Hauptbahnhof / Rainer-Dierichs-Platz,110,normal,Kassel,Deutschland,9.490833333333333,51.317500000000000,Nein,Nein,Nein,Nein,Ja,Konrad,Call a Bike
204813,Standort,Schenkendorfstr. / DJH,203,normal,Kassel,Deutschland,9.474722222222223,51.318888888888890,Nein,Nein,Nein,Nein,Ja,Konrad,Call a Bike
204814,Standort,Uni-Kassel / HoPla-Henschelstraße,307,normal,Kassel,Deutschland,9.502500000000000,51.321111111111110,Nein,Nein,Nein,Nein,Ja,Konrad,Call a Bike
204815,Standort,Uni-Kassel / Diagonale,306,normal,Kassel,Deutschland,9.503611111111111,51.321388888888890,Nein,Nein,Nein,Nein,Ja,Konrad,Call a Bike
204816,Standort,Weserspitze / Weserstraße,303,normal,Kassel,Deutschland,9.512777777777778,51.322777777777780,Nein,Nein,Nein,Nein,Ja,Konrad,Call a Bike
204817,Standort,Kirchditmold,311,normal,Kassel,Deutschland,9.451388888888889,51.324444444444450,Nein,Nein,Nein,Nein,Ja,Konrad,Call a Bike
204818,Standort,Engelhardstraße / Wolfhager Straße,309,normal,Kassel,Deutschland,9.474444444444444,51.325277777777780,Nein,Nein,Nein,Nein,Ja,Konrad,Call a Bike
204819,Standort,Mombachstraße,305,normal,Kassel,Deutschland,9.500000000000000,51.326666666666670,Nein,Nein,Nein,Nein,Ja,Konrad,Call a Bike
204820,Standort,Klinikum Kassel / Mönchebergstraße,304,normal,Kassel,Deutschland,9.509166666666667,51.327222222222230,Nein,Nein,Nein,Nein,Ja,Konrad,Call a Bike
204821,Standort,Wolfsgraben / Fuldatalstraße,301,normal,Kassel,Deutschland,9.529722222222222,51.328055555555560,Nein,Nein,Nein,Nein,Ja,Konrad,Call a Bike
204822,Standort,Karlshafener Straße ,312,normal,Kassel,Deutschland,9.438333333333333,51.336388888888890,Nein,Nein,Nein,Nein,Ja,Konrad,Call a Bike
204823,Standort,Waldecker Str. / Jungfernkopf,310,normal,Kassel,Deutschland,9.463333333333333,51.339166666666660,Nein,Nein,Nein,Nein,Ja,Konrad,Call a Bike
204824,Standort,Ihringshäuser Str. / KVG,302,normal,Kassel,Deutschland,9.516944444444444,51.339166666666660,Nein,Nein,Nein,Nein,Ja,Konrad,Call a Bike
204825,Standort,Holländische Str. / KVG,308,normal,Kassel,Deutschland,9.480277777777777,51.340000000000000,Nein,Nein,Nein,Nein,Ja,Konrad,Call a Bike
204826,Standort,Schwimmbad Harlesh.,313,normal,Kassel,Deutschland,9.429166666666667,51.340277777777780,Nein,Nein,Nein,Nein,Ja,Konrad,Call a Bike
206460,Standort,7690 Seeblickweg,7690,normal,Stuttgart,Deutschland,9.217360000000000,48.833000000000000,Nein,Nein,Nein,Nein,Ja,Call a Bike,Call a Bike
207304,Standort,Schloßstrasse/Schloßgarten,2431,normal,Hamburg,Deutschland,10.068644000000000,53.571664000000000,Nein,Nein,Nein,Nein,Ja,StadtRAD Hamburg,Call a Bike
207619,Standort,Uferstraße/Wagnerstraße,2331,normal,Hamburg,Deutschland,10.039741000000000,53.571078000000000,Nein,Nein,Nein,Nein,Ja,StadtRAD Hamburg,Call a Bike
207909,Standort,Alt Waldau / Nürnberger Straße,404,normal,Kassel,Deutschland,9.515127000000000,51.289950000000000,Nein,Nein,Nein,Nein,Ja,Konrad,Call a Bike
208292,Standort,Winterhuder Weg/ Zimmerstraße,2326,normal,Hamburg,Deutschland,10.020450000000000,53.575308000000000,Nein,Nein,Nein,Nein,Ja,StadtRAD Hamburg,Call a Bike
208295,Standort,Krausestraße/Eilbektal,2341,normal,Hamburg,Deutschland,10.058237000000000,53.576238000000000,Nein,Nein,Ja,Nein,Ja,StadtRAD Hamburg,Call a Bike
208307,Standort,Schleidenstraße/Osterbekstraße,2336,normal,Hamburg,Deutschland,10.033690000000000,53.584582000000000,Nein,Nein,Nein,Nein,Ja,StadtRAD Hamburg,Call a Bike
208316,Standort,Rhönplatz / Eugen-Richter-Straße,509,normal,Kassel,Deutschland,9.452566000000000,51.295367000000000,Nein,Nein,Nein,Nein,Ja,Konrad,Call a Bike
208318,Standort,Brandgasse / Altenbaunaer Straße,510,normal,Kassel,Deutschland,9.448309000000000,51.274521000000000,Nein,Nein,Nein,Nein,Ja,Konrad,Call a Bike
208767,Standort,7210 Stresemannstraße,7210,normal,Stuttgart,Deutschland,9.174107000000000,48.799302000000000,Nein,Nein,Nein,Nein,Ja,Call a Bike,Call a Bike
208768,Standort,7250 Pragsattel,7250,normal,Stuttgart,Deutschland,9.182408000000000,48.810089000000000,Nein,Nein,Nein,Nein,Ja,Call a Bike,Call a Bike
208769,Standort,7730 Zuffenhausen,7730,normal,Stuttgart,Deutschland,9.174480000000000,48.831250000000000,Nein,Nein,Nein,Nein,Ja,Call a Bike,Call a Bike
208770,Standort,7810 Vaihingen,7810,normal,Stuttgart,Deutschland,9.111687500000000,48.729700000000000,Nein,Nein,Nein,Nein,Ja,Call a Bike,Call a Bike
208771,Standort,7820 Möhringen,7820,normal,Stuttgart,Deutschland,9.146260000000000,48.730300000000000,Nein,Nein,Nein,Nein,Ja,Call a Bike,Call a Bike
208772,Standort,7830 Degerloch,7830,normal,Stuttgart,Deutschland,9.168750000000000,48.748700000000000,Nein,Nein,Nein,Nein,Ja,Call a Bike,Call a Bike
208773,Standort,7835 Degerloch,7835,normal,Stuttgart,Deutschland,9.189090000000000,48.755400000000000,Nein,Nein,Nein,Nein,Ja,Call a Bike,Call a Bike
208774,Standort,7840 Sillenbuch,7840,normal,Stuttgart,Deutschland,9.218260000000000,48.741700000000000,Nein,Nein,Nein,Nein,Ja,Call a Bike,Call a Bike
208775,Standort,7850 Hedelfingen,7850,normal,Stuttgart,Deutschland,9.254230000000000,48.759800000000000,Nein,Nein,Nein,Nein,Ja,Call a Bike,Call a Bike
211706,Standort,Alsenstraße/Düppelstraße,2134,normal,Hamburg,Deutschland,9.948345000000000,53.563037000000000,Nein,Nein,Nein,Nein,Ja,StadtRAD Hamburg,Call a Bike
211709,Standort,Bahrenfelder Straße/Völckersstraße,2126,normal,Hamburg,Deutschland,9.927945000000000,53.556897000000000,Nein,Nein,Nein,Nein,Ja,StadtRAD Hamburg,Call a Bike
211710,Standort,Eulenstraße/Große Brunnenstraße,2124,normal,Hamburg,Deutschland,9.925653000000000,53.550816000000000,Nein,Nein,Nein,Nein,Ja,StadtRAD Hamburg,Call a Bike
211711,Standort,Fischersallee/Bleickenallee,2125,normal,Hamburg,Deutschland,9.922260000000000,53.550966000000000,Nein,Nein,Nein,Nein,Ja,StadtRAD Hamburg,Call a Bike
211920,Standort,Billstraße/Billhorner Deich,2681,normal,Hamburg,Deutschland,10.042870000000000,53.540103000000000,Nein,Nein,Nein,Nein,Ja,StadtRAD Hamburg,Call a Bike
211921,Standort,Holsteinischer Kamp/ Wagnerstraße,2332,normal,Hamburg,Deutschland,10.036608000000000,53.574518000000000,Nein,Nein,Nein,Nein,Ja,StadtRAD Hamburg,Call a Bike
211922,Standort,Weidestraße/Biedermannplatz,2334,normal,Hamburg,Deutschland,10.033846000000000,53.580003800000000,Nein,Nein,Nein,Nein,Ja,StadtRAD Hamburg,Call a Bike
211923,Standort,Bartholomäusstraße/Beim Alten Schützenhof,2333,normal,Hamburg,Deutschland,10.029570000000000,53.575652000000000,Nein,Nein,Nein,Nein,Ja,StadtRAD Hamburg,Call a Bike
212078,Standort,Bei der Hammer Kirche/Hammerpark,2562,normal,Hamburg,Deutschland,10.055075000000000,53.556699000000000,Nein,Nein,Nein,Nein,Ja,StadtRAD Hamburg,Call a Bike
212079,Standort,Eiffestrasse/Normannenweg,2551,normal,Hamburg,Deutschland,10.030364000000000,53.552123000000000,Nein,Nein,Nein,Nein,Ja,StadtRAD Hamburg,Call a Bike
212607,Standort,Wiesendamm/Roggenkamp,2351,normal,Hamburg,Deutschland,10.042993000000000,53.586958000000000,Nein,Nein,Nein,Nein,Ja,StadtRAD Hamburg,Call a Bike
213235,Standort,St.Petersburger Straße/Bei den Kirchhöfen,2512,normal,Hamburg,Deutschland,9.981839000000000,53.559762000000000,Nein,Nein,Nein,Nein,Ja,StadtRAD Hamburg,Call a Bike
213277,Standort,Großneumarkt/Thielbek,2623,normal,Hamburg,Deutschland,9.980459000000000,53.550977000000000,Nein,Nein,Nein,Nein,Ja,StadtRAD Hamburg,Call a Bike
213679,Standort,U-Bahn Schlump,2221,normal,Hamburg,Deutschland,9.969601000000000,53.567991000000000,Nein,Nein,Nein,Nein,Ja,StadtRAD Hamburg,Call a Bike
213680,Standort,Löwenstraße/Eppendorfer Weg,2244,normal,Hamburg,Deutschland,9.977916000000000,53.583795000000000,Nein,Nein,Nein,Nein,Ja,StadtRAD Hamburg,Call a Bike
213687,Standort,Überseering/Mexikoring,2382,normal,Hamburg,Deutschland,10.024745000000000,53.601619000000000,Nein,Nein,Nein,Nein,Ja,StadtRAD Hamburg,Call a Bike
213688,Standort,Planetarium/Hindenburgstraße,2381,normal,Hamburg,Deutschland,10.013650000000000,53.595950000000000,Nein,Nein,Nein,Nein,Ja,StadtRAD Hamburg,Call a Bike
213792,Standort,Koppelstraße/Lokstedter Grenzstraße,2251,normal,Hamburg,Deutschland,9.943525000000000,53.593587000000000,Nein,Nein,Nein,Ja,Ja,StadtRAD Hamburg,Call a Bike
213825,Standort,Emilienstraße/Fruchtallee,2224,normal,Hamburg,Deutschland,9.953138000000000,53.571690000000000,Nein,Nein,Nein,Nein,Ja,StadtRAD Hamburg,Call a Bike
213832,Standort,Domstraße/Willy-Brandt-Straße,2633,normal,Hamburg,Deutschland,9.994057000000000,53.547486000000000,Nein,Nein,Nein,Nein,Ja,StadtRAD Hamburg,Call a Bike
213833,Standort,Lortzingstraße/Friedrichsberger Straße,2337,normal,Hamburg,Deutschland,10.049568000000000,53.573588000000000,Nein,Nein,Nein,Nein,Ja,StadtRAD Hamburg,Call a Bike
213855,Standort,Bebelallee/Meenkwiese,2383,normal,Hamburg,Deutschland,9.994017000000000,53.599203000000000,Nein,Nein,Nein,Nein,Ja,StadtRAD Hamburg,Call a Bike
213856,Standort,Neumühlen/Övelgönne,2151,normal,Hamburg,Deutschland,9.914731000000000,53.544302000000000,Nein,Nein,Nein,Nein,Ja,StadtRAD Hamburg,Call a Bike
214170,Standort,U-Bahn Baumwall,2631,normal,Hamburg,Deutschland,9.980896000000000,53.544279000000000,Nein,Nein,Nein,Ja,Ja,StadtRAD Hamburg,Call a Bike
214365,Standort,Jürgen-Ponto-Platz / Neckarstraße (DB-Tower),6032900010,normal,Frankfurt am Main,Deutschland,8.669688000000000,50.109503000000000,Nein,Nein,Nein,Nein,Ja,Call a Bike,Call a Bike
214369,Standort,Kaiserplatz / Kaiserstraße,6031100011,normal,Frankfurt am Main,Deutschland,8.674961000000000,50.110420000000000,Nein,Nein,Nein,Nein,Ja,Call a Bike,Call a Bike
214370,Standort,Roßmarkt / Am Salzhaus,6031100012,normal,Frankfurt am Main,Deutschland,8.676968000000000,50.111997000000000,Nein,Nein,Nein,Nein,Ja,Call a Bike,Call a Bike
214371,Standort,Große Gallusstraße / Kirchnerstraße,6031100013,normal,Frankfurt am Main,Deutschland,8.674964000000000,50.111883000000000,Nein,Nein,Nein,Nein,Ja,Call a Bike,Call a Bike
214375,Standort,Opernplatz / Fressgass,6031100015,normal,Frankfurt am Main,Deutschland,8.672365000000000,50.115112000000000,Nein,Nein,Nein,Nein,Ja,Call a Bike,Call a Bike
214376,Standort,Opernplatz / Bockenheimer Landstaße,6032300009,normal,Frankfurt am Main,Deutschland,8.670541000000000,50.115572000000000,Nein,Nein,Nein,Nein,Ja,Call a Bike,Call a Bike
214380,Standort,Roßmarkt / An der Hauptwache,6031100016,normal,Frankfurt am Main,Deutschland,8.678538000000000,50.112804000000000,Nein,Nein,Nein,Nein,Ja,Call a Bike,Call a Bike
214382,Standort,Börse,6031300007,normal,Frankfurt am Main,Deutschland,8.677016000000000,50.114899000000000,Nein,Nein,Nein,Nein,Ja,Call a Bike,Call a Bike
214385,Standort,Eschersheimer Landstraße / Adickes-Allee (Polizeip,6032200004,normal,Frankfurt am Main,Deutschland,8.672572000000000,50.131404000000000,Nein,Nein,Nein,Nein,Ja,Call a Bike,Call a Bike
214387,Standort,Nibelungenplatz / Nibelungen Allee,6031800009,normal,Frankfurt am Main,Deutschland,8.692561000000000,50.128929000000000,Nein,Nein,Nein,Nein,Ja,Call a Bike,Call a Bike
214388,Standort,Grüneburgweg / Siesmayerstraße (Palmengarten),6032300008,normal,Frankfurt am Main,Deutschland,8.658509000000000,50.123245000000000,Nein,Nein,Nein,Nein,Ja,Call a Bike,Call a Bike
214393,Standort,Beethovenstraße / Beethovenplatz,6032500004,normal,Frankfurt am Main,Deutschland,8.656476000000000,50.118209000000000,Nein,Nein,Nein,Nein,Ja,Call a Bike,Call a Bike
214394,Standort,Bettinaplatz / Bettinastraße,6032500006,normal,Frankfurt am Main,Deutschland,8.656395000000000,50.113860000000000,Nein,Nein,Nein,Nein,Ja,Call a Bike,Call a Bike
214397,Standort,Eschenheimer Anlage / Oeder Weg (Verkehrsinsel),6031800001,normal,Frankfurt am Main,Deutschland,8.679772000000000,50.118159000000000,Nein,Nein,Nein,Nein,Ja,Call a Bike,Call a Bike
214399,Standort,Bremer Platz / Fürstenbergstraße,6032200005,normal,Frankfurt am Main,Deutschland,8.669728000000000,50.124064000000000,Nein,Nein,Nein,Nein,Ja,Call a Bike,Call a Bike
214401,Standort,Marbachweg / Eschersheimer Landstraße,6032000002,normal,Frankfurt am Main,Deutschland,8.670505000000000,50.139417000000000,Nein,Nein,Nein,Nein,Ja,Call a Bike,Call a Bike
214402,Standort,Eschersheimer Landstraße / Hügelstraße,6043300005,normal,Frankfurt am Main,Deutschland,8.666972000000000,50.147887000000000,Nein,Nein,Nein,Nein,Ja,Call a Bike,Call a Bike
214414,Standort,Südbahnhof / Eingang Diesterwegplatz,6059400013,normal,Frankfurt am Main,Deutschland,8.685851000000000,50.100373000000000,Nein,Nein,Nein,Nein,Ja,Call a Bike,Call a Bike
214417,Standort,Ziegelhüttenplatz / Ziegelhüttenweg,6059800003,normal,Frankfurt am Main,Deutschland,8.682107000000000,50.095185000000000,Nein,Nein,Nein,Nein,Ja,Call a Bike,Call a Bike
214419,Standort,Hauptbahnhof Haupteingang (Vorplatz),6032900009,normal,Frankfurt am Main,Deutschland,8.664638000000000,50.107198000000000,Nein,Nein,Nein,Nein,Ja,Call a Bike,Call a Bike
214441,Standort,Bahnhof Niederrad,6052800013,normal,Frankfurt am Main,Deutschland,8.636737000000000,50.080837000000000,Nein,Nein,Nein,Nein,Ja,Call a Bike,Call a Bike
214443,Standort,Praunheimer Landstraße / Jean-Albert-Schwarz-Straß,6048800007,normal,Frankfurt am Main,Deutschland,8.624141000000000,50.148203000000000,Nein,Nein,Nein,Nein,Ja,Call a Bike,Call a Bike
214444,Standort,Voltastraße / An der Dammheide,6048600013,normal,Frankfurt am Main,Deutschland,8.630360000000000,50.117489000000000,Nein,Nein,Nein,Nein,Ja,Call a Bike,Call a Bike
214445,Standort,Theodor-Heuss-Allee / Varrentrappstraße,6048600016,normal,Frankfurt am Main,Deutschland,8.645977000000000,50.114201000000000,Nein,Nein,Nein,Nein,Ja,Call a Bike,Call a Bike
214446,Standort,Westbahnhof,6048600014,normal,Frankfurt am Main,Deutschland,8.640114000000000,50.119360000000000,Nein,Nein,Nein,Nein,Ja,Call a Bike,Call a Bike
214447,Standort,Fritzlarerstraße / Kirchplatz,6048700010,normal,Frankfurt am Main,Deutschland,8.637423825000000,50.125053018100000,Nein,Nein,Nein,Nein,Ja,Call a Bike,Call a Bike
214448,Standort,Carlo-Schmidt-Platz  / Depot,6032500007,normal,Frankfurt am Main,Deutschland,8.651376000000000,50.120339000000000,Nein,Nein,Nein,Nein,Ja,Call a Bike,Call a Bike
214451,Standort,Messe Haupteingang / Friedrich-Ebert-Anlage,6032700015,normal,Frankfurt am Main,Deutschland,8.654201000000000,50.112022000000000,Nein,Nein,Nein,Nein,Ja,Call a Bike,Call a Bike
214452,Standort,Frankenallee / Schwalbacherstraße,6032600013,normal,Frankfurt am Main,Deutschland,8.635613000000000,50.104173000000000,Nein,Nein,Nein,Nein,Ja,Call a Bike,Call a Bike
214453,Standort,DB Zentrale / Stephensonstraße,6032600014,normal,Frankfurt am Main,Deutschland,8.640189000000000,50.106840000000000,Nein,Nein,Nein,Nein,Ja,Call a Bike,Call a Bike
214454,Standort,Pfarrer-Perabo-Platz / Kleyerstraße,6032600015,normal,Frankfurt am Main,Deutschland,8.634016000000000,50.098848000000000,Nein,Nein,Nein,Nein,Ja,Call a Bike,Call a Bike
214455,Standort,Adlerwerke Kleyerstrasse / Kriegkstrasse,6032600016,normal,Frankfurt am Main,Deutschland,8.639674000000000,50.101275000000000,Nein,Nein,Nein,Nein,Ja,Call a Bike,Call a Bike
214456,Standort,S-Bahn Station Galluswarte / Mainzer Landstraße,6032600017,normal,Frankfurt am Main,Deutschland,8.644738000000000,50.103482000000000,Nein,Nein,Nein,Nein,Ja,Call a Bike,Call a Bike
214458,Standort,Adam-Riese-Platz / Hafenstraße,6032700010,normal,Frankfurt am Main,Deutschland,8.655950000000000,50.106388000000000,Nein,Nein,Nein,Nein,Ja,Call a Bike,Call a Bike
214459,Standort,Mainzer Landstraße 191/ Speyerer Straße,6032700009,normal,Frankfurt am Main,Deutschland,8.650403000000000,50.105284000000000,Nein,Nein,Nein,Nein,Ja,Call a Bike,Call a Bike
214460,Standort,Westhafenplatz / Speicherstraße,6032700012,normal,Frankfurt am Main,Deutschland,8.663665000000000,50.101704000000000,Nein,Nein,Nein,Nein,Ja,Call a Bike,Call a Bike
218173,Standort,Rothenburgsort/Marktplatz/Lindleystraße,2682,normal,Hamburg,Deutschland,10.038938000000000,53.534288000000000,Nein,Nein,Nein,Nein,Ja,StadtRAD Hamburg,Call a Bike
218174,Standort,Amsinckstraße/ Nordkanalbrücke,2642,normal,Hamburg,Deutschland,10.012361000000000,53.547868000000000,Nein,Nein,Nein,Nein,Ja,StadtRAD Hamburg,Call a Bike
218635,Standort,Auf dem Sande/Kehrwieder-MiniaturWunderland,2672,normal,Hamburg,Deutschland,9.989710000000000,53.543731000000000,Nein,Nein,Nein,Nein,Ja,StadtRAD Hamburg,Call a Bike
218636,Standort,Schopenstehl/Alter Fischmarkt,2635,normal,Hamburg,Deutschland,9.997126000000000,53.548703000000000,Nein,Nein,Nein,Nein,Ja,StadtRAD Hamburg,Call a Bike
223134,Standort,Skyline Plaza,6032700006,normal,Frankfurt am Main,Deutschland,8.652612000000000,50.110371000000000,Nein,Nein,Nein,Nein,Ja,Call a Bike,Call a Bike
224650,Standort,Leinpfad/Fernsicht,2316,normal,Hamburg,Deutschland,9.999404000000000,53.580391000000000,Nein,Nein,Nein,Nein,Ja,StadtRAD Hamburg,Call a Bike
226226,Standort,Bahnhof-Haupt- Domseite,40029488,normal,Köln,Deutschland,,,Nein,Nein,Nein,Nein,Ja,Call a Bike,Call a Bike
226253,Standort,Woolworth Leipziger Strasse,6048700011,normal,Frankfurt am Main,Deutschland,8.643072000000000,50.123496000000000,Nein,Nein,Nein,Nein,Ja,Call a Bike,Call a Bike
226254,Standort,Bahnhof Rödelheim,6048900004,normal,Frankfurt am Main,Deutschland,8.607272000000000,50.123911000000000,Nein,Nein,Nein,Nein,Ja,Call a Bike,Call a Bike
226255,Standort,U-Bahn Station Leipziger Strasse,6048700012,normal,Frankfurt am Main,Deutschland,8.645651000000000,50.122649000000000,Nein,Nein,Nein,Nein,Ja,Call a Bike,Call a Bike
226256,Standort,Leonardo-da-Vinci-Allee / Am Römerhof,6048600015,normal,Frankfurt am Main,Deutschland,8.627623000000000,50.113272000000000,Nein,Nein,Nein,Nein,Ja,Call a Bike,Call a Bike
226257,Standort,Studentenwohnheim Ginnheimer Landstr. 42,6048700013,normal,Frankfurt am Main,Deutschland,8.645856000000000,50.130133000000000,Nein,Nein,Nein,Nein,Ja,Call a Bike,Call a Bike
226258,Standort,Goethe-Uni Bockenheim,6032500008,normal,Frankfurt am Main,Deutschland,8.651848000000000,50.119773000000000,Nein,Nein,Nein,Nein,Ja,Call a Bike,Call a Bike
226263,Standort,Studentenwohnheim Ludwig-Landmann-Str. 343,6048700008,normal,Frankfurt am Main,Deutschland,8.622259000000000,50.128488000000000,Nein,Nein,Nein,Nein,Ja,Call a Bike,Call a Bike
226265,Standort,Studentenwohnheim / Porthstraße,604350004,normal,Frankfurt am Main,Deutschland,8.683525000000000,50.143106000000000,Nein,Nein,Nein,Nein,Ja,Call a Bike,Call a Bike
226266,Standort,Frankenallee / Bushaltestelle Haus Gallus,6032600018,normal,Frankfurt am Main,Deutschland,8.643461000000000,50.104681000000000,Nein,Nein,Nein,Nein,Ja,Call a Bike,Call a Bike
226270,Standort,Industriehof,6048700009,normal,Frankfurt am Main,Deutschland,8.629527000000000,50.128567000000000,Nein,Nein,Nein,Nein,Ja,Call a Bike,Call a Bike
226341,Standort,Studentenwohnheim Sandhöfer Allee 2,6052800014,normal,Frankfurt am Main,Deutschland,8.660119000000000,50.092172000000000,Nein,Nein,Nein,Nein,Ja,Call a Bike,Call a Bike
226345,Standort,Blue-Towers,6052800015,normal,Frankfurt am Main,Deutschland,8.623994000000000,50.080425000000000,Nein,Nein,Nein,Nein,Ja,Call a Bike,Call a Bike
226347,Standort,Niederräder Brücke / DB Autohaus,6052800016,normal,Frankfurt am Main,Deutschland,8.631414000000000,50.087928000000000,Nein,Nein,Nein,Nein,Ja,Call a Bike,Call a Bike
226348,Standort,OLG (Zeil / Oberlandesgericht),6031300008,normal,Frankfurt am Main,Deutschland,8.691069000000000,50.114766000000000,Nein,Nein,Nein,Nein,Ja,Call a Bike,Call a Bike
226445,Standort,IKEA Kassel-Waldau,405,normal,Kassel,Deutschland,9.525462000000000,51.277203000000000,Nein,Nein,Nein,Nein,Ja,Konrad,Call a Bike
226605,Standort,Barkassenanleger/Mengestraße,2712,normal,Hamburg,Deutschland,9.996470000000000,53.499748000000000,Nein,Nein,Nein,Nein,Ja,StadtRAD Hamburg,Call a Bike
226607,Standort,Neunenfelder Straße/ Kurt-Emmerich-Platz,2713,normal,Hamburg,Deutschland,10.003843000000000,53.497232000000000,Nein,Nein,Nein,Nein,Ja,StadtRAD Hamburg,Call a Bike
226640,Standort,Eurotheum / Neue Mainzer Straße,6031100017,normal,Frankfurt am Main,Deutschland,8.671355000000000,50.113017000000000,Nein,Nein,Nein,Nein,Ja,Call a Bike,Call a Bike
227370,Standort,Europagarten,6032600019,normal,Frankfurt am Main,Deutschland,8.629235000000000,50.108518000000000,Nein,Nein,Nein,Nein,Ja,Call a Bike,Call a Bike
227415,Standort,Wandsbeker Chaussee/ Börnestraße,2413,normal,Hamburg,Deutschland,10.059528000000000,53.570470000000000,Nein,Nein,Nein,Nein,Ja,StadtRAD Hamburg,Call a Bike
227445,Standort,zzz4 vormals Sandhofschleife / Paul-Ehrlich-Straße,6059600003,normal,Frankfurt am Main,Deutschland,8.665303000000000,50.093759000000000,Nein,Nein,Nein,Nein,Ja,Call a Bike,Call a Bike
227446,Standort,S-Bahn Station Messe,6032700014,normal,Frankfurt am Main,Deutschland,8.643824000000000,50.112512000000000,Nein,Nein,Nein,Nein,Ja,Call a Bike,Call a Bike
227447,Standort,Ostbahnhof,6031400017,normal,Frankfurt am Main,Deutschland,8.707211000000000,50.112591000000000,Nein,Nein,Nein,Nein,Ja,Call a Bike,Call a Bike
227448,Standort,Stresemannallee / Mörfelder Landstraße,6059800005,normal,Frankfurt am Main,Deutschland,8.671809000000000,50.089418000000000,Nein,Nein,Nein,Nein,Ja,Call a Bike,Call a Bike
227451,Standort,Eschersheimer Landstraße / Holzhausenstraße,6032200009,normal,Frankfurt am Main,Deutschland,8.673526000000000,50.126734000000000,Nein,Nein,Nein,Nein,Ja,Call a Bike,Call a Bike
227452,Standort,Stresemannallee / S-Bahn-Station,6059600005,normal,Frankfurt am Main,Deutschland,8.671173000000000,50.094135000000000,Nein,Nein,Nein,Nein,Ja,Call a Bike,Call a Bike
227455,Standort,Braubachstraße / Domstraße,6031100020,normal,Frankfurt am Main,Deutschland,8.684394000000000,50.111688000000000,Nein,Nein,Nein,Nein,Ja,Call a Bike,Call a Bike
227456,Standort,Luisenstraße / Luisenplatz,6031600008,normal,Frankfurt am Main,Deutschland,8.696687000000000,50.122446000000000,Nein,Nein,Nein,Nein,Ja,Call a Bike,Call a Bike
227457,Standort,Martin-Luther-Straße / Burgstraße,6031600009,normal,Frankfurt am Main,Deutschland,8.697805000000000,50.124297000000000,Nein,Nein,Nein,Nein,Ja,Call a Bike,Call a Bike
227458,Standort,Friedberger Landstraße / Rohrbachstraße,6031800011,normal,Frankfurt am Main,Deutschland,8.692436000000000,50.127562000000000,Nein,Nein,Nein,Nein,Ja,Call a Bike,Call a Bike
227460,Standort,Markus-Krankenhaus,6043100003,normal,Frankfurt am Main,Deutschland,8.646073000000000,50.136706000000000,Nein,Nein,Nein,Nein,Ja,Call a Bike,Call a Bike
227461,Standort,Rohrbachstraße / Hartmann-Ibach-Straße,6038900007,normal,Frankfurt am Main,Deutschland,8.700865000000000,50.129021000000000,Nein,Nein,Nein,Nein,Ja,Call a Bike,Call a Bike
227462,Standort,Sophienstraße / Ginnheimer Straße,6048700014,normal,Frankfurt am Main,Deutschland,8.641289000000000,50.127754000000000,Nein,Nein,Nein,Nein,Ja,Call a Bike,Call a Bike
227464,Standort,Wittelsbacher Allee/ Habsburger Allee,6038500005,normal,Frankfurt am Main,Deutschland,8.705312000000000,50.120042000000000,Nein,Nein,Nein,Nein,Ja,Call a Bike,Call a Bike
227465,Standort,Weidenbornstraße / Comeniusstraße,6038900008,normal,Frankfurt am Main,Deutschland,8.705388000000000,50.131301000000000,Nein,Nein,Nein,Nein,Ja,Call a Bike,Call a Bike
227467,Standort,Saalburgallee / Wittelsbacherallee,6038500006,normal,Frankfurt am Main,Deutschland,8.713568000000000,50.124757000000000,Nein,Nein,Nein,Nein,Ja,Call a Bike,Call a Bike
227468,Standort,Saalburgallee / Kettelerallee,6038500007,normal,Frankfurt am Main,Deutschland,8.717334000000000,50.123605000000000,Nein,Nein,Nein,Nein,Ja,Call a Bike,Call a Bike
227469,Standort,Luxemburger Allee / Rhönstraße,6038500008,normal,Frankfurt am Main,Deutschland,8.712139000000000,50.119304000000000,Nein,Nein,Nein,Nein,Ja,Call a Bike,Call a Bike
227470,Standort,Habsburger Allee / Rhönstraße,6038500009,normal,Frankfurt am Main,Deutschland,8.708494000000000,50.117527000000000,Nein,Nein,Nein,Nein,Ja,Call a Bike,Call a Bike
227471,Standort,Gerbermühlstraße / Wehrstraße,6059400003,normal,Frankfurt am Main,Deutschland,8.721659000000000,50.105270000000000,Nein,Nein,Nein,Nein,Ja,Call a Bike,Call a Bike
227472,Standort,Berger Straße / Eulengasse,6038500010,normal,Frankfurt am Main,Deutschland,8.715317000000000,50.132503000000000,Nein,Nein,Nein,Nein,Ja,Call a Bike,Call a Bike
227473,Standort,Berger Straße / Falltorstraße,6038500011,normal,Frankfurt am Main,Deutschland,8.713783000000000,50.129795000000000,Nein,Nein,Nein,Nein,Ja,Call a Bike,Call a Bike
227474,Standort,Seckbacher Landstraße / Nußbaumstraße,6038900009,normal,Frankfurt am Main,Deutschland,8.712232000000000,50.134939000000000,Nein,Nein,Nein,Nein,Ja,Call a Bike,Call a Bike
227475,Standort,Arnsburger Straße / Mainkurstraße,6038500012,normal,Frankfurt am Main,Deutschland,8.707108000000000,50.125483000000000,Nein,Nein,Nein,Nein,Ja,Call a Bike,Call a Bike
227476,Standort,Kantstraße / Berger Straße,6031600010,normal,Frankfurt am Main,Deutschland,8.695968000000000,50.120549000000000,Nein,Nein,Nein,Nein,Ja,Call a Bike,Call a Bike
227478,Standort,Eschenheimer Tor / Taubenstraße,6032200007,normal,Frankfurt am Main,Deutschland,8.679264000000000,50.116883000000000,Nein,Nein,Nein,Nein,Ja,Call a Bike,Call a Bike
227479,Standort,Am Weißen Stein / Maybachstraße,6043300006,normal,Frankfurt am Main,Deutschland,8.654568000000000,50.158143000000000,Nein,Nein,Nein,Nein,Ja,Call a Bike,Call a Bike
227481,Standort,Eschersheimer Landstraße / Am Weißen Stein,6043300007,normal,Frankfurt am Main,Deutschland,8.657019000000000,50.156612000000000,Nein,Nein,Nein,Nein,Ja,Call a Bike,Call a Bike
227482,Standort,Eschersheimer Landstraße / Am Lindenbaum,6043300008,normal,Frankfurt am Main,Deutschland,8.661008000000000,50.153212000000000,Nein,Nein,Nein,Nein,Ja,Call a Bike,Call a Bike
227483,Standort,Eschersheimer Landstraße / Fritz-Tarnow-Straße,6032000003,normal,Frankfurt am Main,Deutschland,8.668985000000000,50.142730000000000,Nein,Nein,Nein,Nein,Ja,Call a Bike,Call a Bike
227484,Standort,Eschersheimer Landstraße / Grüneburgweg,6032200008,normal,Frankfurt am Main,Deutschland,8.675602000000000,50.121755000000000,Nein,Nein,Nein,Nein,Ja,Call a Bike,Call a Bike
227486,Standort,Gerbermühlstraße / Zum Schlegelhof,6059400015,normal,Frankfurt am Main,Deutschland,8.703269000000000,50.104352000000000,Nein,Nein,Nein,Nein,Ja,Call a Bike,Call a Bike
227487,Standort,Berger Straße / Höhenstraße,6031600011,normal,Frankfurt am Main,Deutschland,8.701228000000000,50.122832000000000,Nein,Nein,Nein,Nein,Ja,Call a Bike,Call a Bike
227494,Standort,HR / Bertramswiese 8,6032000004,normal,Frankfurt am Main,Deutschland,8.675122000000000,50.136631000000000,Nein,Nein,Nein,Nein,Ja,Call a Bike,Call a Bike
227495,Standort,DB Rent-Zentrale / Mainzer Landstr. 169,6032700013,normal,Frankfurt am Main,Deutschland,8.651935000000000,50.106000800000000,Nein,Nein,Nein,Nein,Ja,Call a Bike,Call a Bike
227503,Standort,Rödelheimer Landstraße / Breitenbachbrücke,6048700015,normal,Frankfurt am Main,Deutschland,8.632981000000000,50.123089000000000,Nein,Nein,Nein,Nein,Ja,Call a Bike,Call a Bike
227712,Standort,Darmstädter Lanstraße / Vergölst / Carglass,6059800004,normal,Frankfurt am Main,Deutschland,8.690760000000000,50.094443000000000,Nein,Nein,Nein,Nein,Ja,Call a Bike,Call a Bike
227726,Standort,Speyerer Straße / Koblenzer Straße,6032700016,normal,Frankfurt am Main,Deutschland,8.648620000000000,50.107348000000000,Nein,Nein,Nein,Nein,Ja,Call a Bike,Call a Bike
227770,Standort,Berta-Kröger-Platz/Wilhelm-Strauß-Weg,2714,normal,Hamburg,Deutschland,10.007016000000000,53.497933000000000,Nein,Nein,Nein,Nein,Ja,StadtRAD Hamburg,Call a Bike
227811,Standort,Ruth-Mufang-Straße / Riedbergallee,6043900005,normal,Frankfurt am Main,Deutschland,8.627828000000000,50.174679000000000,Nein,Nein,Nein,Nein,Ja,Call a Bike,Call a Bike
227833,Standort,Campus Riedberg / Institut für Organische Chemie,6043900006,normal,Frankfurt am Main,Deutschland,8.631454000000000,50.172899000000000,Nein,Nein,Nein,Nein,Ja,Call a Bike,Call a Bike
227834,Standort,Altenhöferallee / Werkstattzentrale,6043900007,normal,Frankfurt am Main,Deutschland,8.634040000000000,50.174150000000000,Nein,Nein,Nein,Nein,Ja,Call a Bike,Call a Bike
227837,Standort,Max-von-Laue-Straße / Biologicum,6043900008,normal,Frankfurt am Main,Deutschland,8.628182000000000,50.173016000000000,Nein,Nein,Nein,Nein,Ja,Call a Bike,Call a Bike
227980,Standort,Universitätsklinikum / Theodor-Stern-Kai,6059000003,normal,Frankfurt am Main,Deutschland,8.660744000000000,50.096530000000000,Nein,Nein,Nein,Nein,Ja,Call a Bike,Call a Bike
229760,Standort,OTTO Group / Wandsbeker Straße,2433,normal,Hamburg,Deutschland,10.070397000000000,53.600260000000000,Nein,Nein,Nein,Nein,Ja,StadtRAD Hamburg,Call a Bike
229958,Standort,Gravensteiner Platz,6043500005,normal,Frankfurt am Main,Deutschland,8.698627000000000,50.155353000000000,Nein,Nein,Nein,Nein,Ja,Call a Bike,Call a Bike
230054,Standort,Grasbrookpark/Überseequartier,2675,normal,Hamburg,Deutschland,9.997945000000000,53.540282000000000,Nein,Nein,Nein,Ja,Ja,StadtRAD Hamburg,Call a Bike
230545,Standort,LMU Projektstandort 1,,normal,München,Deutschland,11.582580000000000,48.153440000000000,Nein,Nein,Nein,Nein,Ja,Call a Bike,Call a Bike
230546,Standort,LMU Projektstandort 2,,normal,München,Deutschland,11.578547000000000,48.149215000000000,Nein,Nein,Nein,Nein,Ja,Call a Bike,Call a Bike
230547,Standort,LMU Projektstandort 3,,normal,München,Deutschland,11.560620000000000,48.134320000000000,Nein,Nein,Nein,Nein,Ja,Call a Bike,Call a Bike
230548,Standort,LMU Projektstandort 4,,normal,München,Deutschland,11.564210000000000,48.129920000000000,Nein,Nein,Nein,Nein,Ja,Call a Bike,Call a Bike
230549,Standort,LMU Projektstandort 5,,normal,München,Deutschland,11.594883000000000,48.150483000000000,Nein,Nein,Nein,Nein,Ja,Call a Bike,Call a Bike
230666,Standort,DB Schenker / HOLM,60010001,normal,Flugh. Frankfurt,Deutschland,8.591024000000000,50.056340000000000,Nein,Nein,Nein,Nein,Ja,Call a Bike,Call a Bike
230679,Standort,Terminal 1 / Busbahnhof,60010002,normal,Flugh. Frankfurt,Deutschland,8.572899000000000,50.051515000000000,Nein,Nein,Nein,Nein,Ja,Call a Bike,Call a Bike
231215,Standort,Bahnhof Troisdorf / Parkhaus Poststraße,58301,normal,Troisdorf,Deutschland,7.149906000000000,50.814619000000000,Nein,Nein,Nein,Nein,Ja,Call a Bike,Call a Bike
231255,Standort,Industriepark Troisdorf / Gierlichstraße,58302,normal,Troisdorf,Deutschland,7.143162000000000,50.824319000000000,Nein,Nein,Nein,Nein,Ja,Call a Bike,Call a Bike
231260,Standort,S-Bahn Freiham,81201,normal,Freiham,Deutschland,11.410466000000000,48.139880000000000,Nein,Nein,Nein,Nein,Ja,Call a Bike,Call a Bike
231558,Standort,Gießener Straße / Ronneburgstraße,6043500006,normal,Frankfurt am Main,Deutschland,8.688623537800000,50.150800149500000,Nein,Nein,Nein,Nein,Ja,Call a Bike,Call a Bike
231563,Standort,Gutleutstraße / Untermainanlage,6032900011,normal,Frankfurt am Main,Deutschland,8.672788000000000,50.108060000000000,Nein,Nein,Nein,Nein,Ja,Call a Bike,Call a Bike
231564,Standort,Buchrainplatz,6059900010,normal,Frankfurt am Main,Deutschland,8.724602000000000,50.100060000000000,Nein,Nein,Nein,Nein,Ja,Call a Bike,Call a Bike
231575,Standort,Oeder Weg / Oberweg,6031800010,normal,Frankfurt am Main,Deutschland,8.681046292200000,50.122415980600000,Nein,Nein,Nein,Nein,Ja,Call a Bike,Call a Bike
231602,Standort,Im Prüfling / Throner Straße,6038900005,normal,Frankfurt am Main,Deutschland,8.707266451600000,50.129399364200000,Nein,Nein,Nein,Nein,Ja,Call a Bike,Call a Bike
231603,Standort,Deutsche Bibliothek,6032200006,normal,Frankfurt am Main,Deutschland,8.683324000000000,50.131716000000000,Nein,Nein,Nein,Nein,Ja,Call a Bike,Call a Bike
231638,Standort,U-Bahn Preungesheim,6043500007,normal,Frankfurt am Main,Deutschland,8.687943000000000,50.158657000000000,Nein,Nein,Nein,Nein,Ja,Call a Bike,Call a Bike
231648,Standort,Rosa-Luxemburg-Straße / Ginnheimer Landstraße,6043100004,normal,Frankfurt am Main,Deutschland,8.646967000000000,50.140270000000000,Nein,Nein,Nein,Nein,Ja,Call a Bike,Call a Bike
231653,Standort,Gartenstraße / Holbeinstraße,6059600004,normal,Frankfurt am Main,Deutschland,8.674717187700000,50.101536360600000,Nein,Nein,Nein,Nein,Ja,Call a Bike,Call a Bike
231731,Standort,Deutsche Bundesbank ,6043100005,normal,Frankfurt am Main,Deutschland,8.659581000000000,50.136160000000000,Nein,Nein,Nein,Nein,Ja,Call a Bike,Call a Bike
231798,Standort,Marbachweg / Eckenheimer Landstraße,6043500008,normal,Frankfurt am Main,Deutschland,8.683534000000000,50.141988000000000,Nein,Nein,Nein,Nein,Ja,Call a Bike,Call a Bike
232067,Standort,Gießener Straße / Marbachweg,6043500009,normal,Frankfurt am Main,Deutschland,8.692212241500000,50.143874408900000,Nein,Nein,Nein,Nein,Ja,Call a Bike,Call a Bike
232102,Standort,Friedberger Landstraße / Dortelweiler Straße ,6038900006,normal,Frankfurt am Main,Deutschland,8.698642000000000,50.139124000000000,Nein,Nein,Nein,Nein,Ja,Call a Bike,Call a Bike
232330,Standort,Universitätsklinikum / Kernbereich I,6059000001,normal,Frankfurt am Main,Deutschland,8.664178000000000,50.096903000000000,Nein,Nein,Nein,Nein,Ja,Call a Bike,Call a Bike
232331,Standort,Universitätsklinikum / Kernbereich II,6059000002,normal,Frankfurt am Main,Deutschland,8.660328000000000,50.094201000000000,Nein,Nein,Nein,Nein,Ja,Call a Bike,Call a Bike
232342,Standort,Universitätsklinikum Parkhaus / Sandhofstraße,6059000004,normal,Frankfurt am Main,Deutschland,8.655518000000000,50.093042000000000,Nein,Nein,Nein,Nein,Ja,Call a Bike,Call a Bike
232381,Standort,S-Bahn Station Mühlberg,6059900011,normal,Frankfurt am Main,Deutschland,8.700605000000000,50.101738000000000,Nein,Nein,Nein,Nein,Ja,Call a Bike,Call a Bike
232598,Standort,Mannheimer Straße / Stuttgarter Straße,6032900013,normal,Frankfurt am Main,Deutschland,8.661658000000000,50.104520000000000,Nein,Nein,Nein,Nein,Ja,Call a Bike,Call a Bike
233478,Standort,Hauptbahnhof,21,normal,Wiesbaden,Deutschland,8.244295000000000,50.071112000000000,Nein,Nein,Nein,Nein,Ja,Call a Bike,Call a Bike
233479,Standort,Campus Kurt-Schumacher-Ring,6519700003,normal,Wiesbaden,Deutschland,8.216861000000000,50.080587000000000,Nein,Nein,Nein,Nein,Ja,Call a Bike,Call a Bike
233480,Standort,Campus Unter den Eichen,41,normal,Wiesbaden,Deutschland,8.216175000000000,50.095735000000000,Nein,Nein,Nein,Nein,Ja,Call a Bike,Call a Bike
233481,Standort,Studentenwohnheim Friedrich-Naumann-Straße,40,normal,Wiesbaden,Deutschland,8.219748000000000,50.082990000000000,Nein,Nein,Nein,Nein,Ja,Call a Bike,Call a Bike
233483,Standort,Bahnhof Rüsselsheim,6542800005,normal,Rüsselsheim,Deutschland,8.412663000000000,49.992015000000000,Nein,Nein,Nein,Nein,Ja,Call a Bike,Call a Bike
233484,Standort,Elisabethenstraße Rüsselsheim,6542800006,normal,Rüsselsheim,Deutschland,8.412448000000000,49.991001000000000,Nein,Nein,Nein,Nein,Ja,Call a Bike,Call a Bike
233485,Standort,Campus am Brückweg Rüsselsheim,6542800008,normal,Rüsselsheim,Deutschland,8.424587000000000,49.985714000000000,Nein,Nein,Nein,Nein,Ja,Call a Bike,Call a Bike
233487,Standort,Studentenwohnheim An der Feuerwache Rüsselsheim,6542800007,normal,Rüsselsheim,Deutschland,8.409315000000000,49.984572000000000,Nein,Nein,Nein,Nein,Ja,Call a Bike,Call a Bike
233536,Standort,Troplowitzstraße / Beiersdorf  / NXP,2227,normal,Hamburg,Deutschland,9.957594000000000,53.582793000000000,Nein,Nein,Nein,Nein,Ja,StadtRAD Hamburg,Call a Bike
233810,Standort,Hauptbahnhof,3000010,normal,Marburg,Deutschland,8.773742000000000,50.819893000000000,Nein,Nein,Nein,Nein,Ja,Call a Bike,Call a Bike
233819,Standort,Hörsaalgebäude / Biegenstraße,3000020,normal,Marburg,Deutschland,8.774289000000000,50.810965000000000,Nein,Nein,Nein,Nein,Ja,Call a Bike,Call a Bike
233820,Standort,Elisabeth-Blochmann-Platz / Mensa,3000025,normal,Marburg,Deutschland,8.775442000000000,50.808009000000000,Nein,Nein,Nein,Nein,Ja,Call a Bike,Call a Bike
233821,Standort,Universitätsstraße / Fachbereich Rechtswissenschaf,3000030,normal,Marburg,Deutschland,8.770030000000000,50.807118000000000,Nein,Nein,Nein,Nein,Ja,Call a Bike,Call a Bike
233822,Standort,Barfüßerstraße / Fachbereich Wirtschaftswissenscha,3000035,normal,Marburg,Deutschland,8.766564000000000,50.807864000000000,Nein,Nein,Nein,Nein,Ja,Call a Bike,Call a Bike
233823,Standort,Gutenbergstraße / Fachbereich Psychologie,3000040,normal,Marburg,Deutschland,8.770357000000000,50.804518000000000,Nein,Nein,Nein,Nein,Ja,Call a Bike,Call a Bike
233824,Standort,Unisportgelände / Jahnstraße,3000050,normal,Marburg,Deutschland,8.774576000000000,50.803682000000000,Nein,Nein,Nein,Nein,Ja,Call a Bike,Call a Bike
233825,Standort,PhilFak/Universitätsbibliothek,3000027,normal,Marburg,Deutschland,8.779439000000000,50.809572000000000,Nein,Nein,Nein,Nein,Ja,Call a Bike,Call a Bike
233826,Standort,Ortenbergplatz,3000015,normal,Marburg,Deutschland,8.781263000000000,50.816687000000000,Nein,Nein,Nein,Nein,Ja,Call a Bike,Call a Bike
233976,Standort,Schillerstraße / Sickingenstraße,111,normal,Kassel,Deutschland,9.495327000000000,51.320754000000000,Nein,Nein,Nein,Nein,Ja,Konrad,Call a Bike
233977,Standort,Hegelsbergstraße / Bunsenstraße,314,normal,Kassel,Deutschland,9.493329000000000,51.338563000000000,Nein,Nein,Nein,Nein,Ja,Konrad,Call a Bike
233980,Standort,Am Heimbach / Kohlenstraße,217,normal,Kassel,Deutschland,9.453924000000000,51.308043000000000,Nein,Nein,Nein,Nein,Ja,Konrad,Call a Bike
233993,Standort,Busbahnhof / Bahnhof Spich,58310,normal,Troisdorf,Deutschland,7.115746000000000,50.826754000000000,Nein,Nein,Nein,Nein,Ja,Call a Bike,Call a Bike
234013,Standort,LMU Projektstandort 6,88008000,normal,München,Deutschland,11.467000000000000,48.113700000000000,Nein,Nein,Nein,Nein,Ja,Call a Bike,Call a Bike
234014,Standort,LMU Projektstandort 7,88008001,normal,München,Deutschland,11.461000000000000,48.110400000000000,Nein,Nein,Nein,Nein,Ja,Call a Bike,Call a Bike
234049,Standort,Mensa Lichtwiese,6420500,normal,Darmstadt,Deutschland,8.680467000000000,49.861367000000000,Nein,Nein,Nein,Nein,Ja,Call a Bike,Call a Bike
234051,Standort,Audimax / Mensa Stadtmitte,6420200,normal,Darmstadt,Deutschland,8.656937000000000,49.875329000000000,Nein,Nein,Nein,Nein,Ja,Call a Bike,Call a Bike
234052,Standort,Holzhofallee,6420150,normal,Darmstadt,Deutschland,8.636973000000000,49.864072000000000,Nein,Nein,Nein,Nein,Ja,Call a Bike,Call a Bike
234053,Standort,Hochschulstadion,6420400,normal,Darmstadt,Deutschland,8.671088000000000,49.861406000000000,Nein,Nein,Nein,Nein,Ja,Call a Bike,Call a Bike
234055,Standort,Hochschulstraße,6420220,normal,Darmstadt,Deutschland,8.655499000000000,49.877131000000000,Nein,Nein,Nein,Nein,Ja,Call a Bike,Call a Bike
234164,Standort,Bahnhof Karlsruhe Durlach,7602,normal,Karlsruhe,Deutschland,8.462538000000000,49.002111000000000,Nein,Nein,Nein,Nein,Ja,Call a Bike,Call a Bike
234165,Standort,Karlsruhe Hauptbahnhof (Nordseite),7600,normal,Karlsruhe,Deutschland,8.402521000000000,48.994171000000000,Nein,Nein,Nein,Nein,Ja,Call a Bike,Call a Bike
234543,Standort,Bahnhof Hennef,57710,normal,Hennef,Deutschland,7.283380000000000,50.773563000000000,Nein,Nein,Nein,Nein,Ja,Call a Bike,Call a Bike
234578,Standort,LMU Projektstandort 8,,normal,München,Deutschland,11.477500000000000,48.115400000000000,Nein,Nein,Nein,Nein,Ja,Call a Bike,Call a Bike
234579,Standort,LMU Projektstandort 9,,normal,München,Deutschland,11.474812000000000,48.109307000000000,Nein,Nein,Nein,Nein,Ja,Call a Bike,Call a Bike
235278,Standort,Christian-Wolff-Häuser,3000080,normal,Marburg,Deutschland,8.779031000000000,50.785590000000000,Nein,Nein,Nein,Nein,Ja,Call a Bike,Call a Bike
235791,Standort,Halle Rudolf-Breitscheid-Straße,0611,normal,Halle,Deutschland,11.978528000000000,51.477948000000000,Nein,Nein,Nein,Nein,Ja,Call a Bike,Call a Bike
235792,Standort,Halle Universitätsring,0612,normal,Halle,Deutschland,11.966882000000000,51.487664000000000,Nein,Nein,Nein,Nein,Ja,Call a Bike,Call a Bike
236728,Standort,Sandershäuser Straße,406,normal,Kassel,Deutschland,9.518756000000000,51.309140000000000,Nein,Nein,Nein,Nein,Ja,Konrad,Call a Bike
236729,Standort,Hess.Rundfunk/KVG,218,normal,Kassel,Deutschland,9.430819000000000,51.314351000000000,Nein,Nein,Nein,Nein,Ja,Konrad,Call a Bike
238779,Standort,Dernsches Gelände,060,normal,Wiesbaden,Deutschland,8.243405000000000,50.080680000000000,Nein,Nein,Nein,Nein,Ja,Call a Bike,Call a Bike
238782,Standort,Platz der Deutschen Einheit,065,normal,Wiesbaden,Deutschland,8.236023000000000,50.080064000000000,Nein,Nein,Nein,Nein,Ja,Call a Bike,Call a Bike
238784,Standort,Moritzstraße,075,normal,Wiesbaden,Deutschland,8.238652000000000,50.074521000000000,Nein,Nein,Nein,Nein,Ja,Call a Bike,Call a Bike
238840,Standort,Bessunger Platz,6420180,normal,Darmstadt,Deutschland,8.651165000000000,49.858031000000000,Nein,Nein,Nein,Nein,Ja,Call a Bike,Call a Bike
238842,Standort,Heidelberger Straße / Landskronstraße,6420190,normal,Darmstadt,Deutschland,8.646879000000000,49.853492000000000,Nein,Nein,Nein,Nein,Ja,Call a Bike,Call a Bike
238843,Standort,Wilhelminenplatz,6420170,normal,Darmstadt,Deutschland,8.651567000000000,49.869111000000000,Nein,Nein,Nein,Nein,Ja,Call a Bike,Call a Bike
238850,Standort,Bürgerpark,6420260,normal,Darmstadt,Deutschland,8.662312000000000,49.886824000000000,Nein,Nein,Nein,Nein,Ja,Call a Bike,Call a Bike
239026,Standort,Woog / Schul- und Trainingsbad,6420550,normal,Darmstadt,Deutschland,8.672504000000000,49.871576000000000,Nein,Nein,Nein,Nein,Ja,Call a Bike,Call a Bike
239567,Standort,Campus Bertramstraße,6518500001,normal,Wiesbaden,Deutschland,8.230537000000000,50.079554000000000,Nein,Nein,Nein,Nein,Ja,Call a Bike,Call a Bike
239568,Standort,Dürerplatz,6519500001,normal,Wiesbaden,Deutschland,8.225471000000000,50.085677000000000,Nein,Nein,Nein,Nein,Ja,Call a Bike,Call a Bike
239570,Standort,Saalgasse,6508300001,normal,Wiesbaden,Deutschland,8.241614000000000,50.086716000000000,Nein,Nein,Nein,Nein,Ja,Call a Bike,Call a Bike
239571,Standort,Herderstraße,6518500002,normal,Wiesbaden,Deutschland,8.233611000000000,50.074458000000000,Nein,Nein,Nein,Nein,Ja,Call a Bike,Call a Bike
239573,Standort,Marcobrunner Straße,6519700001,normal,Wiesbaden,Deutschland,8.226467000000000,50.076601000000000,Nein,Nein,Nein,Nein,Ja,Call a Bike,Call a Bike
239807,Standort,Bullerdeich/Stadtreinigung Hamburg,2680,normal,Hamburg,Deutschland,10.036850000000000,53.544979000000000,Nein,Nein,Nein,Nein,Ja,StadtRAD Hamburg,Call a Bike
240612,Standort,Hauptbahnhof / Taxistand,6032900001,normal,Frankfurt am Main,Deutschland,8.663593000000000,50.107408000000000,Nein,Nein,Nein,Nein,Ja,Call a Bike,Call a Bike
241147,Standort,Luisenplatz / Rheinstraße,6420300,normal,Darmstadt,Deutschland,8.650092000000000,49.872775000000000,Nein,Nein,Nein,Nein,Ja,Call a Bike,Call a Bike
241148,Standort,Ostbahnhof,6420600,normal,Darmstadt,Deutschland,8.673752000000000,49.874551000000000,Nein,Nein,Nein,Nein,Ja,Call a Bike,Call a Bike
241277,Standort,Böllenfalltor,6420450,normal,Darmstadt,Deutschland,8.670176000000000,49.852553000000000,Nein,Nein,Nein,Nein,Ja,Call a Bike,Call a Bike
241567,Standort,Studentenwohnheim Auf dem Steinweg,6542800001,normal,Rüsselsheim,Deutschland,8.401961000000000,49.993292000000000,Nein,Nein,Nein,Nein,Ja,Call a Bike,Call a Bike
241568,Standort,Studentenwohnheim Auf dem Steinweg,6542800002,normal,Rüsselsheim,Deutschland,8.401886000000000,49.992916000000000,Nein,Nein,Nein,Nein,Ja,Call a Bike,Call a Bike
241777,Standort,Reeseberg/EBV-Anzengruberstraße,2840,normal,Hamburg,Deutschland,9.990306000000000,53.448960000000000,Nein,Nein,Nein,Nein,Ja,StadtRAD Hamburg,Call a Bike
241925,Standort,Campus 1 / OS 75 Haus III,24101,normal,Kiel,Deutschland,10.106487000000000,54.344975000000000,Nein,Nein,Nein,Nein,Ja,Call a Bike,Call a Bike
241926,Standort,Campus 2 LS 1 Seminargebäude,24102,normal,Kiel,Deutschland,10.109861000000000,54.345230000000000,Nein,Nein,Nein,Nein,Ja,Call a Bike,Call a Bike
241929,Standort,Campus 3 / ABG 9 Bioturm,24103,normal,Kiel,Deutschland,10.114378000000000,54.346766000000000,Nein,Nein,Nein,Nein,Ja,Call a Bike,Call a Bike
241930,Standort,Campus 4 / Audimax,24104,normal,Kiel,Deutschland,10.123803000000000,54.337944000000000,Nein,Nein,Nein,Nein,Ja,Call a Bike,Call a Bike
241931,Standort,Georg-Gaßmann-Stadion,3000055,normal,Marburg,Deutschland,8.753169000000000,50.798615000000000,Nein,Nein,Nein,Nein,Ja,Call a Bike,Call a Bike
241976,Standort,Stadtbüro,3000070,normal,Marburg,Deutschland,8.766934000000000,50.790358000000000,Nein,Nein,Nein,Nein,Ja,Call a Bike,Call a Bike
242277,Standort,Evangelische Hochschule Darmstadt,6420120,normal,Darmstadt,Deutschland,8.627213000000000,49.873802000000000,Nein,Nein,Nein,Nein,Ja,Call a Bike,Call a Bike
242342,Standort,Citybike ,,normal,Darmstadt,Deutschland,8.637030000000000,49.889644000000000,Nein,Nein,Nein,Nein,Ja,Call a Bike,Call a Bike
242358,Standort,Moorstraße/Bahnhof Harburg,2810,normal,Hamburg,Deutschland,9.987994000000000,53.457286000000000,Nein,Nein,Nein,Nein,Ja,StadtRAD Hamburg,Call a Bike
242520,Standort,Campus Westend IG Farben,6032300001,normal,Frankfurt am Main,Deutschland,8.665367000000000,50.125673000000000,Nein,Nein,Nein,Nein,Ja,Call a Bike,Call a Bike
242521,Standort,Campus Westend Hörsaalzentrum,6032300002,normal,Frankfurt am Main,Deutschland,8.665946000000000,50.128516000000000,Nein,Nein,Nein,Nein,Ja,Call a Bike,Call a Bike
242564,Standort,Gerbermühlstraße / Walther-von-Cronberg-Platz,6059400001,normal,Frankfurt am Main,Deutschland,8.695931000000000,50.105003000000000,Nein,Nein,Nein,Nein,Ja,Call a Bike,Call a Bike
242611,Standort,Hauptbahnhof,7650010,normal,Baden-Baden,Deutschland,8.190841000000000,48.789812000000000,Nein,Nein,Nein,Nein,Ja,Call a Bike,Call a Bike
242612,Standort,Kino,7650060,normal,Baden-Baden,Deutschland,8.194765000000000,48.781582000000000,Nein,Nein,Nein,Nein,Ja,Call a Bike,Call a Bike
242622,Standort,Tel-Aviv Platz,6032600005,normal,Frankfurt am Main,Deutschland,8.628983000000000,50.107215000000000,Nein,Nein,Nein,Nein,Ja,Call a Bike,Call a Bike
242625,Standort,Radisson Blu Hotel,6048600001,normal,Frankfurt am Main,Deutschland,8.627663000000000,50.117331000000000,Nein,Nein,Nein,Nein,Ja,Call a Bike,Call a Bike
242629,Standort,Campus Westend / Hansa-Allee,6032300003,normal,Frankfurt am Main,Deutschland,8.669664000000000,50.129118000000000,Nein,Nein,Nein,Nein,Ja,Call a Bike,Call a Bike
242642,Standort,Herbert-Wehner-Platz/Großer Schippsee,2811,normal,Hamburg,Deutschland,9.983319000000000,53.460407000000000,Nein,Nein,Nein,Nein,Ja,StadtRAD Hamburg,Call a Bike
242643,Standort,Harburger Ring/Neue Straße,2812,normal,Hamburg,Deutschland,9.977572900000000,53.460687400000000,Nein,Nein,Nein,Nein,Ja,StadtRAD Hamburg,Call a Bike
242645,Standort,Harburger Rathausstraße/Deichhausweg,2813,normal,Hamburg,Deutschland,9.980473100000000,53.459958600000000,Nein,Nein,Nein,Nein,Ja,StadtRAD Hamburg,Call a Bike
242727,Standort,Kanalplatz/Harburger Schlossstraße,2801,normal,Hamburg,Deutschland,9.984148000000000,53.466500000000000,Nein,Nein,Nein,Nein,Ja,StadtRAD Hamburg,Call a Bike
242729,Standort,Alter Postweg / Heimfelder Straße,2814,normal,Hamburg,Deutschland,9.963537000000000,53.465276000000000,Nein,Nein,Nein,Nein,Ja,StadtRAD Hamburg,Call a Bike
242730,Standort,TU Harburg/Denickestraße,2820,normal,Hamburg,Deutschland,9.969487000000000,53.460622000000000,Nein,Nein,Nein,Nein,Ja,StadtRAD Hamburg,Call a Bike
242732,Standort,Gotthelfweg/Außenmühlenteich,2841,normal,Hamburg,Deutschland,9.980675000000000,53.447625000000000,Nein,Nein,Nein,Nein,Ja,StadtRAD Hamburg,Call a Bike
242744,Standort,Riegerplatz,6420225,normal,Darmstadt,Deutschland,8.660815000000000,49.880345000000000,Nein,Nein,Nein,Nein,Ja,Call a Bike,Call a Bike
242770,Standort,Schellerdamm/Hausnummer22,2802,normal,Hamburg,Deutschland,9.986136000000000,53.464282000000000,Nein,Nein,Nein,Nein,Ja,StadtRAD Hamburg,Call a Bike
242771,Standort,Fuhlsbüttler Straße/Hellbrookstraße,2352,normal,Hamburg,Deutschland,10.044508000000000,53.591460000000000,Nein,Nein,Nein,Nein,Ja,StadtRAD Hamburg,Call a Bike
242885,Standort,Botanischer Garten,6420350,normal,Darmstadt,Deutschland,8.680084000000000,49.868830000000000,Nein,Nein,Nein,Nein,Ja,Call a Bike,Call a Bike
242934,Standort,Sportcampus Ginnheim,6048700001,normal,Frankfurt am Main,Deutschland,8.645245000000000,50.131554000000000,Nein,Nein,Nein,Nein,Ja,Call a Bike,Call a Bike
243011,Standort,Wohnmobilparkplatz,7650020,normal,Baden-Baden,Deutschland,8.203976000000000,48.782109000000000,Nein,Nein,Nein,Nein,Ja,Call a Bike,Call a Bike
243012,Standort,Busparkplatz,7650030,normal,Baden-Baden,Deutschland,8.228116000000000,48.769872000000000,Nein,Nein,Nein,Nein,Ja,Call a Bike,Call a Bike
243013,Standort,Kurhaus,7650040,normal,Baden-Baden,Deutschland,8.238343000000000,48.760675000000000,Nein,Nein,Nein,Nein,Ja,Call a Bike,Call a Bike
243014,Standort,Augustaplatz,7650050,normal,Baden-Baden,Deutschland,8.241093000000000,48.758237000000000,Nein,Nein,Nein,Nein,Ja,Call a Bike,Call a Bike
243251,Standort,Wilhelmsplatz,3000033,normal,Marburg,Deutschland,8.759279000000000,50.804736000000000,Nein,Nein,Nein,Nein,Ja,Call a Bike,Call a Bike
243296,Standort,Landwehrstraße / Kasinostraße,6420230,normal,Darmstadt,Deutschland,8.641782000000000,49.878372000000000,Nein,Nein,Nein,Nein,Ja,Call a Bike,Call a Bike
243508,Standort,Roßdörfer Platz,6420430,normal,Darmstadt,Deutschland,8.662057000000000,49.869387000000000,Nein,Nein,Nein,Nein,Ja,Call a Bike,Call a Bike
243552,Standort,h_da / Campus - Mensa,6420130,normal,Darmstadt,Deutschland,8.637443000000000,49.867195000000000,Nein,Nein,Nein,Nein,Ja,Call a Bike,Call a Bike
243616,Standort,Bogenstraße / Grindelallee,2216,normal,Hamburg,Deutschland,9.977694000000000,53.571200000000000,Nein,Nein,Nein,Nein,Ja,StadtRAD Hamburg,Call a Bike
243617,Standort,Sophienallee / Sandweg,2136,normal,Hamburg,Deutschland,9.949770000000000,53.569769000000000,Nein,Nein,Nein,Nein,Ja,StadtRAD Hamburg,Call a Bike
243618,Standort,Lappenbergsallee / Bei der Apostelkirche,2220,normal,Hamburg,Deutschland,9.944487000000000,53.575573000000000,Nein,Nein,Nein,Nein,Ja,StadtRAD Hamburg,Call a Bike
243619,Standort,Emil-Andresen-Straße / Lohkoppelweg,2250,normal,Hamburg,Deutschland,9.952055000000000,53.592850000000000,Nein,Nein,Nein,Nein,Ja,StadtRAD Hamburg,Call a Bike
243620,Standort,Herthastraße / Einkaufszentrum Bramfeld,2438,normal,Hamburg,Deutschland,10.075913000000000,53.611878000000000,Nein,Nein,Nein,Nein,Ja,StadtRAD Hamburg,Call a Bike
243621,Standort,Friedrich-Ebert-Damm / Lomerstraße,2435,normal,Hamburg,Deutschland,10.079638000000000,53.584919000000000,Nein,Nein,Nein,Nein,Ja,StadtRAD Hamburg,Call a Bike
243822,Standort,h_da KITA / Bibliothek,6420140,normal,Darmstadt,Deutschland,8.640136000000000,49.866170000000000,Nein,Nein,Nein,Nein,Ja,Call a Bike,Call a Bike
243825,Standort,h_da / Fachbereich Bauingenieurwesen,6420145,normal,Darmstadt,Deutschland,8.633312000000000,49.866160000000000,Nein,Nein,Nein,Nein,Ja,Call a Bike,Call a Bike
243831,Standort,S-Bahnhof Arheilgen,6420280,normal,Darmstadt,Deutschland,8.645715000000000,49.914200000000000,Nein,Nein,Nein,Nein,Ja,Call a Bike,Call a Bike
243832,Standort,Frankfurter Landstraße / Ettesterstraße,6420290,normal,Darmstadt,Deutschland,8.657369000000000,49.911050000000000,Nein,Nein,Nein,Nein,Ja,Call a Bike,Call a Bike
243833,Standort,Nordbahnhof,6420240,normal,Darmstadt,Deutschland,8.653509000000000,49.891770000000000,Nein,Nein,Nein,Nein,Ja,Call a Bike,Call a Bike
244093,Standort,Feldstraße / Marktstraße,2513,normal,Hamburg,Deutschland,9.969178000000000,53.557414000000000,Nein,Nein,Nein,Nein,Ja,StadtRAD Hamburg,Call a Bike
244166,Standort,Campus Riedberg Mensa,6043900001,normal,Frankfurt am Main,Deutschland,8.631916000000000,50.171669000000000,Nein,Nein,Nein,Nein,Ja,Call a Bike,Call a Bike
244916,Standort,Südbahnhof,3000075,normal,Marburg,Deutschland,8.763292000000000,50.795180000000000,Nein,Nein,Nein,Nein,Ja,Call a Bike,Call a Bike
244935,Standort,Caffamacherreihe/Valentinskamp.,2525,normal,Hamburg,Deutschland,9.984209000000000,53.555722000000000,Nein,Nein,Nein,Nein,Ja,StadtRAD Hamburg,Call a Bike
244936,Standort,Sievekingsallee/Sievekingdamm,2414,normal,Hamburg,Deutschland,10.052589000000000,53.560835000000000,Nein,Nein,Nein,Nein,Ja,StadtRAD Hamburg,Call a Bike
244937,Standort,Horner Weg/Morahtstieg,2563,normal,Hamburg,Deutschland,10.066926000000000,53.555503000000000,Nein,Nein,Nein,Nein,Ja,StadtRAD Hamburg,Call a Bike
244938,Standort,Horner Rennbahn/ Meurer Weg,2566,normal,Hamburg,Deutschland,10.085077000000000,53.554193000000000,Nein,Nein,Nein,Nein,Ja,StadtRAD Hamburg,Call a Bike
244939,Standort,Osterbrookplatz/ Süderstraße,2686,normal,Hamburg,Deutschland,10.057613000000000,53.546932000000000,Nein,Nein,Nein,Nein,Ja,StadtRAD Hamburg,Call a Bike
244942,Standort,Mittelweg/Sophienterrasse-NDR,2234,normal,Hamburg,Deutschland,9.993122000000000,53.576378000000000,Nein,Nein,Nein,Nein,Ja,StadtRAD Hamburg,Call a Bike
244943,Standort,Große Rainstraße/Ottenser Hauptstraße,2127,normal,Hamburg,Deutschland,9.930344000000000,53.552339000000000,Nein,Nein,Nein,Nein,Ja,StadtRAD Hamburg,Call a Bike
244944,Standort,Hohenzollernring/Friedensallee,2129,normal,Hamburg,Deutschland,9.918508000000000,53.556710000000000,Nein,Nein,Nein,Nein,Ja,StadtRAD Hamburg,Call a Bike
244945,Standort,Friedensallee/Hegarstraße ( S Bahn Bahrenfeld ) ,2090,normal,Hamburg,Deutschland,9.908946000000000,53.560260000000000,Nein,Nein,Nein,Nein,Ja,StadtRAD Hamburg,Call a Bike
244946,Standort,Dürerstraße/Beslerplatz- S Bahn Othmarschen,2085,normal,Hamburg,Deutschland,9.887159000000000,53.560395000000000,Nein,Nein,Nein,Nein,Ja,StadtRAD Hamburg,Call a Bike
244979,Standort,Frankfurter Straße / Schwanallee,3000045,normal,Marburg,Deutschland,8.762176000000000,50.798920000000000,Nein,Nein,Nein,Nein,Ja,Call a Bike,Call a Bike
244983,Standort,Ginseldorfer Weg / Försterweg,3000090,normal,Marburg,Deutschland,8.775088000000000,50.827830000000000,Nein,Nein,Nein,Nein,Ja,Call a Bike,Call a Bike
245203,Standort,Alsterdorfer Straße/Fuhlsbüttler Straße,2397,normal,Hamburg,Deutschland,10.032000000000000,53.620000000000000,Nein,Nein,Ja,Nein,Ja,StadtRAD Hamburg,Call a Bike
245204,Standort,Fuhlsbüttler Straße/Hartzloh,2391,normal,Hamburg,Deutschland,10.041000000000000,53.601000000000000,Nein,Nein,Nein,Nein,Ja,StadtRAD Hamburg,Call a Bike
245414,Standort,Lindner Hotel Main Plaza,6059400010,normal,Frankfurt am Main,Deutschland,8.695820000000000,50.106335000000000,Nein,Nein,Nein,Nein,Ja,Call a Bike,Call a Bike
245434,Standort,Eißendorfer Pferdeweg/ Asklepios-Klinik Harburg,2821,normal,Hamburg,Deutschland,9.951000000000000,53.459000000000000,Nein,Nein,Nein,Nein,Ja,StadtRAD Hamburg,Call a Bike
245447,Standort,Klosterplatz,7650092,normal,Baden-Baden,Deutschland,8.255555500000000,48.746376230000000,Nein,Nein,Nein,Nein,Ja,Call a Bike,Call a Bike
245452,Standort,Versmannstraße/Am Hannoverschen Bahnhof,2677,normal,Hamburg,Deutschland,10.006168000000000,53.540782000000000,Nein,Nein,Nein,Nein,Ja,StadtRAD Hamburg,Call a Bike
245488,Standort,Merck Südtor,6420255,normal,Darmstadt,Deutschland,8.654331000000000,49.894012000000000,Nein,Nein,Nein,Nein,Ja,Call a Bike,Call a Bike
245489,Standort,Merck Parkplatz Nordmitte,6420265,normal,Darmstadt,Deutschland,8.648529000000000,49.902032000000000,Nein,Nein,Nein,Nein,Ja,Call a Bike,Call a Bike
245490,Standort,Heidelberger Straße 49,6420185,normal,Darmstadt,Deutschland,8.646940000000000,49.862313000000000,Nein,Nein,Nein,Nein,Ja,Call a Bike,Call a Bike
246251,Standort,Darmstadtium,6420210,normal,Darmstadt,Deutschland,8.656686000000000,49.874005000000000,Nein,Nein,Nein,Nein,Ja,Call a Bike,Call a Bike
247483,Standort,Paul-Ehrlich-Straße/Asklepios Klinik Altona,2075,normal,Hamburg,Deutschland,9.900752000000000,53.554433000000000,Nein,Nein,Nein,Nein,Ja,StadtRAD Hamburg,Call a Bike
247491,Standort,Lyoner Str. / Herriotstr.,6052800011,normal,Frankfurt am Main,Deutschland,8.628160000000000,50.082170000000000,Nein,Nein,Nein,Nein,Ja,Call a Bike,Call a Bike
247511,Standort,Kaiserlei Ausgang Brüsseler Platz,6306700015,normal,Frankfurt am Main,Deutschland,8.736539000000000,50.105198000000000,Nein,Nein,Nein,Nein,Ja,Call a Bike,Call a Bike
247515,Standort,Kaiserlei Ausgang Berliner Straße,6306700016,normal,Frankfurt am Main,Deutschland,8.740872000000000,50.105227000000000,Nein,Nein,Nein,Nein,Ja,Call a Bike,Call a Bike
247592,Standort,GRIMMWELT,113,normal,Kassel,Deutschland,9.489875000000000,51.309353000000000,Nein,Nein,Nein,Nein,Ja,Konrad,Call a Bike
247816,Standort,Bürgerhaus Cappel / August-Bebel-Platz ,3000083,normal,Marburg,Deutschland,8.767863000000000,50.778387000000000,Nein,Nein,Nein,Nein,Ja,Call a Bike,Call a Bike
247846,Standort,Niendorf Markt/Tibarg,2030,normal,Hamburg,Deutschland,9.951311300000000,53.619072200000000,Nein,Nein,Nein,Nein,Ja,StadtRAD Hamburg,Call a Bike
247847,Standort,Nordalbinger Weg/Paul-Sorge-Straße,2035,normal,Hamburg,Deutschland,9.950095500000000,53.640835200000000,Nein,Nein,Nein,Nein,Ja,StadtRAD Hamburg,Call a Bike
247851,Standort,Langenhorn Markt/Tangstedter Landstraße,2399,normal,Hamburg,Deutschland,10.016366300000000,53.648757200000000,Nein,Nein,Nein,Nein,Ja,StadtRAD Hamburg,Call a Bike
247852,Standort,Weidestraße /Johannes-Prassek-Park,2362,normal,Hamburg,Deutschland,10.025847900000000,53.580808700000000,Nein,Nein,Nein,Nein,Ja,StadtRAD Hamburg,Call a Bike
247930,Standort,Bürgerhaus Wehrda / Huteweg,3000095,normal,Marburg,Deutschland,8.757157000000000,50.836229000000000,Nein,Nein,Nein,Nein,Ja,Call a Bike,Call a Bike
247935,Standort,An den Siechengärten / Alter Kirchhainer Weg,3000018,normal,Marburg,Deutschland,8.782714000000000,50.805795000000000,Nein,Nein,Nein,Nein,Ja,Call a Bike,Call a Bike
248511,Standort,Habichtstraße/Steilshooper Straße,2353,normal,Hamburg,Deutschland,10.050639700000000,53.593726000000000,Nein,Nein,Nein,Nein,Ja,StadtRAD Hamburg,Call a Bike
249808,Standort,Mövenpick Hotel,6032700004,normal,Frankfurt am Main,Deutschland,8.651029000000000,50.109921000000000,Nein,Nein,Nein,Nein,Ja,Call a Bike,Call a Bike
249810,Standort,DB Fernverkehr ,6593300001,normal,Frankfurt am Main,Deutschland,8.621186000000000,50.092569000000000,Nein,Nein,Nein,Nein,Ja,Call a Bike,Call a Bike
250311,Standort,Platz der Republik,6032900005,normal,Frankfurt am Main,Deutschland,8.661190000000000,50.109555000000000,Nein,Nein,Nein,Nein,Ja,Call a Bike,Call a Bike
250321,Standort,François-Mitterrand-Platz,6032900006,normal,Frankfurt am Main,Deutschland,8.665151000000000,50.110749000000000,Nein,Nein,Nein,Nein,Ja,Call a Bike,Call a Bike
250323,Standort,Weserstraße,6032900007,normal,Frankfurt am Main,Deutschland,8.670815000000000,50.107325000000000,Nein,Nein,Nein,Nein,Ja,Call a Bike,Call a Bike
250324,Standort,Wiesenhüttenplatz,6032900008,normal,Frankfurt am Main,Deutschland,8.666950000000000,50.104961000000000,Nein,Nein,Nein,Nein,Ja,Call a Bike,Call a Bike
250325,Standort,Grüneburgweg / Leerbachstraße,6032200001,normal,Frankfurt am Main,Deutschland,8.672356000000000,50.121072000000000,Nein,Nein,Nein,Nein,Ja,Call a Bike,Call a Bike
250326,Standort,Berger Straße / Hermesweg,6031600001,normal,Frankfurt am Main,Deutschland,8.692223000000000,50.118570000000000,Nein,Nein,Nein,Nein,Ja,Call a Bike,Call a Bike
250334,Standort,Hanauer Landstraße 287,6031400005,normal,Frankfurt am Main,Deutschland,8.725688000000000,50.116188000000000,Nein,Nein,Nein,Nein,Ja,Call a Bike,Call a Bike
250335,Standort,Eckenheimer Landstraße / Holzhausenstraße,6031800005,normal,Frankfurt am Main,Deutschland,8.684428000000000,50.128298000000000,Nein,Nein,Nein,Nein,Ja,Call a Bike,Call a Bike
250337,Standort,Martin-Elsässer-Platz,6031400003,normal,Frankfurt am Main,Deutschland,8.696855000000000,50.109006000000000,Nein,Nein,Nein,Nein,Ja,Call a Bike,Call a Bike
250338,Standort,Frankenallee/Rebstöcker Straße,6032600006,normal,Frankfurt am Main,Deutschland,8.626494000000000,50.102899000000000,Nein,Nein,Nein,Nein,Ja,Call a Bike,Call a Bike
250339,Standort,Am Römerhof / Europa-Allee,6048600005,normal,Frankfurt am Main,Deutschland,8.622350000000000,50.108003000000000,Nein,Nein,Nein,Nein,Ja,Call a Bike,Call a Bike
250340,Standort,Hugo-Kirchberg-Straße/Tesa,2950,normal,Hamburg,Deutschland,9.985280000000000,53.654290000000000,Nein,Nein,Nein,Nein,Ja,StadtRAD Hamburg,Call a Bike
250341,Standort,Rebstockbad,6048600006,normal,Frankfurt am Main,Deutschland,8.618666000000000,50.113036000000000,Nein,Nein,Nein,Nein,Ja,Call a Bike,Call a Bike
250342,Standort,Mainzer Landstraße / Rüsselsheimer Straße,6032600007,normal,Frankfurt am Main,Deutschland,8.620851000000000,50.100873000000000,Nein,Nein,Nein,Nein,Ja,Call a Bike,Call a Bike
250346,Standort,Stadtbücherei Griesheim,6593300003,normal,Frankfurt am Main,Deutschland,8.607427000000000,50.095134000000000,Nein,Nein,Nein,Nein,Ja,Call a Bike,Call a Bike
250348,Standort,S-Bahn Station Griesheim Südseite,6593300004,normal,Frankfurt am Main,Deutschland,8.607354000000000,50.093988000000000,Nein,Nein,Nein,Nein,Ja,Call a Bike,Call a Bike
250349,Standort,Griesheimer Stadtweg / Schöffenstraße,6593300005,normal,Frankfurt am Main,Deutschland,8.615251000000000,50.091333000000000,Nein,Nein,Nein,Nein,Ja,Call a Bike,Call a Bike
250370,Standort,Geschwister-Scholl-Straße / Kollwitzstraße ,6048800002,normal,Frankfurt am Main,Deutschland,8.609607000000000,50.135637000000000,Nein,Nein,Nein,Nein,Ja,Call a Bike,Call a Bike
250372,Standort,U-Bahn Station Praunheim Heerstraße,6048800003,normal,Frankfurt am Main,Deutschland,8.607478000000000,50.144871000000000,Nein,Nein,Nein,Nein,Ja,Call a Bike,Call a Bike
250374,Standort,Damaschkeanger / Heerstraße ,6048800004,normal,Frankfurt am Main,Deutschland,8.618614000000000,50.149070000000000,Nein,Nein,Nein,Nein,Ja,Call a Bike,Call a Bike
250377,Standort,In der Au / Westerbachstraße ,6048900002,normal,Frankfurt am Main,Deutschland,8.599254000000000,50.122375000000000,Nein,Nein,Nein,Nein,Ja,Call a Bike,Call a Bike
250380,Standort,Melanchthonplatz,6059900001,normal,Frankfurt am Main,Deutschland,8.727924000000000,50.098068000000000,Nein,Nein,Nein,Nein,Ja,Call a Bike,Call a Bike
250383,Standort,Balduinstraße,6059900002,normal,Frankfurt am Main,Deutschland,8.715439000000000,50.097691000000000,Nein,Nein,Nein,Nein,Ja,Call a Bike,Call a Bike
250385,Standort,Gemündener Straße / Miltenberger Straße,6059900003,normal,Frankfurt am Main,Deutschland,8.699512000000000,50.095892000000000,Nein,Nein,Nein,Nein,Ja,Call a Bike,Call a Bike
250387,Standort,Cronstettenstraße / Klettenbergstraße,6032200002,normal,Frankfurt am Main,Deutschland,8.679296000000000,50.129622000000000,Nein,Nein,Nein,Nein,Ja,Call a Bike,Call a Bike
250396,Standort,Glauburgstraße / Weberstraße,6031800007,normal,Frankfurt am Main,Deutschland,8.686550000000000,50.126627000000000,Nein,Nein,Nein,Nein,Ja,Call a Bike,Call a Bike
250397,Standort,Grafenstraße / Reinhardstraße,6043300001,normal,Frankfurt am Main,Deutschland,8.670011000000000,50.150584000000000,Nein,Nein,Nein,Nein,Ja,Call a Bike,Call a Bike
250402,Standort,Am Hochwehr / Hügelstraße,6043100001,normal,Frankfurt am Main,Deutschland,8.653403000000000,50.143897000000000,Nein,Nein,Nein,Nein,Ja,Call a Bike,Call a Bike
250408,Standort,Römerberg,6031100003,normal,Frankfurt am Main,Deutschland,8.682143000000000,50.110872000000000,Nein,Nein,Nein,Nein,Ja,Call a Bike,Call a Bike
250409,Standort,Alt-Fechenheim / Burglehen,6038600001,normal,Frankfurt am Main,Deutschland,8.771767000000000,50.121849000000000,Nein,Nein,Nein,Nein,Ja,Call a Bike,Call a Bike
250411,Standort,Gründenseestraße / Konstanzer Straße,6038600002,normal,Frankfurt am Main,Deutschland,8.767001000000000,50.120961000000000,Nein,Nein,Nein,Nein,Ja,Call a Bike,Call a Bike
250415,Standort,Rheinlandstraße / Schwanheimer Bahnstraße,6052900001,normal,Frankfurt am Main,Deutschland,8.581073000000000,50.082435000000000,Nein,Nein,Nein,Nein,Ja,Call a Bike,Call a Bike
250540,Standort,Geisenheimer Straße,6052900002,normal,Frankfurt am Main,Deutschland,8.569132000000000,50.085107000000000,Nein,Nein,Nein,Nein,Ja,Call a Bike,Call a Bike
250542,Standort,Geisenheimer Straße / Mauritiusstraße,6052900003,normal,Frankfurt am Main,Deutschland,8.576125000000000,50.089129000000000,Nein,Nein,Nein,Nein,Ja,Call a Bike,Call a Bike
250543,Standort,Rheinlandstraße / Henriette-Fürth-Straße,6052900004,normal,Frankfurt am Main,Deutschland,8.589461000000000,50.085557000000000,Nein,Nein,Nein,Nein,Ja,Call a Bike,Call a Bike
250545,Standort,Am Waldgraben / Am Wildpfad,6052900005,normal,Frankfurt am Main,Deutschland,8.606505000000000,50.078619000000000,Nein,Nein,Nein,Nein,Ja,Call a Bike,Call a Bike
250548,Standort,Schweizer Straße / Oppenheimer Landstraße,6059400004,normal,Frankfurt am Main,Deutschland,8.680907000000000,50.101613000000000,Nein,Nein,Nein,Nein,Ja,Call a Bike,Call a Bike
250596,Standort,Emmerich-Josef-Straße / Zuckschwerdtstraße,6592900001,normal,Frankfurt am Main,Deutschland,8.551853000000000,50.102924000000000,Nein,Nein,Nein,Nein,Ja,Call a Bike,Call a Bike
250600,Standort,Bahnhof Höchst Nordseite / Adelonstraße,6592900002,normal,Frankfurt am Main,Deutschland,8.541965000000000,50.103462000000000,Nein,Nein,Nein,Nein,Ja,Call a Bike,Call a Bike
250605,Standort,Königsteiner Straße / Sieringstraße,6592900003,normal,Frankfurt am Main,Deutschland,8.540303000000000,50.109189000000000,Nein,Nein,Nein,Nein,Ja,Call a Bike,Call a Bike
250606,Standort,Liederbacher Straße / Hermann-Waibel-Allee,6592900004,normal,Frankfurt am Main,Deutschland,8.535668000000000,50.107475000000000,Nein,Nein,Nein,Nein,Ja,Call a Bike,Call a Bike
250611,Standort,U-Bahn Station Heddernheim,6043900002,normal,Frankfurt am Main,Deutschland,8.650036000000000,50.160944000000000,Nein,Nein,Nein,Nein,Ja,Call a Bike,Call a Bike
250614,Standort,Eschersheimer Freibad / Im Uhrig,6043300002,normal,Frankfurt am Main,Deutschland,8.655041000000000,50.163477000000000,Nein,Nein,Nein,Nein,Ja,Call a Bike,Call a Bike
250615,Standort,Anne-Frank-Straße,6043300003,normal,Frankfurt am Main,Deutschland,8.661486000000000,50.160596000000000,Nein,Nein,Nein,Nein,Ja,Call a Bike,Call a Bike
250618,Standort,U-Bahn Station Zeilweg,6043900003,normal,Frankfurt am Main,Deutschland,8.642948000000000,50.164516000000000,Nein,Nein,Nein,Nein,Ja,Call a Bike,Call a Bike
250620,Standort,Elbinger Straße / Trakehner Straße,6048700002,normal,Frankfurt am Main,Deutschland,8.626603000000000,50.126070000000000,Nein,Nein,Nein,Nein,Ja,Call a Bike,Call a Bike
250622,Standort,Lurgiallee / Sebastian-Kneipp-Straße,6043900004,normal,Frankfurt am Main,Deutschland,8.640933000000000,50.169719000000000,Nein,Nein,Nein,Nein,Ja,Call a Bike,Call a Bike
250624,Standort,Emil-Sulzbach Straße / Robert-Mayer Straße,6048600007,normal,Frankfurt am Main,Deutschland,8.649234000000000,50.116819000000000,Nein,Nein,Nein,Nein,Ja,Call a Bike,Call a Bike
250656,Standort,Franz-Rücker-Allee / Hedwig-Dransfeld-Straße,6048700003,normal,Frankfurt am Main,Deutschland,8.646423000000000,50.128599000000000,Nein,Nein,Nein,Nein,Ja,Call a Bike,Call a Bike
250658,Standort,Kettenhofweg / Corneliusstraße,6032500002,normal,Frankfurt am Main,Deutschland,8.659476000000000,50.116283000000000,Nein,Nein,Nein,Nein,Ja,Call a Bike,Call a Bike
250659,Standort,Günthersburgallee / Rothschildallee,6038900001,normal,Frankfurt am Main,Deutschland,8.698197000000000,50.126554000000000,Nein,Nein,Nein,Nein,Ja,Call a Bike,Call a Bike
250661,Standort,Hallgartenstraße / Hartmann-Ibach-Straße,6038900002,normal,Frankfurt am Main,Deutschland,8.699603000000000,50.130874000000000,Nein,Nein,Nein,Nein,Ja,Call a Bike,Call a Bike
250664,Standort,Grüne Straße / Hanauer Landstraße,6031600002,normal,Frankfurt am Main,Deutschland,8.696352000000000,50.113656000000000,Nein,Nein,Nein,Nein,Ja,Call a Bike,Call a Bike
250668,Standort,Burnitzstraße,6059600001,normal,Frankfurt am Main,Deutschland,8.677679000000000,50.097435000000000,Nein,Nein,Nein,Nein,Ja,Call a Bike,Call a Bike
250669,Standort,Affentorplatz,6059400006,normal,Frankfurt am Main,Deutschland,8.690196000000000,50.104356000000000,Nein,Nein,Nein,Nein,Ja,Call a Bike,Call a Bike
250670,Standort,S-Bahn Station Lokalbahnhof / Siemensstraße,6059400007,normal,Frankfurt am Main,Deutschland,8.695180000000000,50.102755000000000,Nein,Nein,Nein,Nein,Ja,Call a Bike,Call a Bike
250672,Standort,Berger Straße / Rendeler Straße,6038500001,normal,Frankfurt am Main,Deutschland,8.709802000000000,50.127724000000000,Nein,Nein,Nein,Nein,Ja,Call a Bike,Call a Bike
250675,Standort,Ernst-May-Platz,6038500002,normal,Frankfurt am Main,Deutschland,8.716830000000000,50.126415000000000,Nein,Nein,Nein,Nein,Ja,Call a Bike,Call a Bike
250676,Standort,Alt-Fechenheim / Lappengasse,6038600004,normal,Frankfurt am Main,Deutschland,8.768952000000000,50.125173000000000,Nein,Nein,Nein,Nein,Ja,Call a Bike,Call a Bike
250677,Standort,Bodenseestraße / Am Rütschlehen,6038600005,normal,Frankfurt am Main,Deutschland,8.762728000000000,50.124107000000000,Nein,Nein,Nein,Nein,Ja,Call a Bike,Call a Bike
250678,Standort,Dieburger Straße,6038600006,normal,Frankfurt am Main,Deutschland,8.766709000000000,50.115133000000000,Nein,Nein,Nein,Nein,Ja,Call a Bike,Call a Bike
250680,Standort,Vilbeler Landstraße / Hanauer Landstraße,6038600007,normal,Frankfurt am Main,Deutschland,8.766697000000000,50.133324000000000,Nein,Nein,Nein,Nein,Ja,Call a Bike,Call a Bike
250681,Standort,Hanauer Landstraße / Cassellastraße,6038600008,normal,Frankfurt am Main,Deutschland,8.759806000000000,50.129883000000000,Nein,Nein,Nein,Nein,Ja,Call a Bike,Call a Bike
250682,Standort,Hanauer Landstraße / Haltestelle Hugo-Junkers-Str.,6038600009,normal,Frankfurt am Main,Deutschland,8.754048000000000,50.127973000000000,Nein,Nein,Nein,Nein,Ja,Call a Bike,Call a Bike
250692,Standort,Stichlingstraße / Speicherstraße,6032700005,normal,Frankfurt am Main,Deutschland,8.658337000000000,50.099473000000000,Nein,Nein,Nein,Nein,Ja,Call a Bike,Call a Bike
250694,Standort,Markgrafenstraße / Leipziger Straße,6048700004,normal,Frankfurt am Main,Deutschland,8.645447000000000,50.122944000000000,Nein,Nein,Nein,Nein,Ja,Call a Bike,Call a Bike
250917,Standort,Alfred-Brehm-Platz / Zoo Frankfurt,6031600003,normal,Frankfurt am Main,Deutschland,8.698468000000000,50.115542000000000,Nein,Nein,Nein,Nein,Ja,Call a Bike,Call a Bike
250919,Standort,Palmengartenstraße,6032500003,normal,Frankfurt am Main,Deutschland,8.656690000000000,50.120484000000000,Nein,Nein,Nein,Nein,Ja,Call a Bike,Call a Bike
250920,Standort,Gräfstraße / Falkstraße,6048700005,normal,Frankfurt am Main,Deutschland,8.650992000000000,50.121787000000000,Nein,Nein,Nein,Nein,Ja,Call a Bike,Call a Bike
250921,Standort,Krifteler Straße / Lahnstraße,6032600008,normal,Frankfurt am Main,Deutschland,8.633584000000000,50.100800000000000,Nein,Nein,Nein,Nein,Ja,Call a Bike,Call a Bike
250931,Standort,Albert-Blank-Straße / Straße zur Internationalen S,6593100001,normal,Frankfurt am Main,Deutschland,8.507460000000000,50.084147000000000,Nein,Nein,Nein,Nein,Ja,Call a Bike,Call a Bike
250934,Standort,Richard-Weidlich-Platz,6593100002,normal,Frankfurt am Main,Deutschland,8.511626000000000,50.087738000000000,Nein,Nein,Nein,Nein,Ja,Call a Bike,Call a Bike
250935,Standort,Sindlinger Bahnstraße / Farbenstraße,6593100003,normal,Frankfurt am Main,Deutschland,8.517177000000000,50.080691000000000,Nein,Nein,Nein,Nein,Ja,Call a Bike,Call a Bike
250937,Standort,Eytelweinstraße / Hanauer Landstraße,6031400004,normal,Frankfurt am Main,Deutschland,8.707571000000000,50.111204000000000,Nein,Nein,Nein,Nein,Ja,Call a Bike,Call a Bike
250938,Standort,Ackermannstraße / Cordierstraße,6032600009,normal,Frankfurt am Main,Deutschland,8.625304000000000,50.100847000000000,Nein,Nein,Nein,Nein,Ja,Call a Bike,Call a Bike
250939,Standort,Ackermannstraße / Kleyerstraße,6032600010,normal,Frankfurt am Main,Deutschland,8.627853000000000,50.096274000000000,Nein,Nein,Nein,Nein,Ja,Call a Bike,Call a Bike
250940,Standort,Am Leonhardsbrunn / Frauenlobstraße,6048700006,normal,Frankfurt am Main,Deutschland,8.654021000000000,50.128244000000000,Nein,Nein,Nein,Nein,Ja,Call a Bike,Call a Bike
251476,Standort,Georg-Wilhelm-Straße/Mankiewicz,2720,normal,Hamburg,Deutschland,9.990000000000000,53.494000000000000,Nein,Nein,Nein,Nein,Ja,StadtRAD Hamburg,Call a Bike
251531,Standort,Alsfelder Straße / Friedberger Straße,6420263,normal,Darmstadt,Deutschland,8.656863000000000,49.886864000000000,Nein,Nein,Nein,Nein,Ja,Call a Bike,Call a Bike
251532,Standort,Friedrich-Ebert-Platz,6420235,normal,Darmstadt,Deutschland,8.655665000000000,49.882209000000000,Nein,Nein,Nein,Nein,Ja,Call a Bike,Call a Bike
251533,Standort,Heinrichstraße / Karlstraße,6420175,normal,Darmstadt,Deutschland,8.656132000000000,49.866156000000000,Nein,Nein,Nein,Nein,Ja,Call a Bike,Call a Bike
252139,Standort,Hansaallee / Platenstraße,6032000001,normal,Frankfurt am Main,Deutschland,8.667430000000000,50.136464000000000,Nein,Nein,Nein,Nein,Ja,Call a Bike,Call a Bike
252289,Standort,Peter-Bied-Straße / Heimchenweg,6592900005,normal,Frankfurt am Main,Deutschland,8.534744000000000,50.103988000000000,Nein,Nein,Nein,Nein,Ja,Call a Bike,Call a Bike
252291,Standort,S-Bahn Station Farbwerke,6592900006,normal,Frankfurt am Main,Deutschland,8.527893000000000,50.097936000000000,Nein,Nein,Nein,Nein,Ja,Call a Bike,Call a Bike
252292,Standort,Bornheimer Landstraße / Bäckerweg,6031600004,normal,Frankfurt am Main,Deutschland,8.692206000000000,50.122982000000000,Nein,Nein,Nein,Nein,Ja,Call a Bike,Call a Bike
252293,Standort,Alt-Sossenheim / Westerwaldstraße,6593600001,normal,Frankfurt am Main,Deutschland,8.568611000000000,50.122605000000000,Nein,Nein,Nein,Nein,Ja,Call a Bike,Call a Bike
252294,Standort,Kurmainzer Straße / Wilhelm-Beckel-Straße,6593600002,normal,Frankfurt am Main,Deutschland,8.556373000000000,50.114908000000000,Nein,Nein,Nein,Nein,Ja,Call a Bike,Call a Bike
252295,Standort,Dufourstraße / Dunantring,6593600003,normal,Frankfurt am Main,Deutschland,8.555827000000000,50.120624000000000,Nein,Nein,Nein,Nein,Ja,Call a Bike,Call a Bike
252296,Standort,Nieder Kirchweg / Mainzer Landstraße,6593400001,normal,Frankfurt am Main,Deutschland,8.567563000000000,50.098217000000000,Nein,Nein,Nein,Nein,Ja,Call a Bike,Call a Bike
252297,Standort,Dürkheimer Straße,6593400002,normal,Frankfurt am Main,Deutschland,8.574272000000000,50.098222000000000,Nein,Nein,Nein,Nein,Ja,Call a Bike,Call a Bike
252298,Standort,Birminghamstraße / Coventrystraße,6593400003,normal,Frankfurt am Main,Deutschland,8.578184000000000,50.101909000000000,Nein,Nein,Nein,Nein,Ja,Call a Bike,Call a Bike
252299,Standort,Philipp-Reis-Straße / Am Dammgraben,6048600008,normal,Frankfurt am Main,Deutschland,8.635615000000000,50.110952000000000,Nein,Nein,Nein,Nein,Ja,Call a Bike,Call a Bike
252300,Standort,Kleine Nelkenstraße / Praunheimer Landstraße,6048800006,normal,Frankfurt am Main,Deutschland,8.625886000000000,50.134100000000000,Nein,Nein,Nein,Nein,Ja,Call a Bike,Call a Bike
252301,Standort,Am Schwalbenschwanz / Chamissostraße,6043100002,normal,Frankfurt am Main,Deutschland,8.659971000000000,50.149733000000000,Nein,Nein,Nein,Nein,Ja,Call a Bike,Call a Bike
252302,Standort,Wolfsgangstraße / Hammanstraße,6032200003,normal,Frankfurt am Main,Deutschland,8.676940000000000,50.124344000000000,Nein,Nein,Nein,Nein,Ja,Call a Bike,Call a Bike
252303,Standort,Parlamentsstraße / Bornheimer Landwehr,6038500003,normal,Frankfurt am Main,Deutschland,8.716855000000000,50.122230000000000,Nein,Nein,Nein,Nein,Ja,Call a Bike,Call a Bike
252304,Standort,Goethestraße / Opernplatz,6031300003,normal,Frankfurt am Main,Deutschland,8.672808000000000,50.114791000000000,Nein,Nein,Nein,Nein,Ja,Call a Bike,Call a Bike
252479,Standort,Hindenburgstraße/Möringbogen,2377,normal,Hamburg,Deutschland,10.012225000000000,53.606177000000000,Nein,Nein,Nein,Nein,Ja,StadtRAD Hamburg,Call a Bike
252481,Standort,Nordschleswiger Straße/Dulsberg-Nord,2429,normal,Hamburg,Deutschland,10.065230000000000,53.585813000000000,Nein,Nein,Nein,Nein,Ja,StadtRAD Hamburg,Call a Bike
252483,Standort,Grandweg/Veilchenweg,2229,normal,Hamburg,Deutschland,9.964681000000000,53.589185000000000,Nein,Nein,Nein,Nein,Ja,StadtRAD Hamburg,Call a Bike
252484,Standort,Siemersplatz/Kollaustraße,2261,normal,Hamburg,Deutschland,9.963929000000000,53.600072000000000,Nein,Nein,Nein,Nein,Ja,StadtRAD Hamburg,Call a Bike
252485,Standort,Langenfelder Damm/Müggenkampstraße,2219,normal,Hamburg,Deutschland,9.938418000000000,53.580757000000000,Nein,Nein,Nein,Nein,Ja,StadtRAD Hamburg,Call a Bike
252486,Standort,Randstraße/ Stellingen,2218,normal,Hamburg,Deutschland,9.919356000000000,53.590248000000000,Nein,Nein,Nein,Nein,Ja,StadtRAD Hamburg,Call a Bike
252487,Standort,DESY/Notkestraße,2070,normal,Hamburg,Deutschland,9.878527000000000,53.574537000000000,Nein,Nein,Nein,Nein,Ja,StadtRAD Hamburg,Call a Bike
252488,Standort,Große Elbstraße/Van-der-Smissen-Straße,2117,normal,Hamburg,Deutschland,9.942460000000000,53.543906000000000,Nein,Nein,Nein,Nein,Ja,StadtRAD Hamburg,Call a Bike
252492,Standort,Thadenstraße/Holstenstraße,2119,normal,Hamburg,Deutschland,9.950708000000000,53.555827000000000,Nein,Nein,Nein,Nein,Ja,StadtRAD Hamburg,Call a Bike
252493,Standort,Elbchaussee/Teufelsbrück,2050,normal,Hamburg,Deutschland,9.862013000000000,53.547425000000000,Nein,Nein,Nein,Nein,Ja,StadtRAD Hamburg,Call a Bike
252494,Standort,Ohnhorststraße/Klein Flottbek,2040,normal,Hamburg,Deutschland,9.862160000000000,53.558587000000000,Nein,Nein,Nein,Nein,Ja,StadtRAD Hamburg,Call a Bike
252496,Standort,Caspar-Voght-Straße/Sievekingsallee,2564,normal,Hamburg,Deutschland,10.061703000000000,53.559893000000000,Nein,Nein,Nein,Nein,Ja,StadtRAD Hamburg,Call a Bike
252497,Standort,Riedweg/Vierbergen,2580,normal,Hamburg,Deutschland,10.095515000000000,53.547643000000000,Nein,Nein,Nein,Nein,Ja,StadtRAD Hamburg,Call a Bike
252498,Standort,Billstedter Platz/Öjendorfer Weg,2585,normal,Hamburg,Deutschland,10.106106000000000,53.540096000000000,Nein,Nein,Nein,Nein,Ja,StadtRAD Hamburg,Call a Bike
252499,Standort,Manshardtstraße/EKZ Manshardtstraße,2570,normal,Hamburg,Deutschland,10.107447000000000,53.559215000000000,Nein,Nein,Nein,Nein,Ja,StadtRAD Hamburg,Call a Bike
252500,Standort,Osdorfer Landstraße/ Elbe-Einkaufszentrum,2031,normal,Hamburg,Deutschland,9.862423000000000,53.571629000000000,Nein,Nein,Nein,Nein,Ja,StadtRAD Hamburg,Call a Bike
252615,Standort,h-da Fachbereich Soziale Arbeit,6420320,normal,Darmstadt,Deutschland,8.643986000000000,49.870750000000000,Nein,Nein,Nein,Nein,Ja,Call a Bike,Call a Bike
252788,Standort,Alsterdorf Markt/Evangelische Stiftung,2394,normal,Hamburg,Deutschland,10.023946200000000,53.612090900000000,Nein,Nein,Nein,Nein,Ja,StadtRAD Hamburg,Call a Bike
253227,Standort,Neuländer Kamp/Eurofins ,2809,normal,Hamburg,Deutschland,10.004132700000000,53.461651300000000,Nein,Nein,Nein,Nein,Ja,StadtRAD Hamburg,Call a Bike
253357,Standort,Djarkartaweg/Sengelmannstraße,2376,normal,Hamburg,Deutschland,10.022685000000000,53.609163000000000,Nein,Nein,Nein,Nein,Ja,StadtRAD Hamburg,Call a Bike
253969,Standort,Gneisenaustraße / Goebenstraße,6519500002,normal,Wiesbaden,Deutschland,8.224316000000000,50.079747000000000,Nein,Nein,Nein,Nein,Ja,Call a Bike,Call a Bike
253970,Standort,Bismarckring/Westendstraße,6519500003,normal,Wiesbaden,Deutschland,8.228732000000000,50.082591000000000,Nein,Nein,Nein,Nein,Ja,Call a Bike,Call a Bike
254005,Standort,Spiegelgasse/Webergasse,6518300003,normal,Wiesbaden,Deutschland,8.242590000000000,50.084631000000000,Nein,Nein,Nein,Nein,Ja,Call a Bike,Call a Bike
254006,Standort,Löwenplatz,6542800004,normal,Rüsselsheim,Deutschland,8.413324000000000,49.994262000000000,Nein,Nein,Nein,Nein,Ja,Call a Bike,Call a Bike
254263,Standort,Campus Kurt-Schumacher-Ring,6519700004,normal,Wiesbaden,Deutschland,8.218162000000000,50.080832000000000,Nein,Nein,Nein,Nein,Ja,Call a Bike,Call a Bike
254278,Standort,Rödelheimer Landstraße / Ludwig-Landmann-Straße,6048900003,normal,Frankfurt am Main,Deutschland,8.620189000000000,50.121315000000000,Nein,Nein,Nein,Nein,Ja,Call a Bike,Call a Bike
254280,Standort,S-Bahn Station Berkersheim,6043500003,normal,Frankfurt am Main,Deutschland,8.697946000000000,50.176657000000000,Nein,Nein,Nein,Nein,Ja,Call a Bike,Call a Bike
254282,Standort,Rechneigrabenstraße / Lange Straße,6031100004,normal,Frankfurt am Main,Deutschland,8.692375000000000,50.111198000000000,Nein,Nein,Nein,Nein,Ja,Call a Bike,Call a Bike
254283,Standort,Hallenbad Höchst,6592900007,normal,Frankfurt am Main,Deutschland,8.544928000000000,50.099188000000000,Nein,Nein,Nein,Nein,Ja,Call a Bike,Call a Bike
254285,Standort,Röderbergweg,6031400006,normal,Frankfurt am Main,Deutschland,8.701590000000000,50.113334000000000,Nein,Nein,Nein,Nein,Ja,Call a Bike,Call a Bike
254288,Standort,Richard-Wagner-Straße / Brahmsstraße,6031800008,normal,Frankfurt am Main,Deutschland,8.687630000000000,50.130326000000000,Nein,Nein,Nein,Nein,Ja,Call a Bike,Call a Bike
254289,Standort,Rohrbachstraße / Rothschildallee,6038900003,normal,Frankfurt am Main,Deutschland,8.696379000000000,50.128306000000000,Nein,Nein,Nein,Nein,Ja,Call a Bike,Call a Bike
254290,Standort,Buchgasse / Limpurgergasse,6031100005,normal,Frankfurt am Main,Deutschland,8.679792000000000,50.109737000000000,Nein,Nein,Nein,Nein,Ja,Call a Bike,Call a Bike
254291,Standort,Idsteiner Straße / Eppenhainer Straße,6032600011,normal,Frankfurt am Main,Deutschland,8.625135000000000,50.104874000000000,Nein,Nein,Nein,Nein,Ja,Call a Bike,Call a Bike
254293,Standort,Idsteiner Straße / Schneidhainer Straße,6032600012,normal,Frankfurt am Main,Deutschland,8.629497000000000,50.105330000000000,Nein,Nein,Nein,Nein,Ja,Call a Bike,Call a Bike
254294,Standort,Allerheiligentor,6031100006,normal,Frankfurt am Main,Deutschland,8.692383000000000,50.113184000000000,Nein,Nein,Nein,Nein,Ja,Call a Bike,Call a Bike
254295,Standort,Zum Pfarrturm / Saalgasse,6031100007,normal,Frankfurt am Main,Deutschland,8.684975000000000,50.110006000000000,Nein,Nein,Nein,Nein,Ja,Call a Bike,Call a Bike
254296,Standort,Bleichstraße - Friedberger Tor,6031300004,normal,Frankfurt am Main,Deutschland,8.687909000000000,50.118059000000000,Nein,Nein,Nein,Nein,Ja,Call a Bike,Call a Bike
254298,Standort,Friedberger Landstraße / Vogelsbergstraße,6031600005,normal,Frankfurt am Main,Deutschland,8.691949000000000,50.125230000000000,Nein,Nein,Nein,Nein,Ja,Call a Bike,Call a Bike
254299,Standort,Südbahnhof / Mörfelder Landstraße,6059800001,normal,Frankfurt am Main,Deutschland,8.687594000000000,50.098750000000000,Nein,Nein,Nein,Nein,Ja,Call a Bike,Call a Bike
254300,Standort,Walter-Kolb-Straße / Laubestraße,6059400008,normal,Frankfurt am Main,Deutschland,8.684188000000000,50.104735000000000,Nein,Nein,Nein,Nein,Ja,Call a Bike,Call a Bike
254302,Standort,Wendelsplatz / Darmstädter Landstraße,6059800002,normal,Frankfurt am Main,Deutschland,8.692092000000000,50.100372000000000,Nein,Nein,Nein,Nein,Ja,Call a Bike,Call a Bike
254303,Standort,Am Tiergarten / Maulbeerstraße,6031600006,normal,Frankfurt am Main,Deutschland,8.704861000000000,50.115305000000000,Nein,Nein,Nein,Nein,Ja,Call a Bike,Call a Bike
254307,Standort,Zum Brommenhof / Gerbermühlstraße,6059400009,normal,Frankfurt am Main,Deutschland,8.699757000000000,50.104640000000000,Nein,Nein,Nein,Nein,Ja,Call a Bike,Call a Bike
254309,Standort,Bahnhof Höchst Ausgang Süd,6592900008,normal,Frankfurt am Main,Deutschland,8.542477000000000,50.102022000000000,Nein,Nein,Nein,Nein,Ja,Call a Bike,Call a Bike
254646,Standort,Schloßstraße / Robert-Mayer-Straße,6048600009,normal,Frankfurt am Main,Deutschland,8.645445000000000,50.117505000000000,Nein,Nein,Nein,Nein,Ja,Call a Bike,Call a Bike
254647,Standort,Haardtwaldplatz,6052800002,normal,Frankfurt am Main,Deutschland,8.636056000000000,50.086111000000000,Nein,Nein,Nein,Nein,Ja,Call a Bike,Call a Bike
254649,Standort,Bruchfeldplatz,6052800003,normal,Frankfurt am Main,Deutschland,8.644618000000000,50.087386000000000,Nein,Nein,Nein,Nein,Ja,Call a Bike,Call a Bike
254651,Standort,Gerauer Straße / Güntherstraße,6052800004,normal,Frankfurt am Main,Deutschland,8.645849000000000,50.081445000000000,Nein,Nein,Nein,Nein,Ja,Call a Bike,Call a Bike
254652,Standort,Bechtenwaldstraße / Hahnbergweg,6593100004,normal,Frankfurt am Main,Deutschland,8.500329000000000,50.097900000000000,Nein,Nein,Nein,Nein,Ja,Call a Bike,Call a Bike
254653,Standort,S-Bahn Station Zeilsheim,6593100006,normal,Frankfurt am Main,Deutschland,8.507160000000000,50.090267000000000,Nein,Nein,Nein,Nein,Ja,Call a Bike,Call a Bike
254655,Standort,Im Mainfeld,6052800005,normal,Frankfurt am Main,Deutschland,8.643092000000000,50.090134000000000,Nein,Nein,Nein,Nein,Ja,Call a Bike,Call a Bike
254657,Standort,Kelsterbacher Straße / Schwanheimer Straße,6052800006,normal,Frankfurt am Main,Deutschland,8.646267000000000,50.088533000000000,Nein,Nein,Nein,Nein,Ja,Call a Bike,Call a Bike
254658,Standort,Haltestelle Rennbahn,6052800007,normal,Frankfurt am Main,Deutschland,8.651432000000000,50.083313000000000,Nein,Nein,Nein,Nein,Ja,Call a Bike,Call a Bike
254660,Standort,Reichsforststraße / Waldstraße,6052800008,normal,Frankfurt am Main,Deutschland,8.648070000000000,50.078325000000000,Nein,Nein,Nein,Nein,Ja,Call a Bike,Call a Bike
254661,Standort,Deutschordenstraße / Komturstraße,6052800009,normal,Frankfurt am Main,Deutschland,8.652322000000000,50.089769000000000,Nein,Nein,Nein,Nein,Ja,Call a Bike,Call a Bike
254662,Standort,Seckbacher Landstraße / Weidenbornstraße,6038900004,normal,Frankfurt am Main,Deutschland,8.708961000000000,50.130979000000000,Nein,Nein,Nein,Nein,Ja,Call a Bike,Call a Bike
254723,Standort,S Nettelnburg/Friedrich-Frank-Bogen,2920,normal,Hamburg,Deutschland,10.182199000000000,53.488482000000000,Nein,Nein,Nein,Nein,Ja,StadtRAD Hamburg,Call a Bike
254724,Standort,Wentorfer Straße/Bezirksamt Bergedorf,2910,normal,Hamburg,Deutschland,10.220000000000000,53.487427000000000,Nein,Nein,Nein,Nein,Ja,StadtRAD Hamburg,Call a Bike
254725,Standort,Vierlandenstraße/Johann-Adolf-Hasse-Platz,2911,normal,Hamburg,Deutschland,10.210913000000000,53.488449000000000,Nein,Nein,Nein,Nein,Ja,StadtRAD Hamburg,Call a Bike
254726,Standort,Lohbrügger Markt/Ludwig-Rosenberg-Ring,2913,normal,Hamburg,Deutschland,10.206894000000000,53.494675000000000,Nein,Nein,Nein,Nein,Ja,StadtRAD Hamburg,Call a Bike
254727,Standort,Bahnhof Bergedorf/Johann-Meyer-Straße,2912,normal,Hamburg,Deutschland,10.206105000000000,53.490496000000000,Nein,Nein,Nein,Nein,Ja,StadtRAD Hamburg,Call a Bike
254728,Standort,S Allermöhe/Walter-Rudolphi-Weg,2921,normal,Hamburg,Deutschland,10.158515000000000,53.490126000000000,Nein,Nein,Nein,Nein,Ja,StadtRAD Hamburg,Call a Bike
254950,Standort,Industriepark Höchst Tor Ost,6592900009,normal,Frankfurt am Main,Deutschland,8.538669000000000,50.095953000000000,Nein,Nein,Nein,Nein,Ja,Call a Bike,Call a Bike
255094,Standort,Franklinstraße / Galvanistraße,6049600001,normal,Frankfurt am Main,Deutschland,8.636161000000000,50.115517000000000,Nein,Nein,Nein,Nein,Ja,Call a Bike,Call a Bike
255095,Standort,Bornheimer Landwehr / Wittelsbacherallee,6038500004,normal,Frankfurt am Main,Deutschland,8.710066000000000,50.122422000000000,Nein,Nein,Nein,Nein,Ja,Call a Bike,Call a Bike
255298,Standort,Friedrich-Ebert-Damm/Helbingtwiete,2436,normal,Hamburg,Deutschland,10.095665000000000,53.588172000000000,Nein,Nein,Nein,Nein,Ja,StadtRAD Hamburg,Call a Bike
255299,Standort,Charlie-Mills-Straße/Friedrich-Ebert-Damm,2437,normal,Hamburg,Deutschland,10.106858000000000,53.591450000000000,Nein,Nein,Nein,Nein,Ja,StadtRAD Hamburg,Call a Bike
255302,Standort,Rahlstedter Weg/Berner Heerweg,2441,normal,Hamburg,Deutschland,10.120210000000000,53.606246000000000,Nein,Nein,Nein,Nein,Ja,StadtRAD Hamburg,Call a Bike
255303,Standort,Gründgensstraße/César-Klein-Ring,2451,normal,Hamburg,Deutschland,10.058096000000000,53.610149000000000,Nein,Nein,Nein,Nein,Ja,StadtRAD Hamburg,Call a Bike
255305,Standort,Traberweg/Eckerkoppel,2440,normal,Hamburg,Deutschland,10.101459000000000,53.598017000000000,Nein,Nein,Nein,Nein,Ja,StadtRAD Hamburg,Call a Bike
255441,Standort,NTT Data,,normal,München,Deutschland,11.587790000000000,48.184060000000000,Nein,Nein,Nein,Nein,Ja,Call a Bike,Call a Bike
255471,Standort,NTT Data,,normal,München,Deutschland,11.587420000000000,48.184280000000000,Nein,Nein,Nein,Nein,Ja,Call a Bike,Call a Bike
255731,Standort,Schweizer Straße / Städelstraße,6059600002,normal,Frankfurt am Main,Deutschland,8.678671000000000,50.104321000000000,Nein,Nein,Nein,Nein,Ja,Call a Bike,Call a Bike
255734,Standort,Hanauer Landstraße 334,6031400015,normal,Frankfurt am Main,Deutschland,8.742984000000000,50.123378000000000,Nein,Nein,Nein,Nein,Ja,Call a Bike,Call a Bike
256115,Standort,S-Bahn Station Frankfurter Berg,6043300004,normal,Frankfurt am Main,Deutschland,8.675868000000000,50.170418000000000,Nein,Nein,Nein,Nein,Ja,Call a Bike,Call a Bike
256196,Standort,Stralsunder Straße 34,6032300007,normal,Frankfurt am Main,Deutschland,8.669713000000000,50.130836000000000,Nein,Nein,Nein,Nein,Ja,Call a Bike,Call a Bike
256368,Standort,Hofstraße 5,6031100019,normal,Frankfurt am Main,Deutschland,8.674389000000000,50.107554000000000,Nein,Nein,Nein,Nein,Ja,Call a Bike,Call a Bike
256467,Standort,Röntgenstraße/Philips,2396,normal,Hamburg,Deutschland,10.012208800000000,53.623480900000000,Nein,Nein,Nein,Nein,Ja,StadtRAD Hamburg,Call a Bike
257268,Standort,Ludwigstraße / Niddastraße,6032900004,normal,Frankfurt am Main,Deutschland,8.658690000000000,50.107443000000000,Nein,Nein,Nein,Nein,Ja,Call a Bike,Call a Bike
257272,Standort,Mörfelder Landstraße / Riedhofweg,6059600006,normal,Frankfurt am Main,Deutschland,8.674523000000000,50.091668000000000,Nein,Nein,Nein,Nein,Ja,Call a Bike,Call a Bike
257273,Standort,Schwarzwaldstraße / Neuwiesenstraße,6052800017,normal,Frankfurt am Main,Deutschland,8.653185000000000,50.080624000000000,Nein,Nein,Nein,Nein,Ja,Call a Bike,Call a Bike
257274,Standort,Sachsenhäuser Landwehrweg / Boehlepark,6059800006,normal,Frankfurt am Main,Deutschland,8.690786000000000,50.088122000000000,Nein,Nein,Nein,Nein,Ja,Call a Bike,Call a Bike
257275,Standort,Hainer Weg / Scholdererweg,6059900012,normal,Frankfurt am Main,Deutschland,8.697672000000000,50.085379000000000,Nein,Nein,Nein,Nein,Ja,Call a Bike,Call a Bike
257332,Standort,Engelsruhe / Gotenstraße,6592900010,normal,Frankfurt am Main,Deutschland,8.536217000000000,50.114615000000000,Nein,Nein,Nein,Nein,Ja,Call a Bike,Call a Bike
257333,Standort,Hans-Böckler-Straße / Geißspitzweg,6592900011,normal,Frankfurt am Main,Deutschland,8.529770000000000,50.111944000000000,Nein,Nein,Nein,Nein,Ja,Call a Bike,Call a Bike
257334,Standort,Sternstraße / Unterweg,6031800002,normal,Frankfurt am Main,Deutschland,8.682300000000000,50.120230000000000,Nein,Nein,Nein,Nein,Ja,Call a Bike,Call a Bike
257341,Standort,Hügelstraße / Wilhelm-Busch-Straße,6043100006,normal,Frankfurt am Main,Deutschland,8.661571000000000,50.147038000000000,Nein,Nein,Nein,Nein,Ja,Call a Bike,Call a Bike
257343,Standort,Nußzeil / Josephskirchstraße,6043300009,normal,Frankfurt am Main,Deutschland,8.661729000000000,50.156370000000000,Nein,Nein,Nein,Nein,Ja,Call a Bike,Call a Bike
258595,Standort,Mainkai / Am Hafendeck,6306700001,normal,Frankfurt am Main,Deutschland,8.753940000000000,50.112720000000000,Nein,Nein,Nein,Nein,Ja,Call a Bike,Call a Bike
258930,Standort,Stadtwerke Marburg,3000086,normal,Marburg,Deutschland,8.756426000000000,50.789641000000000,Nein,Nein,Nein,Nein,Ja,Call a Bike,Call a Bike
258992,Standort,Ledermuseum/Berliner Straße,6306700003,normal,Frankfurt am Main,Deutschland,8.751700000000000,50.106110000000000,Nein,Nein,Nein,Nein,Ja,Call a Bike,Call a Bike
258993,Standort,Rathaus/Berliner Straße,6306500001,normal,Frankfurt am Main,Deutschland,8.761910000000000,50.105920000000000,Nein,Nein,Nein,Nein,Ja,Call a Bike,Call a Bike
258994,Standort,Berliner Straße/Marktplatz,6306500002,normal,Frankfurt am Main,Deutschland,8.764810000000000,50.105550000000000,Nein,Nein,Nein,Nein,Ja,Call a Bike,Call a Bike
258995,Standort,Kaiserstraße/Bismarckstraße,6306500003,normal,Frankfurt am Main,Deutschland,8.760530000000000,50.099800000000000,Nein,Nein,Nein,Nein,Ja,Call a Bike,Call a Bike
258996,Standort,Starkenburgring/Klinikum Offenbach,6306900001,normal,Frankfurt am Main,Deutschland,8.755880000000000,50.096300000000000,Nein,Nein,Nein,Nein,Ja,Call a Bike,Call a Bike
258998,Standort,Bahnhof Offenbach Ost/Lämmerspieler Weg,6307100001,normal,Frankfurt am Main,Deutschland,8.784160000000000,50.102460000000000,Nein,Nein,Nein,Nein,Ja,Call a Bike,Call a Bike
258999,Standort,Anhalter Straße / Rumpenheimer Straße,6307500001,normal,Frankfurt am Main,Deutschland,8.790240000000000,50.124140000000000,Nein,Nein,Nein,Nein,Ja,Call a Bike,Call a Bike
259000,Standort,Brunnenweg/Wilhelm-Schramm-Straße,6307100002,normal,Frankfurt am Main,Deutschland,8.783610000000000,50.083680000000000,Nein,Nein,Nein,Nein,Ja,Call a Bike,Call a Bike
259001,Standort,Bahnhof Bieber / Poststraße,6307300001,normal,Frankfurt am Main,Deutschland,8.808310000000000,50.090090000000000,Nein,Nein,Nein,Nein,Ja,Call a Bike,Call a Bike
260945,Standort,HEAG mobilo / Depot Jägertorstraße,6420275,normal,Darmstadt,Deutschland,8.677767000000000,49.904692000000000,Nein,Nein,Nein,Nein,Ja,Call a Bike,Call a Bike
262958,Standort,Lincoln Mobilitätszentrale,6420415,normal,Darmstadt,Deutschland,8.643929000000000,49.846693000000000,Nein,Nein,Nein,Nein,Ja,Call a Bike,Call a Bike
263847,Standort,Grundstraße / Bartningstraße,6420700,normal,Darmstadt,Deutschland,8.681342000000000,49.898301000000000,Nein,Nein,Nein,Nein,Ja,Call a Bike,Call a Bike
264330,Standort,Bleickenallee/Kinderkrankenhaus Altona,2128,normal,Hamburg,Deutschland,9.912913400000000,53.551288100000000,Nein,Nein,Nein,Nein,Ja,StadtRAD Hamburg,Call a Bike
264751,Standort,Klinikum Rüsselsheim,6542800003,normal,Rüsselsheim,Deutschland,8.423971000000000,49.983778000000000,Nein,Nein,Nein,Nein,Ja,Call a Bike,Call a Bike
264820,Standort,Osterstraße/Heußweg,2228,normal,Hamburg,Deutschland,9.952070900000000,53.575983100000000,Nein,Nein,Nein,Nein,Ja,StadtRAD Hamburg,Call a Bike
264821,Standort,Bahrenfelder Chaussee/Von-Sauer-Straße,2080,normal,Hamburg,Deutschland,9.910869600000000,53.565972900000000,Nein,Nein,Nein,Nein,Ja,StadtRAD Hamburg,Call a Bike
267236,Standort,Kranichsteiner Straße / Am Karlshof,6420460,normal,Darmstadt,Deutschland,8.666032000000000,49.882646000000000,Nein,Nein,Nein,Nein,Ja,Call a Bike,Call a Bike
267817,Standort,AGAPLESION ELISABETHENSTIFT,6420525,normal,Darmstadt,Deutschland,8.666222000000000,49.873546000000000,Nein,Nein,Nein,Nein,Ja,Call a Bike,Call a Bike
267945,Standort,Emil-von- Behring-Straße / Brunnenstraße ,3000013,normal,Marburg,Deutschland,8.751527000000000,50.816650000000000,Nein,Nein,Nein,Nein,Ja,Call a Bike,Call a Bike
267948,Standort,Aquamar,3000063,normal,Marburg,Deutschland,8.773250000000000,50.801311000000000,Nein,Nein,Nein,Nein,Ja,Call a Bike,Call a Bike
268358,Standort,Sieldeich/ Gresham Carat Hotel,2690,normal,Hamburg,Deutschland,10.021814000000000,53.528309000000000,Nein,Nein,Nein,Nein,Ja,StadtRAD Hamburg,Call a Bike
269385,Standort,Noackstraße 24,6420411,normal,Darmstadt,Deutschland,8.643837000000000,49.850023000000000,Nein,Nein,Nein,Nein,Ja,Call a Bike,Call a Bike
269947,Standort,Merck Maulbeerallee,6420267,normal,Darmstadt,Deutschland,8.655823000000000,49.897620000000000,Nein,Nein,Nein,Nein,Ja,Call a Bike,Call a Bike
270558,Standort,Emil-Sulzbach Straße / Robert-Mayer Straße,60020002,normal,Frankfurt am Main,Deutschland,,,Nein,Nein,Nein,Nein,Ja,Call a Bike,Call a Bike
270559,Standort,Emil-Sulzbach Straße / Robert-Mayer Straße,60020003,normal,Frankfurt am Main,Deutschland,,,Nein,Nein,Nein,Nein,Ja,Call a Bike,Call a Bike
272652,Standort,Niddastraße / Weserstraße,6032900014,normal,Frankfurt am Main,Deutschland,8.667340000000000,50.110950000000000,Nein,Nein,Nein,Nein,Ja,Call a Bike,Call a Bike
